{"type": "FeatureCollection", "features": [{"type": "Feature", "properties": {"name": "안동경찰서 일직파출소", "osm_id": 7792573032, "origin": "OBSERVED", "amenity": "police"}, "geometry": {"type": "Point", "coordinates": [128.6612522, 36.4753405]}}, {"type": "Feature", "properties": {"name": "일직면 행정복지센터", "osm_id": 7831787346, "origin": "OBSERVED", "amenity": "townhall"}, "geometry": {"type": "Point", "coordinates": [128.6595587, 36.4753309]}}, {"type": "Feature", "properties": {"name": "남선면 행정복지센터", "osm_id": 7831795459, "origin": "OBSERVED", "amenity": "townhall"}, "geometry": {"type": "Point", "coordinates": [128.7698655, 36.5261927]}}, {"type": "Feature", "properties": {"name": "남후면 행정복지센터", "osm_id": 7831795460, "origin": "OBSERVED", "amenity": "townhall"}, "geometry": {"type": "Point", "coordinates": [128.6900181, 36.523645]}}, {"type": "Feature", "properties": {"name": "보현사", "osm_id": 11256487960, "origin": "OBSERVED", "amenity": "place_of_worship"}, "geometry": {"type": "Point", "coordinates": [128.6829016, 36.5012484]}}, {"type": "Feature", "properties": {"name": "", "osm_id": 13075773714, "origin": "OBSERVED", "amenity": "shelter"}, "geometry": {"type": "Point", "coordinates": [128.7129731, 36.5206631]}}, {"type": "Feature", "properties": {"name": "남산초등학교", "osm_id": 1422813383, "origin": "OBSERVED", "amenity": "school"}, "geometry": {"type": "Point", "coordinates": [128.7688093846154, 36.52470792307692]}}, {"type": "Feature", "properties": {"name": "일직초등학교", "osm_id": 1422813447, "origin": "OBSERVED", "amenity": "school"}, "geometry": {"type": "Point", "coordinates": [128.6568381111111, 36.48398511111111]}}, {"type": "Feature", "properties": {"name": "법제사", "osm_id": 1422934195, "origin": "OBSERVED", "amenity": "place_of_worship"}, "geometry": {"type": "Point", "coordinates": [128.72154908333334, 36.51892291666667]}}, {"type": "Feature", "properties": {"name": "모운사", "osm_id": 1454293032, "origin": "OBSERVED", "amenity": "place_of_worship"}, "geometry": {"type": "Point", "coordinates": [128.65067258333332, 36.53466558333333]}}, {"type": "Feature", "properties": {"name": "고운사", "osm_id": 1454338601, "origin": "OBSERVED", "amenity": "place_of_worship"}, "geometry": {"type": "Point", "coordinates": [128.7488216666667, 36.458032714285714]}}]}