{"type": "FeatureCollection", "features": [{"type": "Feature", "properties": {"name": "귀미1리 (안동 일직면)", "kind": "temporary_housing_village", "note": "산불 이재민 임시주택 침수·토사 피해 보도. 마을 중심점이며 단지 위치가 아님", "origin": "DERIVED"}, "geometry": {"type": "Point", "coordinates": [128.68783, 36.46538]}}, {"type": "Feature", "properties": {"name": "구계리 (의성 단촌면)", "kind": "temporary_housing_village", "note": "임시주택 침수, 주민·캠핑객 155명 대피 보도. 마을 중심점", "origin": "DERIVED"}, "geometry": {"type": "Point", "coordinates": [128.74354, 36.46841]}}, {"type": "Feature", "properties": {"name": "운산리 (미천 홍수경보 지점)", "kind": "warning_point", "note": "낙동강홍수통제소 홍수경보 발령 지점(보도). 관측소 좌표가 아니라 마을 중심점", "origin": "DERIVED"}, "geometry": {"type": "Point", "coordinates": [128.65074, 36.47405]}}, {"type": "Feature", "properties": {"name": "광음리", "kind": "village", "note": "유원지 캠핑카 고립 보도", "origin": "DERIVED"}, "geometry": {"type": "Point", "coordinates": [128.66721, 36.50849]}}, {"type": "Feature", "properties": {"name": "신석리", "kind": "village", "note": "교회 일대 침수·3명 고립 보도", "origin": "DERIVED"}, "geometry": {"type": "Point", "coordinates": [128.78442, 36.52302]}}]}