{"type": "FeatureCollection", "features": [{"type": "Feature", "properties": {"name": "", "osm_id": 709237257, "origin": "OBSERVED", "building": "yes"}, "geometry": {"type": "Polygon", "coordinates": [[[128.705101, 36.458265], [128.705629, 36.458434], [128.705954, 36.457755], [128.70544, 36.457579], [128.705101, 36.458265]]]}}, {"type": "Feature", "properties": {"name": "", "osm_id": 709333033, "origin": "OBSERVED", "building": "yes"}, "geometry": {"type": "Polygon", "coordinates": [[[128.734824, 36.472338], [128.734952, 36.472389], [128.734992, 36.472338], [128.734861, 36.472276], [128.734824, 36.472338]]]}}, {"type": "Feature", "properties": {"name": "", "osm_id": 709333034, "origin": "OBSERVED", "building": "yes"}, "geometry": {"type": "Polygon", "coordinates": [[[128.735039, 36.472119], [128.734996, 36.47209], [128.734921, 36.472171], [128.735046, 36.472243], [128.735076, 36.472205], [128.735008, 36.472158], [128.735039, 36.472119]]]}}, {"type": "Feature", "properties": {"name": "", "osm_id": 709333039, "origin": "OBSERVED", "building": "yes"}, "geometry": {"type": "Polygon", "coordinates": [[[128.736296, 36.47133], [128.736446, 36.471343], [128.736435, 36.471296], [128.736301, 36.471278], [128.736296, 36.47133]]]}}, {"type": "Feature", "properties": {"name": "", "osm_id": 709333040, "origin": "OBSERVED", "building": "yes"}, "geometry": {"type": "Polygon", "coordinates": [[[128.736234, 36.471648], [128.736365, 36.471681], [128.736377, 36.471623], [128.736351, 36.471616], [128.736233, 36.471585], [128.736234, 36.471648]]]}}, {"type": "Feature", "properties": {"name": "", "osm_id": 709333041, "origin": "OBSERVED", "building": "yes"}, "geometry": {"type": "Polygon", "coordinates": [[[128.736233, 36.471585], [128.736351, 36.471616], [128.736359, 36.471565], [128.736237, 36.471533], [128.736233, 36.471585]]]}}, {"type": "Feature", "properties": {"name": "", "osm_id": 709333042, "origin": "OBSERVED", "building": "yes"}, "geometry": {"type": "Polygon", "coordinates": [[[128.736243, 36.471524], [128.736313, 36.47154], [128.736332, 36.471508], [128.736249, 36.47149], [128.736243, 36.471524]]]}}, {"type": "Feature", "properties": {"name": "", "osm_id": 709333060, "origin": "OBSERVED", "building": "greenhouse"}, "geometry": {"type": "Polygon", "coordinates": [[[128.726299, 36.461097], [128.726648, 36.461464], [128.726702, 36.46144], [128.726355, 36.461072], [128.726299, 36.461097]]]}}, {"type": "Feature", "properties": {"name": "", "osm_id": 709333061, "origin": "OBSERVED", "building": "greenhouse"}, "geometry": {"type": "Polygon", "coordinates": [[[128.726355, 36.461072], [128.726409, 36.461034], [128.72677, 36.461397], [128.726702, 36.46144], [128.726355, 36.461072]]]}}, {"type": "Feature", "properties": {"name": "", "osm_id": 709333062, "origin": "OBSERVED", "building": "greenhouse"}, "geometry": {"type": "Polygon", "coordinates": [[[128.726409, 36.461034], [128.72677, 36.461397], [128.726842, 36.46137], [128.72647, 36.460992], [128.726409, 36.461034]]]}}, {"type": "Feature", "properties": {"name": "", "osm_id": 709333063, "origin": "OBSERVED", "building": "greenhouse"}, "geometry": {"type": "Polygon", "coordinates": [[[128.726504, 36.460979], [128.727011, 36.461506], [128.727066, 36.461471], [128.727024, 36.461427], [128.726574, 36.460949], [128.726504, 36.460979]]]}}, {"type": "Feature", "properties": {"name": "", "osm_id": 709333064, "origin": "OBSERVED", "building": "greenhouse"}, "geometry": {"type": "Polygon", "coordinates": [[[128.726574, 36.460949], [128.727024, 36.461427], [128.727086, 36.461389], [128.726632, 36.460916], [128.726574, 36.460949]]]}}, {"type": "Feature", "properties": {"name": "", "osm_id": 709333065, "origin": "OBSERVED", "building": "greenhouse"}, "geometry": {"type": "Polygon", "coordinates": [[[128.726632, 36.460916], [128.727086, 36.461389], [128.727151, 36.461342], [128.726705, 36.460878], [128.726632, 36.460916]]]}}, {"type": "Feature", "properties": {"name": "", "osm_id": 709333066, "origin": "OBSERVED", "building": "greenhouse"}, "geometry": {"type": "Polygon", "coordinates": [[[128.726693, 36.461504], [128.727079, 36.461853], [128.727125, 36.461825], [128.726736, 36.461472], [128.726693, 36.461504]]]}}, {"type": "Feature", "properties": {"name": "", "osm_id": 709333067, "origin": "OBSERVED", "building": "greenhouse"}, "geometry": {"type": "Polygon", "coordinates": [[[128.726736, 36.461472], [128.727125, 36.461825], [128.727182, 36.461778], [128.727166, 36.461763], [128.7268, 36.461436], [128.726736, 36.461472]]]}}, {"type": "Feature", "properties": {"name": "", "osm_id": 709333068, "origin": "OBSERVED", "building": "greenhouse"}, "geometry": {"type": "Polygon", "coordinates": [[[128.7268, 36.461436], [128.727166, 36.461763], [128.727215, 36.461729], [128.726869, 36.461407], [128.7268, 36.461436]]]}}, {"type": "Feature", "properties": {"name": "", "osm_id": 709333070, "origin": "OBSERVED", "building": "greenhouse"}, "geometry": {"type": "Polygon", "coordinates": [[[128.72667, 36.462043], [128.726936, 36.462025], [128.726914, 36.461997], [128.72667, 36.462015], [128.72667, 36.462043]]]}}, {"type": "Feature", "properties": {"name": "", "osm_id": 887717538, "origin": "OBSERVED", "building": "yes"}, "geometry": {"type": "Polygon", "coordinates": [[[128.686987, 36.519442], [128.687062, 36.519288], [128.687262, 36.519351], [128.687186, 36.519505], [128.686987, 36.519442]]]}}, {"type": "Feature", "properties": {"name": "", "osm_id": 887717539, "origin": "OBSERVED", "building": "yes"}, "geometry": {"type": "Polygon", "coordinates": [[[128.687281, 36.519511], [128.68732, 36.519442], [128.68749, 36.519506], [128.687451, 36.519574], [128.687281, 36.519511]]]}}, {"type": "Feature", "properties": {"name": "", "osm_id": 887717540, "origin": "OBSERVED", "building": "yes"}, "geometry": {"type": "Polygon", "coordinates": [[[128.686712, 36.519261], [128.686752, 36.519185], [128.686965, 36.519257], [128.686926, 36.519332], [128.686712, 36.519261]]]}}, {"type": "Feature", "properties": {"name": "동안동변전소", "osm_id": 888564849, "origin": "OBSERVED", "building": "yes"}, "geometry": {"type": "Polygon", "coordinates": [[[128.777763, 36.528664], [128.777288, 36.528856], [128.777366, 36.52898], [128.777446, 36.528948], [128.777478, 36.528999], [128.777873, 36.528838], [128.777763, 36.528664]]]}}, {"type": "Feature", "properties": {"name": "남례문", "osm_id": 1155707424, "origin": "OBSERVED", "building": "roof"}, "geometry": {"type": "Polygon", "coordinates": [[[128.693613, 36.526799], [128.693788, 36.526561], [128.693914, 36.52662], [128.693739, 36.526858], [128.693613, 36.526799]]]}}, {"type": "Feature", "properties": {"name": "", "osm_id": 1214937327, "origin": "OBSERVED", "building": "yes"}, "geometry": {"type": "Polygon", "coordinates": [[[128.67167, 36.504031], [128.671994, 36.504171], [128.672087, 36.504033], [128.671761, 36.503892], [128.671786, 36.503855], [128.671645, 36.503795], [128.67151, 36.503997], [128.671597, 36.504034], [128.671652, 36.504058], [128.67167, 36.504031]]]}}]}