{"type": "FeatureCollection", "features": [{"type": "Feature", "properties": {"name": "", "osm_id": 709333029, "origin": "OBSERVED", "waterway": "stream"}, "geometry": {"type": "LineString", "coordinates": [[128.729306, 36.468492], [128.729376, 36.468775], [128.730033, 36.469329], [128.730505, 36.469898], [128.730831, 36.469872], [128.731409, 36.469707], [128.731607, 36.469917], [128.73191, 36.4707], [128.732289, 36.470907], [128.733258, 36.471056], [128.733883, 36.471127], [128.734754, 36.471738], [128.735409, 36.472271], [128.73572, 36.472509], [128.736152, 36.472612], [128.736888, 36.472561], [128.73734, 36.472372], [128.737713, 36.472604], [128.738161, 36.472857], [128.738835, 36.472976], [128.739347, 36.473083], [128.739974, 36.47329], [128.740366, 36.47329], [128.740586, 36.473187], [128.740803, 36.473185], [128.740994, 36.473073]]}}, {"type": "Feature", "properties": {"name": "미천", "osm_id": 1189918179, "origin": "OBSERVED", "waterway": "river"}, "geometry": {"type": "LineString", "coordinates": [[128.660537, 36.434461], [128.660692, 36.435861], [128.662228, 36.437098], [128.664427, 36.437832], [128.66525, 36.437895], [128.666151, 36.438159], [128.66709, 36.438547], [128.668098, 36.438849], [128.668522, 36.438784], [128.669676, 36.438491], [128.670196, 36.438301], [128.671569, 36.437718], [128.672191, 36.437291], [128.673238, 36.436721], [128.673844, 36.436458], [128.674563, 36.436411], [128.675448, 36.436549], [128.676038, 36.436829], [128.676907, 36.437464], [128.677626, 36.437986], [128.67843, 36.438948], [128.678897, 36.440027], [128.678972, 36.440506], [128.678972, 36.441274], [128.67902, 36.441766], [128.679272, 36.442189], [128.6799, 36.443229], [128.680828, 36.444938], [128.680984, 36.44559], [128.681451, 36.446776], [128.681096, 36.447195], [128.680785, 36.44814], [128.680362, 36.449206], [128.679686, 36.450069], [128.678302, 36.45082], [128.676263, 36.451329], [128.675673, 36.451527], [128.674943, 36.4517], [128.674546, 36.45192], [128.673892, 36.452472], [128.673307, 36.452882], [128.672186, 36.453672], [128.671693, 36.454064], [128.671446, 36.454146], [128.670893, 36.454155], [128.669214, 36.454133], [128.66819, 36.454039], [128.666757, 36.453711], [128.665631, 36.453486], [128.664923, 36.453598], [128.664107, 36.454151], [128.662691, 36.455273], [128.661511, 36.456515], [128.660631, 36.457766], [128.660277, 36.459087], [128.660277, 36.460269], [128.660728, 36.460976], [128.661393, 36.462089], [128.661554, 36.463375], [128.660996, 36.464644], [128.660084, 36.466093], [128.659451, 36.467439], [128.659429, 36.468362], [128.659494, 36.470153], [128.659682, 36.471102], [128.66003, 36.471783], [128.660738, 36.472857], [128.662455, 36.473841], [128.663914, 36.474686], [128.66533, 36.475264], [128.666843, 36.47542], [128.668495, 36.475377], [128.670588, 36.474997], [128.672733, 36.474221], [128.674128, 36.473064], [128.675845, 36.471684], [128.676692, 36.471184], [128.677744, 36.470675], [128.678677, 36.470269], [128.679278, 36.470191], [128.679793, 36.470304], [128.680163, 36.47045], [128.68027, 36.470882], [128.680372, 36.471304], [128.680485, 36.471421], [128.680918, 36.471522], [128.681005, 36.471542], [128.681778, 36.471952], [128.682121, 36.472202], [128.682561, 36.472452], [128.683419, 36.47284], [128.684202, 36.473392], [128.685372, 36.474177], [128.685393, 36.475489], [128.684597, 36.476134], [128.684245, 36.476671], [128.683505, 36.477171], [128.681585, 36.478034], [128.679675, 36.478603], [128.678441, 36.478862], [128.677132, 36.478663], [128.676346, 36.478303], [128.676006, 36.478152], [128.67544, 36.477865], [128.675, 36.477708], [128.674176, 36.477512], [128.67327, 36.477348], [128.672358, 36.477249], [128.671317, 36.477193], [128.670593, 36.477369], [128.670212, 36.477426], [128.669901, 36.477576], [128.669617, 36.477594], [128.668088, 36.477943], [128.667637, 36.478036], [128.666436, 36.478137], [128.663453, 36.478361], [128.661929, 36.478776], [128.659902, 36.479707], [128.658129, 36.480816], [128.656232, 36.481208], [128.654956, 36.481329], [128.651748, 36.481484], [128.649838, 36.481631], [128.648529, 36.482218], [128.647735, 36.483089], [128.647456, 36.484443], [128.647456, 36.485474], [128.647456, 36.486013], [128.647773, 36.48682], [128.648373, 36.487712], [128.648851, 36.488394], [128.649951, 36.489256], [128.650868, 36.489942], [128.651962, 36.490895], [128.652949, 36.492362], [128.654108, 36.495424], [128.654698, 36.496295], [128.65532, 36.497011], [128.657219, 36.497726], [128.659193, 36.498304], [128.660513, 36.498322], [128.661951, 36.49833], [128.663549, 36.498347], [128.666189, 36.498356], [128.667133, 36.49846], [128.668173, 36.498468], [128.668565, 36.498533], [128.668839, 36.498748], [128.669161, 36.499253], [128.669343, 36.499701], [128.669472, 36.500158], [128.669643, 36.501099], [128.669976, 36.502599], [128.67048, 36.50397], [128.671296, 36.504979], [128.672454, 36.505781], [128.673409, 36.505678], [128.673731, 36.505488], [128.673967, 36.504436], [128.67475, 36.503496], [128.675802, 36.502651], [128.676682, 36.502366], [128.67813, 36.502435], [128.678763, 36.502694], [128.679106, 36.503651], [128.679621, 36.50579], [128.679771, 36.507584], [128.679675, 36.508205], [128.679653, 36.508474], [128.679396, 36.508701], [128.679092, 36.508904], [128.679051, 36.509012], [128.678967, 36.509241], [128.678908, 36.510162], [128.678988, 36.510731], [128.679192, 36.51121], [128.679267, 36.51155], [128.679256, 36.512107], [128.679147, 36.512775], [128.679101, 36.513413], [128.678967, 36.514392], [128.678768, 36.515064], [128.678658, 36.515416], [128.67839, 36.515674], [128.677545, 36.516349], [128.676971, 36.516849], [128.676585, 36.517449], [128.676043, 36.517815], [128.675491, 36.518031], [128.67431, 36.518535], [128.672884, 36.519458], [128.672701, 36.520096], [128.673087, 36.520751], [128.673838, 36.521191], [128.675534, 36.521398], [128.677186, 36.521251], [128.679385, 36.520363], [128.680394, 36.520078], [128.682046, 36.52013], [128.683065, 36.52032], [128.68519, 36.520682], [128.687153, 36.521251], [128.687249, 36.522458], [128.686938, 36.522993], [128.686633, 36.523695], [128.686359, 36.524355], [128.686005, 36.524713], [128.685002, 36.524976], [128.68321, 36.525196], [128.681965, 36.525355], [128.680479, 36.525368], [128.679881, 36.525443], [128.679383, 36.525428], [128.678908, 36.525381], [128.678202, 36.525361], [128.677049, 36.525189], [128.676531, 36.525092], [128.676209, 36.524958], [128.675796, 36.524693], [128.675477, 36.524538], [128.67526, 36.52456], [128.673694, 36.524657], [128.673165, 36.524838], [128.672245, 36.525256], [128.67166, 36.525704], [128.670719, 36.526543], [128.67044, 36.526795], [128.670242, 36.526984], [128.670097, 36.527541], [128.670014, 36.527648], [128.669788, 36.528303], [128.669193, 36.529142], [128.668975, 36.529476], [128.6683, 36.530467], [128.66827, 36.530847], [128.668364, 36.531207], [128.66857, 36.531506], [128.668799, 36.531724], [128.668935, 36.531886], [128.668796, 36.531905], [128.668635, 36.53226], [128.668308, 36.532765], [128.668194, 36.532911], [128.66768, 36.533336], [128.66702, 36.533625], [128.666642, 36.53373], [128.666065, 36.533698], [128.66566, 36.533569], [128.665183, 36.533338], [128.664874, 36.533127], [128.664577, 36.533015], [128.663842, 36.532773], [128.662938, 36.532773], [128.662093, 36.533177], [128.662058, 36.533194], [128.66143, 36.533687], [128.660749, 36.53448], [128.659698, 36.535394], [128.659129, 36.536562], [128.658582, 36.537554], [128.65767, 36.538924], [128.657166, 36.539674], [128.656254, 36.54104], [128.655514, 36.541941], [128.655025, 36.54257], [128.654671, 36.542976], [128.654323, 36.543898], [128.654602, 36.545096], [128.655074, 36.545717], [128.655202, 36.546354], [128.655134, 36.54671]]}}, {"type": "Feature", "properties": {"name": "", "osm_id": 1422813490, "origin": "OBSERVED", "waterway": "river"}, "geometry": {"type": "LineString", "coordinates": [[128.735728, 36.456433], [128.734502, 36.456293], [128.734137, 36.45636], [128.733418, 36.456556], [128.732981, 36.456761], [128.732527, 36.457114], [128.732286, 36.457252], [128.732058, 36.457327], [128.731825, 36.457373], [128.731384, 36.457402], [128.730941, 36.457661], [128.730362, 36.457833], [128.729867, 36.457978], [128.729536, 36.457981], [128.729024, 36.457953], [128.728869, 36.457965], [128.728437, 36.458067], [128.728262, 36.458141], [128.727985, 36.458269], [128.727705, 36.458341], [128.727469, 36.458391], [128.727181, 36.458379], [128.726895, 36.458332], [128.726388, 36.458296], [128.725834, 36.458472], [128.725437, 36.45865], [128.724771, 36.459011], [128.724261, 36.459281], [128.723905, 36.459541], [128.723707, 36.45974], [128.723482, 36.459777], [128.723257, 36.459776], [128.722968, 36.459736], [128.722649, 36.459668], [128.722262, 36.459531], [128.722039, 36.45938], [128.721944, 36.459032], [128.721469, 36.458878], [128.720876, 36.458776], [128.720304, 36.458824], [128.72001, 36.458926], [128.71941, 36.4589], [128.719114, 36.458862], [128.718631, 36.458774], [128.718081, 36.458636], [128.717644, 36.458611], [128.716818, 36.458804], [128.715997, 36.45902], [128.715372, 36.4592], [128.71486, 36.459301], [128.714214, 36.459393], [128.713377, 36.45945], [128.713004, 36.45967], [128.712579, 36.45994], [128.712421, 36.460205], [128.712269, 36.460492], [128.712109, 36.460987], [128.711731, 36.461358], [128.711364, 36.461559], [128.710869, 36.461666], [128.710349, 36.461672], [128.710054, 36.461625], [128.709712, 36.461523], [128.709108, 36.461054], [128.708706, 36.460656], [128.708235, 36.460313], [128.707782, 36.460111], [128.707414, 36.460021], [128.707054, 36.459904], [128.706403, 36.459808], [128.705576, 36.459658], [128.70501, 36.459416], [128.704493, 36.459268], [128.704273, 36.459174], [128.703883, 36.459006], [128.703235, 36.458861], [128.702816, 36.458878], [128.702254, 36.459033], [128.701799, 36.459154], [128.701422, 36.45924], [128.701095, 36.459298], [128.700752, 36.459382], [128.699684, 36.459471], [128.699314, 36.459423], [128.698673, 36.459384], [128.698056, 36.459307], [128.697047, 36.45927], [128.696707, 36.459264], [128.695959, 36.459423], [128.695586, 36.459643], [128.695114, 36.459963], [128.694815, 36.46017], [128.694666, 36.460309], [128.694512, 36.460485], [128.69403, 36.461067], [128.693663, 36.461604], [128.693236, 36.462146], [128.692743, 36.462577], [128.692415, 36.462747], [128.692024, 36.462899], [128.691152, 36.463116], [128.69079, 36.463162], [128.690127, 36.463384], [128.689905, 36.46353], [128.689449, 36.46364], [128.688985, 36.463595], [128.688357, 36.463686], [128.687402, 36.463906], [128.686938, 36.464078], [128.686249, 36.46424], [128.68615, 36.464385], [128.685954, 36.464751], [128.685731, 36.465252], [128.685401, 36.465612], [128.685141, 36.465724], [128.684728, 36.465724], [128.684457, 36.46561], [128.684138, 36.465478], [128.6838, 36.46542], [128.683197, 36.465317], [128.682982, 36.465314], [128.682658, 36.465358], [128.682392, 36.465513], [128.682008, 36.46583], [128.68156, 36.466304], [128.680969, 36.466949], [128.680842, 36.467277], [128.680641, 36.467894], [128.680429, 36.468783], [128.680396, 36.469503], [128.680485, 36.470043], [128.680581, 36.470431], [128.680753, 36.470948], [128.680918, 36.471522]]}}, {"type": "Feature", "properties": {"name": "", "osm_id": 1454338618, "origin": "OBSERVED", "waterway": "stream"}, "geometry": {"type": "LineString", "coordinates": [[128.759707, 36.442226], [128.759202, 36.442226], [128.758459, 36.442243], [128.757566, 36.442299], [128.757038, 36.442321], [128.756772, 36.442373], [128.756547, 36.442364], [128.756153, 36.442312], [128.755812, 36.44223], [128.755074, 36.442053], [128.754844, 36.442038], [128.75446, 36.442045], [128.754208, 36.44206], [128.753771, 36.442036], [128.753414, 36.441952], [128.752993, 36.441812], [128.75277, 36.441715], [128.752454, 36.441505], [128.752089, 36.441106], [128.751861, 36.440735], [128.751783, 36.440487], [128.751631, 36.440114], [128.751545, 36.439993], [128.751394, 36.439904], [128.750971, 36.439691], [128.75055, 36.439507], [128.750008, 36.439289], [128.749426, 36.439037], [128.749131, 36.438907], [128.74872, 36.438635], [128.748272, 36.438372], [128.747881, 36.438182], [128.7475, 36.438007], [128.747208, 36.437934], [128.746741, 36.437841], [128.746497, 36.437787], [128.746043, 36.437692], [128.745818, 36.437572], [128.745561, 36.437395], [128.745298, 36.437205], [128.744753, 36.436747], [128.74434, 36.436406], [128.744166, 36.436223], [128.74393, 36.435733], [128.743705, 36.435504], [128.743522, 36.43539], [128.743181, 36.43522], [128.742873, 36.435064], [128.742712, 36.434958], [128.742586, 36.434842], [128.742195, 36.434486], [128.741913, 36.434242], [128.741189, 36.433834], [128.739904, 36.433115], [128.739131, 36.432699], [128.738455, 36.432362], [128.738297, 36.432168], [128.738069, 36.431797], [128.738026, 36.431648], [128.737991, 36.431227], [128.737844, 36.430787], [128.73757, 36.430416], [128.737281, 36.430116], [128.73701, 36.429868], [128.736554, 36.429522], [128.735752, 36.428843], [128.735596, 36.42871]]}}, {"type": "Feature", "properties": {"name": "", "osm_id": 1454338625, "origin": "OBSERVED", "waterway": "stream"}, "geometry": {"type": "LineString", "coordinates": [[128.638203, 36.498095], [128.638229, 36.497634], [128.638216, 36.497414], [128.638106, 36.497269], [128.637883, 36.496969], [128.637779, 36.496823], [128.637672, 36.496581], [128.637403, 36.496299], [128.637267, 36.496064], [128.637178, 36.495838], [128.636953, 36.495596], [128.636682, 36.495307], [128.636474, 36.495058], [128.636344, 36.494917], [128.636006, 36.494488], [128.635826, 36.494065], [128.63566, 36.493791], [128.635408, 36.493325], [128.635335, 36.493045], [128.635378, 36.492955], [128.635646, 36.492668], [128.635936, 36.492459], [128.636347, 36.492327], [128.636507, 36.492284], [128.636599, 36.49209], [128.636596, 36.491941], [128.63655, 36.4917], [128.636325, 36.491221], [128.6361, 36.490815], [128.63603, 36.490596], [128.636011, 36.490445], [128.636081, 36.490229], [128.636164, 36.490085], [128.636309, 36.489919], [128.636344, 36.489787], [128.636309, 36.489498], [128.636261, 36.489125], [128.636191, 36.488866], [128.636159, 36.488722], [128.63614, 36.488577]]}}, {"type": "Feature", "properties": {"name": "", "osm_id": 1454338634, "origin": "OBSERVED", "waterway": "river"}, "geometry": {"type": "LineString", "coordinates": [[128.63614, 36.488577], [128.636494, 36.488424], [128.636794, 36.488196], [128.637014, 36.487965], [128.637197, 36.487712], [128.637368, 36.487214], [128.637449, 36.486936], [128.637427, 36.486716], [128.63728, 36.486436], [128.637242, 36.486259], [128.63714, 36.485864], [128.637071, 36.485349], [128.63688, 36.484853], [128.636682, 36.484661], [128.636365, 36.484158], [128.636317, 36.484001], [128.636341, 36.483904], [128.636588, 36.483712], [128.636942, 36.483477], [128.637041, 36.483333], [128.637114, 36.483154], [128.637143, 36.482871], [128.637202, 36.482504], [128.637288, 36.482237], [128.637514, 36.481973]]}}, {"type": "Feature", "properties": {"name": "", "osm_id": 1454338668, "origin": "OBSERVED", "waterway": "river"}, "geometry": {"type": "LineString", "coordinates": [[128.606866, 36.458101], [128.607285, 36.458137], [128.607443, 36.458148], [128.607719, 36.458101], [128.608111, 36.458086], [128.608725, 36.458075], [128.609122, 36.458053], [128.609455, 36.458014], [128.609701, 36.457926], [128.610074, 36.457805], [128.610302, 36.457859], [128.610624, 36.458077], [128.610895, 36.458407], [128.611595, 36.459115], [128.612164, 36.459635], [128.612612, 36.460036], [128.612944, 36.460271], [128.613255, 36.460467], [128.613462, 36.460664], [128.613902, 36.461127], [128.614036, 36.461339], [128.61421, 36.461675], [128.614441, 36.462128], [128.61457, 36.462376], [128.614704, 36.462521], [128.614945, 36.462737], [128.615256, 36.462944], [128.615538, 36.463224], [128.615728, 36.463462], [128.615887, 36.46377], [128.615975, 36.464046], [128.615988, 36.464199], [128.615975, 36.464324], [128.615913, 36.464518], [128.615849, 36.464736], [128.615825, 36.464982], [128.615822, 36.465252], [128.615881, 36.465539], [128.615978, 36.465688], [128.61605, 36.465753], [128.616096, 36.465795], [128.616251, 36.465882], [128.616493, 36.466031], [128.616906, 36.466192], [128.617088, 36.466341], [128.617351, 36.466576], [128.617646, 36.466917], [128.617893, 36.467167], [128.618242, 36.467323], [128.618593, 36.4674], [128.6191, 36.467618], [128.619451, 36.467802], [128.61965, 36.467946], [128.619824, 36.468235], [128.620025, 36.468647], [128.620331, 36.469193], [128.620666, 36.469874], [128.620717, 36.470105], [128.620784, 36.470409], [128.6209, 36.470603], [128.62105, 36.470877], [128.621326, 36.471207], [128.621617, 36.471389], [128.622113, 36.471646], [128.622278, 36.471767], [128.622493, 36.471925], [128.622862, 36.472155], [128.623229, 36.472353], [128.623515, 36.472564], [128.623845, 36.472862], [128.62418, 36.473138], [128.624451, 36.473418], [128.624778, 36.473759], [128.625339, 36.474253], [128.625687, 36.47452], [128.62609, 36.474986], [128.626299, 36.475316], [128.626524, 36.475728], [128.626795, 36.476047], [128.627007, 36.476369], [128.627125, 36.476742], [128.627256, 36.477197], [128.627286, 36.477482], [128.627463, 36.477727], [128.627651, 36.4779], [128.627978, 36.478154], [128.628396, 36.478519], [128.628863, 36.478955], [128.629099, 36.479142], [128.629512, 36.479487], [128.630301, 36.480011], [128.630665, 36.48032], [128.631092, 36.480837], [128.631304, 36.481044], [128.631663, 36.481351], [128.632076, 36.48154], [128.63272, 36.48173], [128.633085, 36.481735], [128.633589, 36.48173], [128.633793, 36.481678], [128.634088, 36.481622], [128.634887, 36.48148], [128.635247, 36.481502], [128.636019, 36.481648], [128.636658, 36.481817], [128.637446, 36.481967], [128.637514, 36.481973], [128.637945, 36.482011], [128.638562, 36.481998], [128.639098, 36.481972], [128.639436, 36.481907], [128.639731, 36.481812], [128.640161, 36.481631], [128.640922, 36.481191], [128.641561, 36.481139], [128.642161, 36.481057], [128.642918, 36.481182], [128.643309, 36.48123], [128.64406, 36.481467], [128.644409, 36.481924], [128.644522, 36.482131], [128.644592, 36.48245], [128.644624, 36.482804], [128.644667, 36.483283], [128.644629, 36.483572], [128.644935, 36.484055], [128.645117, 36.484249], [128.645541, 36.484486], [128.645965, 36.484741], [128.64663, 36.485142], [128.646989, 36.485258], [128.647456, 36.485474]]}}, {"type": "Feature", "properties": {"name": "", "osm_id": 1454338701, "origin": "OBSERVED", "waterway": "stream"}, "geometry": {"type": "LineString", "coordinates": [[128.649745, 36.516266], [128.649912, 36.51622], [128.650133, 36.516254], [128.65037, 36.516384], [128.650535, 36.516431], [128.65072, 36.516454], [128.650849, 36.516506], [128.651014, 36.516591], [128.651167, 36.51662], [128.651309, 36.516666], [128.651509, 36.516737], [128.651673, 36.516764], [128.651895, 36.516792], [128.651982, 36.516813], [128.652257, 36.516924], [128.652583, 36.517052], [128.652865, 36.517108], [128.652975, 36.517162], [128.653118, 36.517239], [128.653289, 36.517486], [128.653565, 36.517669], [128.65377, 36.517796], [128.65395, 36.517919], [128.653966, 36.518017], [128.654013, 36.518148], [128.654077, 36.518273], [128.654289, 36.518445], [128.654425, 36.518606], [128.65452, 36.51885], [128.65456, 36.518988], [128.654647, 36.519176], [128.654693, 36.519242], [128.654821, 36.519336], [128.65491, 36.519357], [128.655056, 36.51935], [128.655245, 36.519368], [128.655432, 36.519459], [128.65565, 36.519566], [128.655775, 36.519668], [128.655846, 36.519792], [128.655928, 36.519853], [128.655964, 36.519912], [128.655955, 36.519982], [128.655921, 36.520096], [128.655745, 36.520332], [128.655771, 36.520438], [128.655854, 36.520511], [128.656047, 36.520587], [128.656136, 36.520614], [128.656289, 36.520733], [128.656459, 36.520867], [128.656684, 36.520999], [128.656853, 36.521087], [128.657033, 36.521211], [128.657281, 36.521458], [128.657571, 36.521661], [128.657734, 36.521774], [128.657909, 36.521868], [128.658056, 36.522008], [128.65817, 36.522075], [128.658473, 36.522157], [128.65872, 36.52221], [128.659114, 36.522298], [128.659279, 36.522343], [128.659549, 36.522308], [128.65971, 36.522275], [128.659919, 36.522263], [128.660473, 36.52235], [128.660932, 36.522391], [128.661095, 36.522482], [128.661428, 36.522746], [128.661641, 36.523068], [128.661884, 36.523437], [128.662014, 36.523551], [128.662337, 36.523764], [128.662495, 36.523898], [128.662914, 36.524204], [128.663139, 36.524473], [128.66323, 36.524706], [128.663305, 36.525049], [128.663405, 36.525288], [128.663568, 36.525508], [128.663616, 36.525629], [128.663659, 36.525887], [128.663745, 36.526293], [128.663879, 36.526689], [128.663922, 36.526879], [128.663708, 36.527146], [128.663667, 36.52726], [128.663651, 36.527504], [128.663654, 36.527685], [128.663775, 36.528086], [128.663775, 36.528243], [128.663802, 36.528536], [128.663732, 36.52881], [128.663372, 36.52961], [128.663042, 36.530396], [128.662758, 36.531082], [128.662517, 36.531455], [128.662428, 36.531903], [128.662345, 36.532317], [128.662211, 36.532674], [128.662114, 36.532875], [128.662093, 36.533177]]}}, {"type": "Feature", "properties": {"name": "", "osm_id": 1457123572, "origin": "OBSERVED", "waterway": "stream"}, "geometry": {"type": "LineString", "coordinates": [[128.771409, 36.51766], [128.771285, 36.517821], [128.771189, 36.517848], [128.771025, 36.517831], [128.770799, 36.51779], [128.770547, 36.517758], [128.770331, 36.517758], [128.770144, 36.517785], [128.769992, 36.517852], [128.769683, 36.518075], [128.7695, 36.518199], [128.769378, 36.518238], [128.76916, 36.518254], [128.768823, 36.518266], [128.768559, 36.518282], [128.768372, 36.518326], [128.768171, 36.518344], [128.768051, 36.51837], [128.767878, 36.518439], [128.767697, 36.518431], [128.767583, 36.518401], [128.767467, 36.518318], [128.767054, 36.517899]]}}, {"type": "Feature", "properties": {"name": "", "osm_id": 1457123573, "origin": "OBSERVED", "waterway": "stream"}, "geometry": {"type": "LineString", "coordinates": [[128.766963, 36.517807], [128.766837, 36.517772], [128.766563, 36.517772], [128.766404, 36.517763], [128.76634, 36.51766]]}}, {"type": "Feature", "properties": {"name": "", "osm_id": 1457123574, "origin": "OBSERVED", "waterway": "stream"}, "geometry": {"type": "LineString", "coordinates": [[128.767054, 36.517899], [128.766963, 36.517807]]}}, {"type": "Feature", "properties": {"name": "", "osm_id": 1457123575, "origin": "OBSERVED", "waterway": "stream"}, "geometry": {"type": "LineString", "coordinates": [[128.76997, 36.510369], [128.769616, 36.510619], [128.769209, 36.510875], [128.769021, 36.511077], [128.768901, 36.511359], [128.768717, 36.512553], [128.768685, 36.513415], [128.768636, 36.51397], [128.768469, 36.514431], [128.767892, 36.515739], [128.767738, 36.516344], [128.767481, 36.517094], [128.767301, 36.517439], [128.767189, 36.517583], [128.767113, 36.51762], [128.766918, 36.517641], [128.766666, 36.517637], [128.766472, 36.517615], [128.76634, 36.51766], [128.766212, 36.517717], [128.765507, 36.518137], [128.765062, 36.518478], [128.764804, 36.518777], [128.764702, 36.518993], [128.764619, 36.519334], [128.764657, 36.519752], [128.764702, 36.520424], [128.76471, 36.521245], [128.764654, 36.521866], [128.764665, 36.522067], [128.764716, 36.522213], [128.76489, 36.522474], [128.765067, 36.522614], [128.765469, 36.522793], [128.765877, 36.522916], [128.767186, 36.523075], [128.767588, 36.523188], [128.767985, 36.523354], [128.76875, 36.523813], [128.769195, 36.524134], [128.769562, 36.524459], [128.770407, 36.525255], [128.771976, 36.526552], [128.772888, 36.527322], [128.773556, 36.527761], [128.774189, 36.528197], [128.774463, 36.528408], [128.774653, 36.528656], [128.774691, 36.52891], [128.774661, 36.529755], [128.774723, 36.529971], [128.774978, 36.530216], [128.776002, 36.530785], [128.776976, 36.53118], [128.777486, 36.531298], [128.77799, 36.531361], [128.778741, 36.531367], [128.779634, 36.531374], [128.780179, 36.531462], [128.780525, 36.53163], [128.780838, 36.532074], [128.780899, 36.532457], [128.780944, 36.532957], [128.781122, 36.533421], [128.781482, 36.53374], [128.782112, 36.53402], [128.783592, 36.534533], [128.783874, 36.534735], [128.784107, 36.535063], [128.784188, 36.535375], [128.784201, 36.535668], [128.784021, 36.536516], [128.78387, 36.537125], [128.783693, 36.537915], [128.783642, 36.538354], [128.783707, 36.538626], [128.783944, 36.538908], [128.785603, 36.540633]]}}, {"type": "Feature", "properties": {"name": "", "osm_id": 1457123578, "origin": "OBSERVED", "waterway": "stream"}, "geometry": {"type": "LineString", "coordinates": [[128.770522, 36.50936], [128.770412, 36.509814], [128.770257, 36.510013], [128.76997, 36.510369]]}}, {"type": "Feature", "properties": {"name": "", "osm_id": 1459049298, "origin": "OBSERVED", "waterway": "stream"}, "geometry": {"type": "LineString", "coordinates": [[128.727106, 36.521001], [128.726721, 36.521193], [128.726253, 36.521306], [128.726034, 36.52127], [128.725751, 36.521218], [128.725413, 36.521204], [128.725174, 36.521207], [128.724208, 36.520864], [128.723781, 36.520403], [128.723665, 36.520261], [128.723512, 36.520219], [128.723392, 36.520211], [128.722631, 36.52], [128.721893, 36.519912], [128.721682, 36.519915], [128.721327, 36.519888], [128.720883, 36.519945], [128.72062, 36.520096], [128.720267, 36.520469], [128.720157, 36.520623], [128.719963, 36.520725], [128.719364, 36.520788], [128.718996, 36.520727], [128.718379, 36.520483], [128.718183, 36.520485], [128.718044, 36.520564], [128.717495, 36.520919], [128.717247, 36.520995], [128.717068, 36.52098], [128.716449, 36.520808], [128.71619, 36.520763], [128.715449, 36.521014], [128.714899, 36.521076], [128.713738, 36.520865], [128.712936, 36.52053], [128.712833, 36.520517], [128.712744, 36.520607], [128.712739, 36.520615]]}}, {"type": "Feature", "properties": {"name": "", "osm_id": 1459049299, "origin": "OBSERVED", "waterway": "stream"}, "geometry": {"type": "LineString", "coordinates": [[128.709537, 36.506259], [128.709557, 36.506314], [128.709515, 36.506423], [128.709432, 36.506591], [128.709181, 36.506922], [128.708738, 36.508281], [128.708477, 36.50873], [128.708368, 36.509073], [128.708524, 36.509988], [128.708524, 36.510143], [128.708383, 36.510302], [128.707814, 36.511472], [128.707679, 36.511883], [128.707319, 36.512177], [128.706964, 36.512286], [128.706082, 36.51237], [128.705487, 36.512483], [128.705237, 36.512605], [128.704903, 36.513011], [128.704595, 36.51328], [128.703854, 36.513712], [128.703536, 36.5138], [128.703155, 36.5138], [128.702785, 36.513666], [128.70231, 36.513682], [128.701986, 36.513766], [128.701793, 36.513896], [128.701568, 36.514081], [128.701457, 36.514476], [128.701256, 36.514798], [128.700702, 36.515372], [128.700578, 36.515572], [128.700495, 36.515878], [128.700619, 36.517119], [128.700266, 36.517987], [128.699975, 36.519378], [128.699512, 36.52004], [128.699193, 36.520991], [128.69893, 36.521659], [128.698473, 36.52216], [128.698155, 36.522694], [128.698009, 36.523144]]}}, {"type": "Feature", "properties": {"name": "노림천", "osm_id": 1459049301, "origin": "OBSERVED", "waterway": "stream"}, "geometry": {"type": "LineString", "coordinates": [[128.725761, 36.503372], [128.724971, 36.503874], [128.723832, 36.505129], [128.721527, 36.50699], [128.720999, 36.50753], [128.720763, 36.508645], [128.72046, 36.509223], [128.719921, 36.509558], [128.718997, 36.509813], [128.718652, 36.51037], [128.718172, 36.511178], [128.71786, 36.511954], [128.717787, 36.512445], [128.717805, 36.512544], [128.718014, 36.512871], [128.718358, 36.512933], [128.718521, 36.512955], [128.71853, 36.513035], [128.717747, 36.513479], [128.71646, 36.514055], [128.715812, 36.514306], [128.715151, 36.514794], [128.714227, 36.51534], [128.713647, 36.516093], [128.713371, 36.516534], [128.713217, 36.516639], [128.712809, 36.516665], [128.712012, 36.51673], [128.710463, 36.517367], [128.710023, 36.517637], [128.709299, 36.518227], [128.709117, 36.518303], [128.708837, 36.518394], [128.707917, 36.519042], [128.70731, 36.519799], [128.707124, 36.519948], [128.706409, 36.520072], [128.705602, 36.5204], [128.70418, 36.521033], [128.702819, 36.52143], [128.701859, 36.521711], [128.701332, 36.52203], [128.700908, 36.522361], [128.7007, 36.522573], [128.700671, 36.52279], [128.700614, 36.52304], [128.700454, 36.523134], [128.699394, 36.523194], [128.698245, 36.523077], [128.698009, 36.523144], [128.697545, 36.523445], [128.696756, 36.523639], [128.696216, 36.523667], [128.695891, 36.523651], [128.695233, 36.523384], [128.694915, 36.523289], [128.694721, 36.523294], [128.694146, 36.523684], [128.693482, 36.524135], [128.693232, 36.524352], [128.693018, 36.524608], [128.693073, 36.52592], [128.692997, 36.526093], [128.692741, 36.526388], [128.692312, 36.526393], [128.691889, 36.526338], [128.691072, 36.525859], [128.690629, 36.525587], [128.690352, 36.525308], [128.690248, 36.524685], [128.69047, 36.524274], [128.690809, 36.52374], [128.690851, 36.52325], [128.69065, 36.523005], [128.690311, 36.522755], [128.689556, 36.522388], [128.689037, 36.522154], [128.68824, 36.52192], [128.687535, 36.521965], [128.687249, 36.522458]]}}, {"type": "Feature", "properties": {"name": "", "osm_id": 1459049323, "origin": "OBSERVED", "waterway": "stream"}, "geometry": {"type": "LineString", "coordinates": [[128.712666, 36.520725], [128.712527, 36.520819], [128.712264, 36.521269], [128.71153, 36.52182], [128.709467, 36.522699], [128.709114, 36.522827], [128.708789, 36.522694], [128.70856, 36.52266], [128.708415, 36.522655], [128.708193, 36.522816], [128.707896, 36.523122], [128.707404, 36.523361], [128.706525, 36.523717], [128.705694, 36.523801], [128.70487, 36.524023], [128.704005, 36.524418], [128.703312, 36.524652], [128.702883, 36.52468], [128.702502, 36.524541], [128.701845, 36.523962], [128.701325, 36.523678], [128.700959, 36.523461], [128.700454, 36.523134]]}}, {"type": "Feature", "properties": {"name": "", "osm_id": 1459049324, "origin": "OBSERVED", "waterway": "stream"}, "geometry": {"type": "LineString", "coordinates": [[128.712739, 36.520615], [128.712666, 36.520725]]}}]}