{"type": "FeatureCollection", "features": [{"type": "Feature", "properties": {"name": "오천공공도서관", "osm_id": 368658351, "origin": "OBSERVED", "amenity": "library"}, "geometry": {"type": "Point", "coordinates": [129.415693, 35.973054]}}, {"type": "Feature", "properties": {"name": "미르동물병원", "osm_id": 368832527, "origin": "OBSERVED", "amenity": "veterinary"}, "geometry": {"type": "Point", "coordinates": [129.4115751, 35.9710147]}}, {"type": "Feature", "properties": {"name": "화이트이치과 (White I Dental Clinic);용덕약국", "osm_id": 368832834, "origin": "OBSERVED", "amenity": "dentist"}, "geometry": {"type": "Point", "coordinates": [129.4151601, 35.9729852]}}, {"type": "Feature", "properties": {"name": "방금원치과의원", "osm_id": 368832905, "origin": "OBSERVED", "amenity": "dentist"}, "geometry": {"type": "Point", "coordinates": [129.41569, 35.97305]}}, {"type": "Feature", "properties": {"name": "방글원치과의원", "osm_id": 368833278, "origin": "OBSERVED", "amenity": "dentist"}, "geometry": {"type": "Point", "coordinates": [129.41569, 35.97305]}}, {"type": "Feature", "properties": {"name": "서문신치과의원", "osm_id": 368833279, "origin": "OBSERVED", "amenity": "dentist"}, "geometry": {"type": "Point", "coordinates": [129.41569, 35.97305]}}, {"type": "Feature", "properties": {"name": "지오비뇨기과", "osm_id": 368833332, "origin": "OBSERVED", "amenity": "hospital"}, "geometry": {"type": "Point", "coordinates": [129.415693, 35.973054]}}, {"type": "Feature", "properties": {"name": "이종곤내과의원", "osm_id": 368833511, "origin": "OBSERVED", "amenity": "hospital"}, "geometry": {"type": "Point", "coordinates": [129.415693, 35.973054]}}, {"type": "Feature", "properties": {"name": "오천제일의원", "osm_id": 368833567, "origin": "OBSERVED", "amenity": "hospital"}, "geometry": {"type": "Point", "coordinates": [129.415693, 35.973054]}}, {"type": "Feature", "properties": {"name": "김원태소아과", "osm_id": 368833810, "origin": "OBSERVED", "amenity": "hospital"}, "geometry": {"type": "Point", "coordinates": [129.415693, 35.973054]}}, {"type": "Feature", "properties": {"name": "미여성의원", "osm_id": 368833874, "origin": "OBSERVED", "amenity": "hospital"}, "geometry": {"type": "Point", "coordinates": [129.415693, 35.973054]}}, {"type": "Feature", "properties": {"name": "박재환이비인후과", "osm_id": 368834083, "origin": "OBSERVED", "amenity": "hospital"}, "geometry": {"type": "Point", "coordinates": [129.415693, 35.973054]}}, {"type": "Feature", "properties": {"name": "강이비인후과의원", "osm_id": 368834119, "origin": "OBSERVED", "amenity": "hospital"}, "geometry": {"type": "Point", "coordinates": [129.414139, 35.974857]}}, {"type": "Feature", "properties": {"name": "경북한의원", "osm_id": 368834153, "origin": "OBSERVED", "amenity": "hospital"}, "geometry": {"type": "Point", "coordinates": [129.415693, 35.973054]}}, {"type": "Feature", "properties": {"name": "(주)생생바이오텍 (Saengsaengbaiotek)", "osm_id": 368834562, "origin": "OBSERVED", "amenity": "hospital"}, "geometry": {"type": "Point", "coordinates": [129.415693, 35.973054]}}, {"type": "Feature", "properties": {"name": "오천경희한의원", "osm_id": 368834565, "origin": "OBSERVED", "amenity": "hospital"}, "geometry": {"type": "Point", "coordinates": [129.415693, 35.973054]}}, {"type": "Feature", "properties": {"name": "포항시남구보건소", "osm_id": 368834624, "origin": "OBSERVED", "amenity": "clinic"}, "geometry": {"type": "Point", "coordinates": [129.3961471, 35.9924902]}}, {"type": "Feature", "properties": {"name": "청림연합의원", "osm_id": 368834694, "origin": "OBSERVED", "amenity": "hospital"}, "geometry": {"type": "Point", "coordinates": [129.4113959, 35.9964182]}}, {"type": "Feature", "properties": {"name": "허한의원", "osm_id": 368834753, "origin": "OBSERVED", "amenity": "hospital"}, "geometry": {"type": "Point", "coordinates": [129.415693, 35.973054]}}, {"type": "Feature", "properties": {"name": "삼성병원장례식장", "osm_id": 368834837, "origin": "OBSERVED", "amenity": "hospital"}, "geometry": {"type": "Point", "coordinates": [129.415693, 35.973054]}}, {"type": "Feature", "properties": {"name": "관음사", "osm_id": 368861174, "origin": "OBSERVED", "amenity": "place_of_worship"}, "geometry": {"type": "Point", "coordinates": [129.418456, 35.966369]}}, {"type": "Feature", "properties": {"name": "오천제일유치원", "osm_id": 368890905, "origin": "OBSERVED", "amenity": "kindergarten"}, "geometry": {"type": "Point", "coordinates": [129.415693, 35.973054]}}, {"type": "Feature", "properties": {"name": "엘지스타주유소", "osm_id": 368916337, "origin": "OBSERVED", "amenity": "fuel"}, "geometry": {"type": "Point", "coordinates": [129.4112267, 35.9821519]}}, {"type": "Feature", "properties": {"name": "철강공단주유소", "osm_id": 368916342, "origin": "OBSERVED", "amenity": "fuel"}, "geometry": {"type": "Point", "coordinates": [129.37953, 35.977892]}}, {"type": "Feature", "properties": {"name": "SK네트웍스공항주유소", "osm_id": 368916380, "origin": "OBSERVED", "amenity": "fuel"}, "geometry": {"type": "Point", "coordinates": [129.42819, 35.990905]}}, {"type": "Feature", "properties": {"name": "인덕주유소", "osm_id": 368916396, "origin": "OBSERVED", "amenity": "fuel"}, "geometry": {"type": "Point", "coordinates": [129.4003704, 35.9869484]}}, {"type": "Feature", "properties": {"name": "경북광유", "osm_id": 368916416, "origin": "OBSERVED", "amenity": "fuel"}, "geometry": {"type": "Point", "coordinates": [129.3815394, 36.0025272]}}, {"type": "Feature", "properties": {"name": "(주)케이원페트로륨서비스단지주유소", "osm_id": 368916435, "origin": "OBSERVED", "amenity": "fuel"}, "geometry": {"type": "Point", "coordinates": [129.381534, 36.002538]}}, {"type": "Feature", "properties": {"name": "김천회집", "osm_id": 368955823, "origin": "OBSERVED", "amenity": "restaurant"}, "geometry": {"type": "Point", "coordinates": [129.40424, 35.991882]}}, {"type": "Feature", "properties": {"name": "그린자연산횟집", "osm_id": 368966273, "origin": "OBSERVED", "amenity": "restaurant"}, "geometry": {"type": "Point", "coordinates": [129.403856, 35.99277]}}, {"type": "Feature", "properties": {"name": "강동자연산횟집", "osm_id": 368966277, "origin": "OBSERVED", "amenity": "restaurant"}, "geometry": {"type": "Point", "coordinates": [129.415693, 35.973054]}}, {"type": "Feature", "properties": {"name": "서문자연산횟집", "osm_id": 368966289, "origin": "OBSERVED", "amenity": "restaurant"}, "geometry": {"type": "Point", "coordinates": [129.415693, 35.973054]}}, {"type": "Feature", "properties": {"name": "오천교회", "osm_id": 4634431640, "origin": "OBSERVED", "amenity": "place_of_worship"}, "geometry": {"type": "Point", "coordinates": [129.414812, 35.9698409]}}, {"type": "Feature", "properties": {"name": "뚜레쥬르", "osm_id": 4634436519, "origin": "OBSERVED", "amenity": "cafe"}, "geometry": {"type": "Point", "coordinates": [129.4138848, 35.9760263]}}, {"type": "Feature", "properties": {"name": "운동장", "osm_id": 4634442905, "origin": "OBSERVED", "amenity": "school"}, "geometry": {"type": "Point", "coordinates": [129.4254004, 35.9690277]}}, {"type": "Feature", "properties": {"name": "오천화교회", "osm_id": 4634444761, "origin": "OBSERVED", "amenity": "place_of_worship"}, "geometry": {"type": "Point", "coordinates": [129.4255596, 35.9695663]}}, {"type": "Feature", "properties": {"name": "편한약국", "osm_id": 4634451308, "origin": "OBSERVED", "amenity": "pharmacy"}, "geometry": {"type": "Point", "coordinates": [129.414729, 35.9732207]}}, {"type": "Feature", "properties": {"name": "맥도날드", "osm_id": 4634467929, "origin": "OBSERVED", "amenity": "fast_food"}, "geometry": {"type": "Point", "coordinates": [129.3990408, 35.9913341]}}, {"type": "Feature", "properties": {"name": "주은교회", "osm_id": 4634474043, "origin": "OBSERVED", "amenity": "place_of_worship"}, "geometry": {"type": "Point", "coordinates": [129.4124243, 35.9702842]}}, {"type": "Feature", "properties": {"name": "엔젤리너스", "osm_id": 4634475783, "origin": "OBSERVED", "amenity": "cafe"}, "geometry": {"type": "Point", "coordinates": [129.413072, 35.9763736]}}, {"type": "Feature", "properties": {"name": "충무성당", "osm_id": 4634478426, "origin": "OBSERVED", "amenity": "place_of_worship"}, "geometry": {"type": "Point", "coordinates": [129.4181791, 35.9748384]}}, {"type": "Feature", "properties": {"name": "오천삼성병원", "osm_id": 4634493592, "origin": "OBSERVED", "amenity": "hospital"}, "geometry": {"type": "Point", "coordinates": [129.410586, 35.9760937]}}, {"type": "Feature", "properties": {"name": "온누리 교회", "osm_id": 4634849264, "origin": "OBSERVED", "amenity": "place_of_worship"}, "geometry": {"type": "Point", "coordinates": [129.4163442, 35.9764793]}}, {"type": "Feature", "properties": {"name": "화가들 어린이집", "osm_id": 4634854318, "origin": "OBSERVED", "amenity": "kindergarten"}, "geometry": {"type": "Point", "coordinates": [129.4153252, 35.9771832]}}, {"type": "Feature", "properties": {"name": "캐슬 어린이집", "osm_id": 4634859064, "origin": "OBSERVED", "amenity": "kindergarten"}, "geometry": {"type": "Point", "coordinates": [129.4151304, 35.9776304]}}, {"type": "Feature", "properties": {"name": "경동 체육도장", "osm_id": 4634884793, "origin": "OBSERVED", "amenity": "dojo"}, "geometry": {"type": "Point", "coordinates": [129.4143307, 35.9772227]}}, {"type": "Feature", "properties": {"name": "서문제일 약국", "osm_id": 4634886063, "origin": "OBSERVED", "amenity": "pharmacy"}, "geometry": {"type": "Point", "coordinates": [129.4134983, 35.9760281]}}, {"type": "Feature", "properties": {"name": "오천영광 교회", "osm_id": 4634894872, "origin": "OBSERVED", "amenity": "place_of_worship"}, "geometry": {"type": "Point", "coordinates": [129.4150735, 35.975091]}}, {"type": "Feature", "properties": {"name": "오천농협 구정지점", "osm_id": 4634898837, "origin": "OBSERVED", "amenity": "bank"}, "geometry": {"type": "Point", "coordinates": [129.4131031, 35.9770053]}}, {"type": "Feature", "properties": {"name": "경북오천신협 본점", "osm_id": 4634901978, "origin": "OBSERVED", "amenity": "bank"}, "geometry": {"type": "Point", "coordinates": [129.4128596, 35.9775531]}}, {"type": "Feature", "properties": {"name": "포항남부경찰서 오천파출소", "osm_id": 4634919048, "origin": "OBSERVED", "amenity": "police"}, "geometry": {"type": "Point", "coordinates": [129.415565, 35.9671]}}, {"type": "Feature", "properties": {"name": "", "osm_id": 4636156053, "origin": "OBSERVED", "amenity": "restaurant"}, "geometry": {"type": "Point", "coordinates": [129.4119193, 35.9710202]}}, {"type": "Feature", "properties": {"name": "오천디딤돌학원", "osm_id": 4636195473, "origin": "OBSERVED", "amenity": "language_school"}, "geometry": {"type": "Point", "coordinates": [129.4138275, 35.9705142]}}, {"type": "Feature", "properties": {"name": "대희약국", "osm_id": 4636211252, "origin": "OBSERVED", "amenity": "pharmacy"}, "geometry": {"type": "Point", "coordinates": [129.4151124, 35.9731706]}}, {"type": "Feature", "properties": {"name": "오천새마을금고본점", "osm_id": 4636212372, "origin": "OBSERVED", "amenity": "bank"}, "geometry": {"type": "Point", "coordinates": [129.4153279, 35.9726491]}}, {"type": "Feature", "properties": {"name": "오천침례교회", "osm_id": 4636292156, "origin": "OBSERVED", "amenity": "place_of_worship"}, "geometry": {"type": "Point", "coordinates": [129.4167677, 35.9739107]}}, {"type": "Feature", "properties": {"name": "오천농협", "osm_id": 4636450562, "origin": "OBSERVED", "amenity": "bank"}, "geometry": {"type": "Point", "coordinates": [129.4160887, 35.9674623]}}, {"type": "Feature", "properties": {"name": "우리연합병원", "osm_id": 4636450563, "origin": "OBSERVED", "amenity": "hospital"}, "geometry": {"type": "Point", "coordinates": [129.4160887, 35.9678356]}}, {"type": "Feature", "properties": {"name": "오천공설시장", "osm_id": 4636455363, "origin": "OBSERVED", "amenity": "marketplace"}, "geometry": {"type": "Point", "coordinates": [129.4176498, 35.9660599]}}, {"type": "Feature", "properties": {"name": "포항엘림교회", "osm_id": 4640291361, "origin": "OBSERVED", "amenity": "place_of_worship"}, "geometry": {"type": "Point", "coordinates": [129.3963871, 35.9880415]}}, {"type": "Feature", "properties": {"name": "오천공공도서관", "osm_id": 4655139445, "origin": "OBSERVED", "amenity": "library"}, "geometry": {"type": "Point", "coordinates": [129.4163391, 35.9684996]}}, {"type": "Feature", "properties": {"name": "청림제일교회 (Cheonglim Jeil Church)", "osm_id": 4690025214, "origin": "OBSERVED", "amenity": "place_of_worship"}, "geometry": {"type": "Point", "coordinates": [129.4139196, 35.9959863]}}, {"type": "Feature", "properties": {"name": "청림중앙교회 (Cheonglim Joong ang Church)", "osm_id": 4690025215, "origin": "OBSERVED", "amenity": "place_of_worship"}, "geometry": {"type": "Point", "coordinates": [129.4180243, 35.9957858]}}, {"type": "Feature", "properties": {"name": "매달5.10.15.20.25.30일장", "osm_id": 7522940986, "origin": "OBSERVED", "amenity": "community_centre"}, "geometry": {"type": "Point", "coordinates": [129.4178004, 35.9660602]}}, {"type": "Feature", "properties": {"name": "포항남부경찰서 청림파출소", "osm_id": 7793640217, "origin": "OBSERVED", "amenity": "police"}, "geometry": {"type": "Point", "coordinates": [129.4036534, 35.9956441]}}, {"type": "Feature", "properties": {"name": "포항남부경찰서 문덕파출소", "osm_id": 7793640220, "origin": "OBSERVED", "amenity": "police"}, "geometry": {"type": "Point", "coordinates": [129.4089316, 35.9665894]}}, {"type": "Feature", "properties": {"name": "제철동 행정복지센터", "osm_id": 7830693614, "origin": "OBSERVED", "amenity": "townhall"}, "geometry": {"type": "Point", "coordinates": [129.3971407, 35.9923173]}}, {"type": "Feature", "properties": {"name": "청림동 행정복지센터", "osm_id": 7830693615, "origin": "OBSERVED", "amenity": "townhall"}, "geometry": {"type": "Point", "coordinates": [129.4056762, 35.9973618]}}, {"type": "Feature", "properties": {"name": "이박사냄비갈비", "osm_id": 8062945185, "origin": "OBSERVED", "amenity": "restaurant"}, "geometry": {"type": "Point", "coordinates": [129.4160786, 35.9671068]}}, {"type": "Feature", "properties": {"name": "오천성당", "osm_id": 8636939868, "origin": "OBSERVED", "amenity": "place_of_worship"}, "geometry": {"type": "Point", "coordinates": [129.4180175, 35.9654121]}}, {"type": "Feature", "properties": {"name": "", "osm_id": 160437312, "origin": "OBSERVED", "amenity": "parking"}, "geometry": {"type": "Point", "coordinates": [129.3810691875, 35.997775250000004]}}, {"type": "Feature", "properties": {"name": "", "osm_id": 160437315, "origin": "OBSERVED", "amenity": "parking"}, "geometry": {"type": "Point", "coordinates": [129.38549642857143, 35.99707214285714]}}, {"type": "Feature", "properties": {"name": "", "osm_id": 160437316, "origin": "OBSERVED", "amenity": "parking"}, "geometry": {"type": "Point", "coordinates": [129.38754483333332, 35.99603483333333]}}, {"type": "Feature", "properties": {"name": "신흥중학교", "osm_id": 469086116, "origin": "OBSERVED", "amenity": "school"}, "geometry": {"type": "Point", "coordinates": [129.422154, 35.96484183333333]}}, {"type": "Feature", "properties": {"name": "오천중학교 오천고등학교", "osm_id": 469235115, "origin": "OBSERVED", "amenity": "school"}, "geometry": {"type": "Point", "coordinates": [129.412870625, 35.969205]}}, {"type": "Feature", "properties": {"name": "포항원동초등학교", "osm_id": 469236079, "origin": "OBSERVED", "amenity": "school"}, "geometry": {"type": "Point", "coordinates": [129.40118660000002, 35.9653286]}}, {"type": "Feature", "properties": {"name": "포항포은중학교", "osm_id": 469236133, "origin": "OBSERVED", "amenity": "school"}, "geometry": {"type": "Point", "coordinates": [129.404518, 35.965541200000004]}}, {"type": "Feature", "properties": {"name": "오천초등학교", "osm_id": 469275114, "origin": "OBSERVED", "amenity": "school"}, "geometry": {"type": "Point", "coordinates": [129.41673418181816, 35.96934472727273]}}, {"type": "Feature", "properties": {"name": "청림초등학교", "osm_id": 475219555, "origin": "OBSERVED", "amenity": "school"}, "geometry": {"type": "Point", "coordinates": [129.40452200000001, 35.995468833333334]}}, {"type": "Feature", "properties": {"name": "오천중앙교회", "osm_id": 528289268, "origin": "OBSERVED", "amenity": "place_of_worship"}, "geometry": {"type": "Point", "coordinates": [129.40790120000003, 35.970167]}}, {"type": "Feature", "properties": {"name": "구정초등학교", "osm_id": 556396423, "origin": "OBSERVED", "amenity": "school"}, "geometry": {"type": "Point", "coordinates": [129.4088808, 35.9806444]}}, {"type": "Feature", "properties": {"name": "한국폴리텍6대학 포항캠퍼스", "osm_id": 643451577, "origin": "OBSERVED", "amenity": "college"}, "geometry": {"type": "Point", "coordinates": [129.38191895238094, 35.99217133333333]}}, {"type": "Feature", "properties": {"name": "인덕초등학교", "osm_id": 653544385, "origin": "OBSERVED", "amenity": "school"}, "geometry": {"type": "Point", "coordinates": [129.4019774, 35.9844802]}}, {"type": "Feature", "properties": {"name": "타이어프로 앞", "osm_id": 653552135, "origin": "OBSERVED", "amenity": "parking"}, "geometry": {"type": "Point", "coordinates": [129.4098995, 35.976470166666665]}}, {"type": "Feature", "properties": {"name": "메가박스 남포항점", "osm_id": 653727312, "origin": "OBSERVED", "amenity": "cinema"}, "geometry": {"type": "Point", "coordinates": [129.4033, 35.97447]}}, {"type": "Feature", "properties": {"name": "요한보스코성당", "osm_id": 699180075, "origin": "OBSERVED", "amenity": "place_of_worship"}, "geometry": {"type": "Point", "coordinates": [129.4123006, 35.9693022]}}, {"type": "Feature", "properties": {"name": "", "osm_id": 891050718, "origin": "OBSERVED", "amenity": "parking"}, "geometry": {"type": "Point", "coordinates": [129.37253766666666, 36.007612333333334]}}, {"type": "Feature", "properties": {"name": "", "osm_id": 978756040, "origin": "OBSERVED", "amenity": "parking"}, "geometry": {"type": "Point", "coordinates": [129.4028746, 35.9774836]}}, {"type": "Feature", "properties": {"name": "", "osm_id": 1004306958, "origin": "OBSERVED", "amenity": "parking"}, "geometry": {"type": "Point", "coordinates": [129.41955539999998, 35.9744892]}}, {"type": "Feature", "properties": {"name": "", "osm_id": 1004306959, "origin": "OBSERVED", "amenity": "parking"}, "geometry": {"type": "Point", "coordinates": [129.42041742857143, 35.978761]}}, {"type": "Feature", "properties": {"name": "", "osm_id": 1004306960, "origin": "OBSERVED", "amenity": "parking"}, "geometry": {"type": "Point", "coordinates": [129.42034080000002, 35.979299000000005]}}, {"type": "Feature", "properties": {"name": "", "osm_id": 1004306961, "origin": "OBSERVED", "amenity": "parking"}, "geometry": {"type": "Point", "coordinates": [129.419667, 35.98150571428572]}}, {"type": "Feature", "properties": {"name": "", "osm_id": 1004306962, "origin": "OBSERVED", "amenity": "parking"}, "geometry": {"type": "Point", "coordinates": [129.422602, 35.9688462]}}, {"type": "Feature", "properties": {"name": "", "osm_id": 1004306963, "origin": "OBSERVED", "amenity": "parking"}, "geometry": {"type": "Point", "coordinates": [129.4291832857143, 35.968548142857145]}}, {"type": "Feature", "properties": {"name": "", "osm_id": 1004306967, "origin": "OBSERVED", "amenity": "parking"}, "geometry": {"type": "Point", "coordinates": [129.4221366, 35.974003800000006]}}, {"type": "Feature", "properties": {"name": "", "osm_id": 1004306968, "origin": "OBSERVED", "amenity": "parking"}, "geometry": {"type": "Point", "coordinates": [129.4216278, 35.9739702]}}, {"type": "Feature", "properties": {"name": "", "osm_id": 1004306969, "origin": "OBSERVED", "amenity": "parking"}, "geometry": {"type": "Point", "coordinates": [129.425285, 35.97501185714286]}}, {"type": "Feature", "properties": {"name": "", "osm_id": 1004306970, "origin": "OBSERVED", "amenity": "parking"}, "geometry": {"type": "Point", "coordinates": [129.4268994, 35.9746924]}}, {"type": "Feature", "properties": {"name": "", "osm_id": 1004306971, "origin": "OBSERVED", "amenity": "parking"}, "geometry": {"type": "Point", "coordinates": [129.42751600000003, 35.9744986]}}, {"type": "Feature", "properties": {"name": "", "osm_id": 1004306972, "origin": "OBSERVED", "amenity": "parking"}, "geometry": {"type": "Point", "coordinates": [129.4250706, 35.976713000000004]}}, {"type": "Feature", "properties": {"name": "", "osm_id": 1004306975, "origin": "OBSERVED", "amenity": "parking"}, "geometry": {"type": "Point", "coordinates": [129.4270504, 35.9809594]}}, {"type": "Feature", "properties": {"name": "", "osm_id": 1004306978, "origin": "OBSERVED", "amenity": "parking"}, "geometry": {"type": "Point", "coordinates": [129.4129687142857, 35.982144142857145]}}, {"type": "Feature", "properties": {"name": "", "osm_id": 1004306979, "origin": "OBSERVED", "amenity": "parking"}, "geometry": {"type": "Point", "coordinates": [129.41507299999998, 35.9917734]}}, {"type": "Feature", "properties": {"name": "", "osm_id": 1004306980, "origin": "OBSERVED", "amenity": "parking"}, "geometry": {"type": "Point", "coordinates": [129.40863819999998, 35.9915642]}}, {"type": "Feature", "properties": {"name": "", "osm_id": 1004306981, "origin": "OBSERVED", "amenity": "parking"}, "geometry": {"type": "Point", "coordinates": [129.412329, 35.9938514]}}, {"type": "Feature", "properties": {"name": "", "osm_id": 1004311307, "origin": "OBSERVED", "amenity": "parking"}, "geometry": {"type": "Point", "coordinates": [129.41477179999998, 35.9820234]}}, {"type": "Feature", "properties": {"name": "", "osm_id": 1004311308, "origin": "OBSERVED", "amenity": "parking"}, "geometry": {"type": "Point", "coordinates": [129.41232, 35.983641375]}}, {"type": "Feature", "properties": {"name": "", "osm_id": 1004311313, "origin": "OBSERVED", "amenity": "parking"}, "geometry": {"type": "Point", "coordinates": [129.4061768, 36.0090646]}}, {"type": "Feature", "properties": {"name": "", "osm_id": 1004311314, "origin": "OBSERVED", "amenity": "parking"}, "geometry": {"type": "Point", "coordinates": [129.4065078, 36.008132599999996]}}, {"type": "Feature", "properties": {"name": "", "osm_id": 1004311315, "origin": "OBSERVED", "amenity": "parking"}, "geometry": {"type": "Point", "coordinates": [129.38755880000002, 36.0010574]}}, {"type": "Feature", "properties": {"name": "", "osm_id": 1004311320, "origin": "OBSERVED", "amenity": "parking"}, "geometry": {"type": "Point", "coordinates": [129.3974774, 36.0056624]}}, {"type": "Feature", "properties": {"name": "", "osm_id": 1004311321, "origin": "OBSERVED", "amenity": "parking"}, "geometry": {"type": "Point", "coordinates": [129.3995755, 36.004948]}}, {"type": "Feature", "properties": {"name": "", "osm_id": 1004311322, "origin": "OBSERVED", "amenity": "parking"}, "geometry": {"type": "Point", "coordinates": [129.39852611111112, 35.99318777777778]}}]}