{"type": "FeatureCollection", "features": [{"type": "Feature", "properties": {"name": "", "osm_id": 320322479, "origin": "OBSERVED", "building": "yes"}, "geometry": {"type": "Polygon", "coordinates": [[[129.428593, 35.990024], [129.42856, 35.989947], [129.428689, 35.989911], [129.428722, 35.989988], [129.428593, 35.990024]]]}}, {"type": "Feature", "properties": {"name": "왕도매 식자재마트", "osm_id": 468292966, "origin": "OBSERVED", "building": "commercial"}, "geometry": {"type": "Polygon", "coordinates": [[[129.413824, 35.976388], [129.413834, 35.976427], [129.413901, 35.976564], [129.413808, 35.976603], [129.413741, 35.976454], [129.413714, 35.976439], [129.413824, 35.976388]]]}}, {"type": "Feature", "properties": {"name": "웰라빌", "osm_id": 468292967, "origin": "OBSERVED", "building": "apartments"}, "geometry": {"type": "Polygon", "coordinates": [[[129.414936, 35.97587], [129.415048, 35.97588], [129.415078, 35.975746], [129.414964, 35.97573], [129.414936, 35.97587]]]}}, {"type": "Feature", "properties": {"name": "미광아파트", "osm_id": 468292970, "origin": "OBSERVED", "building": "apartments"}, "geometry": {"type": "Polygon", "coordinates": [[[129.415133, 35.975955], [129.415155, 35.975855], [129.415247, 35.975853], [129.415267, 35.975873], [129.415296, 35.975876], [129.415383, 35.975883], [129.415501, 35.97589], [129.415605, 35.975883], [129.415617, 35.975975], [129.41546, 35.975983], [129.415458, 35.975965], [129.415395, 35.975978], [129.415343, 35.97596], [129.415133, 35.975955]]]}}, {"type": "Feature", "properties": {"name": "미광아파트", "osm_id": 468292972, "origin": "OBSERVED", "building": "apartments"}, "geometry": {"type": "Polygon", "coordinates": [[[129.415306, 35.975736], [129.415607, 35.975735], [129.415615, 35.975661], [129.41558, 35.975641], [129.415306, 35.975651], [129.415306, 35.975736]]]}}, {"type": "Feature", "properties": {"name": "대우파크빌", "osm_id": 468292975, "origin": "OBSERVED", "building": "apartments"}, "geometry": {"type": "Polygon", "coordinates": [[[129.4155, 35.975476], [129.415582, 35.975492], [129.415593, 35.974838], [129.415543, 35.974848], [129.415508, 35.974807], [129.41524, 35.974826], [129.41524, 35.974923], [129.415434, 35.97493], [129.415415, 35.975008], [129.415465, 35.975033], [129.4155, 35.975476]]]}}, {"type": "Feature", "properties": {"name": "KT 포항지사 오천빌딩", "osm_id": 469032225, "origin": "OBSERVED", "building": "yes"}, "geometry": {"type": "Polygon", "coordinates": [[[129.415257, 35.971321], [129.41544, 35.970985], [129.41568, 35.971074], [129.415538, 35.971396], [129.415257, 35.971321]]]}}, {"type": "Feature", "properties": {"name": "동해동백아파트", "osm_id": 469234775, "origin": "OBSERVED", "building": "apartments"}, "geometry": {"type": "Polygon", "coordinates": [[[129.413128, 35.971376], [129.413128, 35.971224], [129.413895, 35.971207], [129.413911, 35.971341], [129.413128, 35.971376]]]}}, {"type": "Feature", "properties": {"name": "로열캐슬", "osm_id": 469235032, "origin": "OBSERVED", "building": "apartments"}, "geometry": {"type": "Polygon", "coordinates": [[[129.413136, 35.970856], [129.413128, 35.970694], [129.413415, 35.970691], [129.413425, 35.97085], [129.413136, 35.970856]]]}}, {"type": "Feature", "properties": {"name": "동해오천아파트", "osm_id": 469252949, "origin": "OBSERVED", "building": "apartments"}, "geometry": {"type": "Polygon", "coordinates": [[[129.414666, 35.972238], [129.414888, 35.971711], [129.415129, 35.97178], [129.41492, 35.972315], [129.414666, 35.972238]]]}}, {"type": "Feature", "properties": {"name": "현대블루핸즈오천점", "osm_id": 469253004, "origin": "OBSERVED", "building": "yes"}, "geometry": {"type": "Polygon", "coordinates": [[[129.414152, 35.973808], [129.414265, 35.97359], [129.414648, 35.973687], [129.414542, 35.973922], [129.414152, 35.973808]]]}}, {"type": "Feature", "properties": {"name": "한미세계가든", "osm_id": 469276626, "origin": "OBSERVED", "building": "apartments"}, "geometry": {"type": "Polygon", "coordinates": [[[129.417305, 35.966625], [129.41743, 35.966609], [129.417454, 35.966749], [129.41795, 35.966693], [129.417969, 35.966803], [129.417337, 35.966874], [129.417305, 35.966625]]]}}, {"type": "Feature", "properties": {"name": "오천중앙교회", "osm_id": 528289268, "origin": "OBSERVED", "building": "church"}, "geometry": {"type": "Polygon", "coordinates": [[[129.407699, 35.970352], [129.407739, 35.969866], [129.408198, 35.969888], [129.408171, 35.970377], [129.407699, 35.970352]]]}}, {"type": "Feature", "properties": {"name": "", "osm_id": 640127806, "origin": "OBSERVED", "building": "yes"}, "geometry": {"type": "Polygon", "coordinates": [[[129.37956, 35.998742], [129.378135, 35.997366], [129.378433, 35.997163], [129.379858, 35.99854], [129.37956, 35.998742]]]}}, {"type": "Feature", "properties": {"name": "", "osm_id": 640127807, "origin": "OBSERVED", "building": "yes"}, "geometry": {"type": "Polygon", "coordinates": [[[129.378943, 35.997435], [129.37884, 35.997339], [129.379514, 35.996869], [129.379617, 35.996965], [129.378943, 35.997435]]]}}, {"type": "Feature", "properties": {"name": "", "osm_id": 640127808, "origin": "OBSERVED", "building": "yes"}, "geometry": {"type": "Polygon", "coordinates": [[[129.380979, 35.999566], [129.380521, 35.999174], [129.381084, 35.998744], [129.381542, 35.999136], [129.380979, 35.999566]]]}}, {"type": "Feature", "properties": {"name": "", "osm_id": 640127809, "origin": "OBSERVED", "building": "yes"}, "geometry": {"type": "Polygon", "coordinates": [[[129.381629, 36.00079], [129.380887, 36.000139], [129.381133, 35.999955], [129.381875, 36.000606], [129.381629, 36.00079]]]}}, {"type": "Feature", "properties": {"name": "", "osm_id": 640127810, "origin": "OBSERVED", "building": "yes"}, "geometry": {"type": "Polygon", "coordinates": [[[129.382128, 36.000085], [129.381576, 35.999619], [129.381836, 35.999417], [129.382389, 35.999882], [129.382128, 36.000085]]]}}, {"type": "Feature", "properties": {"name": "", "osm_id": 640127811, "origin": "OBSERVED", "building": "yes"}, "geometry": {"type": "Polygon", "coordinates": [[[129.382275, 36.001279], [129.381857, 36.000925], [129.382072, 36.000759], [129.38249, 36.001112], [129.382275, 36.001279]]]}}, {"type": "Feature", "properties": {"name": "", "osm_id": 640127812, "origin": "OBSERVED", "building": "yes"}, "geometry": {"type": "Polygon", "coordinates": [[[129.382631, 36.00097], [129.382245, 36.000606], [129.382486, 36.000438], [129.382872, 36.000802], [129.382631, 36.00097]]]}}, {"type": "Feature", "properties": {"name": "", "osm_id": 640127813, "origin": "OBSERVED", "building": "yes"}, "geometry": {"type": "Polygon", "coordinates": [[[129.376319, 35.993133], [129.375085, 35.991961], [129.37522, 35.991867], [129.373031, 35.989789], [129.373639, 35.989369], [129.377064, 35.99262], [129.376319, 35.993133]]]}}, {"type": "Feature", "properties": {"name": "", "osm_id": 640127814, "origin": "OBSERVED", "building": "yes"}, "geometry": {"type": "Polygon", "coordinates": [[[129.375171, 35.992362], [129.374244, 35.991459], [129.374362, 35.99138], [129.37529, 35.992282], [129.375171, 35.992362]]]}}, {"type": "Feature", "properties": {"name": "", "osm_id": 640127815, "origin": "OBSERVED", "building": "yes"}, "geometry": {"type": "Polygon", "coordinates": [[[129.377086, 35.992042], [129.376728, 35.991703], [129.377821, 35.990947], [129.378179, 35.991286], [129.377086, 35.992042]]]}}, {"type": "Feature", "properties": {"name": "", "osm_id": 640127816, "origin": "OBSERVED", "building": "yes"}, "geometry": {"type": "Polygon", "coordinates": [[[129.376538, 35.991543], [129.376016, 35.991053], [129.377196, 35.99023], [129.377718, 35.990721], [129.376538, 35.991543]]]}}, {"type": "Feature", "properties": {"name": "포스코 본사", "osm_id": 642878204, "origin": "OBSERVED", "building": "yes"}, "geometry": {"type": "Polygon", "coordinates": [[[129.383505, 35.9992], [129.382881, 35.99866], [129.382784, 35.998733], [129.382846, 35.998787], [129.382508, 35.999043], [129.382432, 35.998977], [129.382378, 35.999018], [129.382134, 35.998807], [129.382399, 35.998606], [129.382396, 35.99849], [129.3829, 35.998095], [129.38323, 35.998371], [129.383055, 35.998508], [129.382912, 35.998388], [129.382854, 35.998433], [129.383277, 35.998787], [129.383557, 35.998801], [129.383779, 35.998993], [129.383505, 35.9992]]]}}, {"type": "Feature", "properties": {"name": "", "osm_id": 643760631, "origin": "OBSERVED", "building": "yes"}, "geometry": {"type": "Polygon", "coordinates": [[[129.373833, 35.996218], [129.374389, 35.995826], [129.374649, 35.996068], [129.374503, 35.99617], [129.375277, 35.99689], [129.374979, 35.9971], [129.37421, 35.996385], [129.374098, 35.996464], [129.373833, 35.996218]]]}}, {"type": "Feature", "properties": {"name": "구정초등학교 본관", "osm_id": 653552131, "origin": "OBSERVED", "building": "yes"}, "geometry": {"type": "Polygon", "coordinates": [[[129.408023, 35.980783], [129.408089, 35.980627], [129.409164, 35.981017], [129.409073, 35.9812], [129.408023, 35.980783]]]}}, {"type": "Feature", "properties": {"name": "구정초등학교 별관", "osm_id": 653552132, "origin": "OBSERVED", "building": "yes"}, "geometry": {"type": "Polygon", "coordinates": [[[129.408144, 35.980552], [129.408298, 35.980599], [129.408542, 35.980212], [129.408371, 35.980137], [129.408144, 35.980552]]]}}, {"type": "Feature", "properties": {"name": "커피스미스/타이어프로", "osm_id": 653552134, "origin": "OBSERVED", "building": "commercial"}, "geometry": {"type": "Polygon", "coordinates": [[[129.41008, 35.976588], [129.410205, 35.976623], [129.410225, 35.976399], [129.410102, 35.976393], [129.41008, 35.976588]]]}}, {"type": "Feature", "properties": {"name": "타이어프로 앞", "osm_id": 653552135, "origin": "OBSERVED", "building": "parking"}, "geometry": {"type": "Polygon", "coordinates": [[[129.41008, 35.976588], [129.409666, 35.976488], [129.409695, 35.976412], [129.409778, 35.976374], [129.410098, 35.976371], [129.41008, 35.976588]]]}}, {"type": "Feature", "properties": {"name": "101동", "osm_id": 653552136, "origin": "OBSERVED", "building": "apartments"}, "geometry": {"type": "Polygon", "coordinates": [[[129.408819, 35.978479], [129.408758, 35.978377], [129.409197, 35.978205], [129.409361, 35.978479], [129.40925, 35.978523], [129.409147, 35.978351], [129.408819, 35.978479]]]}}, {"type": "Feature", "properties": {"name": "108동", "osm_id": 653552137, "origin": "OBSERVED", "building": "apartments"}, "geometry": {"type": "Polygon", "coordinates": [[[129.409624, 35.978623], [129.409553, 35.978526], [129.4099, 35.978361], [129.409948, 35.978427], [129.410089, 35.978516], [129.410046, 35.978612], [129.409874, 35.978504], [129.409624, 35.978623]]]}}, {"type": "Feature", "properties": {"name": "102동", "osm_id": 653552138, "origin": "OBSERVED", "building": "apartments"}, "geometry": {"type": "Polygon", "coordinates": [[[129.409098, 35.977987], [129.409038, 35.977893], [129.409492, 35.977705], [129.409663, 35.977975], [129.409511, 35.978038], [129.4094, 35.977862], [129.409098, 35.977987]]]}}, {"type": "Feature", "properties": {"name": "107동", "osm_id": 653552139, "origin": "OBSERVED", "building": "apartments"}, "geometry": {"type": "Polygon", "coordinates": [[[129.409756, 35.978169], [129.409699, 35.978062], [129.410124, 35.977911], [129.410166, 35.977989], [129.410277, 35.978059], [129.410214, 35.978124], [129.410094, 35.978049], [129.409756, 35.978169]]]}}, {"type": "Feature", "properties": {"name": "103동", "osm_id": 653552140, "origin": "OBSERVED", "building": "apartments"}, "geometry": {"type": "Polygon", "coordinates": [[[129.409358, 35.977511], [129.409291, 35.977404], [129.409739, 35.977221], [129.409927, 35.977522], [129.409741, 35.977598], [129.40962, 35.977404], [129.409358, 35.977511]]]}}, {"type": "Feature", "properties": {"name": "106동", "osm_id": 653552141, "origin": "OBSERVED", "building": "apartments"}, "geometry": {"type": "Polygon", "coordinates": [[[129.410014, 35.977611], [129.40995, 35.977501], [129.410278, 35.977377], [129.410443, 35.977663], [129.410326, 35.977707], [129.410225, 35.977531], [129.410014, 35.977611]]]}}, {"type": "Feature", "properties": {"name": "104동", "osm_id": 653552142, "origin": "OBSERVED", "building": "apartments"}, "geometry": {"type": "Polygon", "coordinates": [[[129.409671, 35.977039], [129.409604, 35.976929], [129.409867, 35.976824], [129.409989, 35.977024], [129.409868, 35.977073], [129.409813, 35.976982], [129.409671, 35.977039]]]}}, {"type": "Feature", "properties": {"name": "105동", "osm_id": 653552143, "origin": "OBSERVED", "building": "apartments"}, "geometry": {"type": "Polygon", "coordinates": [[[129.410143, 35.977132], [129.410076, 35.977022], [129.410339, 35.976917], [129.410461, 35.977117], [129.41034, 35.977165], [129.410285, 35.977075], [129.410143, 35.977132]]]}}, {"type": "Feature", "properties": {"name": "메가박스 남포항점", "osm_id": 653727312, "origin": "OBSERVED", "building": "yes"}, "geometry": {"type": "Polygon", "coordinates": [[[129.402855, 35.974188], [129.404025, 35.974238], [129.403984, 35.974899], [129.402781, 35.974837], [129.402855, 35.974188]]]}}, {"type": "Feature", "properties": {"name": "성 김대건 관", "osm_id": 653752530, "origin": "OBSERVED", "building": "yes"}, "geometry": {"type": "Polygon", "coordinates": [[[129.41193, 35.96971], [129.412238, 35.969818], [129.412322, 35.969596], [129.411999, 35.969496], [129.41193, 35.96971]]]}}, {"type": "Feature", "properties": {"name": "중학교 본관", "osm_id": 653752531, "origin": "OBSERVED", "building": "yes"}, "geometry": {"type": "Polygon", "coordinates": [[[129.412424, 35.969525], [129.412392, 35.96941], [129.413325, 35.969352], [129.413333, 35.969479], [129.412424, 35.969525]]]}}, {"type": "Feature", "properties": {"name": "고등학교 본관", "osm_id": 653752532, "origin": "OBSERVED", "building": "yes"}, "geometry": {"type": "Polygon", "coordinates": [[[129.412459, 35.969374], [129.412449, 35.969283], [129.412711, 35.969267], [129.412687, 35.968765], [129.412418, 35.968775], [129.412406, 35.968676], [129.413048, 35.968638], [129.41305, 35.968742], [129.41279, 35.968754], [129.412833, 35.96925], [129.413101, 35.969232], [129.413111, 35.969336], [129.412459, 35.969374]]]}}, {"type": "Feature", "properties": {"name": "스텔라관", "osm_id": 653752533, "origin": "OBSERVED", "building": "yes"}, "geometry": {"type": "Polygon", "coordinates": [[[129.413386, 35.969463], [129.413386, 35.969295], [129.413805, 35.969292], [129.413809, 35.969463], [129.413386, 35.969463]]]}}, {"type": "Feature", "properties": {"name": "", "osm_id": 663823470, "origin": "OBSERVED", "building": "apartments"}, "geometry": {"type": "Polygon", "coordinates": [[[129.400576, 35.969235], [129.401288, 35.969281], [129.4013, 35.969114], [129.400576, 35.96908], [129.400576, 35.969235]]]}}, {"type": "Feature", "properties": {"name": "", "osm_id": 663823471, "origin": "OBSERVED", "building": "apartments"}, "geometry": {"type": "Polygon", "coordinates": [[[129.401552, 35.969305], [129.40156, 35.969184], [129.402016, 35.96922], [129.401995, 35.969342], [129.401552, 35.969305]]]}}, {"type": "Feature", "properties": {"name": "", "osm_id": 663823472, "origin": "OBSERVED", "building": "apartments"}, "geometry": {"type": "Polygon", "coordinates": [[[129.400613, 35.968733], [129.401393, 35.968805], [129.401389, 35.968667], [129.400621, 35.968611], [129.400613, 35.968733]]]}}, {"type": "Feature", "properties": {"name": "", "osm_id": 663823473, "origin": "OBSERVED", "building": "apartments"}, "geometry": {"type": "Polygon", "coordinates": [[[129.401544, 35.96893], [129.402064, 35.968973], [129.402064, 35.968845], [129.401556, 35.968809], [129.401544, 35.96893]]]}}, {"type": "Feature", "properties": {"name": "", "osm_id": 663823474, "origin": "OBSERVED", "building": "apartments"}, "geometry": {"type": "Polygon", "coordinates": [[[129.400761, 35.968335], [129.401204, 35.968358], [129.401236, 35.968266], [129.400777, 35.96824], [129.400761, 35.968335]]]}}, {"type": "Feature", "properties": {"name": "", "osm_id": 663823475, "origin": "OBSERVED", "building": "apartments"}, "geometry": {"type": "Polygon", "coordinates": [[[129.400614, 35.968177], [129.400769, 35.968187], [129.400777, 35.967795], [129.400631, 35.967772], [129.400614, 35.968177]]]}}, {"type": "Feature", "properties": {"name": "", "osm_id": 663823476, "origin": "OBSERVED", "building": "apartments"}, "geometry": {"type": "Polygon", "coordinates": [[[129.400805, 35.967604], [129.401326, 35.967641], [129.401338, 35.967552], [129.400813, 35.967502], [129.400805, 35.967604]]]}}, {"type": "Feature", "properties": {"name": "", "osm_id": 663823477, "origin": "OBSERVED", "building": "apartments"}, "geometry": {"type": "Polygon", "coordinates": [[[129.401407, 35.96765], [129.402167, 35.96771], [129.402179, 35.967614], [129.401419, 35.967568], [129.401407, 35.96765]]]}}, {"type": "Feature", "properties": {"name": "", "osm_id": 663823478, "origin": "OBSERVED", "building": "apartments"}, "geometry": {"type": "Polygon", "coordinates": [[[129.401346, 35.968058], [129.402139, 35.968147], [129.402127, 35.968058], [129.401358, 35.967983], [129.401346, 35.968058]]]}}, {"type": "Feature", "properties": {"name": "", "osm_id": 663823481, "origin": "OBSERVED", "building": "apartments"}, "geometry": {"type": "Polygon", "coordinates": [[[129.4015, 35.968522], [129.402001, 35.968559], [129.402001, 35.96848], [129.401509, 35.968434], [129.4015, 35.968522]]]}}, {"type": "Feature", "properties": {"name": "탑마트 포항문덕점", "osm_id": 699180066, "origin": "OBSERVED", "building": "yes"}, "geometry": {"type": "Polygon", "coordinates": [[[129.401837, 35.965932], [129.402731, 35.965991], [129.402669, 35.966687], [129.401757, 35.966637], [129.401837, 35.965932]]]}}, {"type": "Feature", "properties": {"name": "신흥청실타운", "osm_id": 699180070, "origin": "OBSERVED", "building": "apartments"}, "geometry": {"type": "Polygon", "coordinates": [[[129.411139, 35.971923], [129.411262, 35.971941], [129.41105, 35.972654], [129.410926, 35.972624], [129.411139, 35.971923]]]}}, {"type": "Feature", "properties": {"name": "", "osm_id": 699180072, "origin": "OBSERVED", "building": "apartments"}, "geometry": {"type": "Polygon", "coordinates": [[[129.410886, 35.972769], [129.411007, 35.972796], [129.410723, 35.973689], [129.410585, 35.973662], [129.410886, 35.972769]]]}}, {"type": "Feature", "properties": {"name": "", "osm_id": 699180073, "origin": "OBSERVED", "building": "apartments"}, "geometry": {"type": "Polygon", "coordinates": [[[129.410567, 35.973716], [129.410705, 35.973746], [129.41046, 35.974518], [129.410309, 35.974482], [129.410567, 35.973716]]]}}, {"type": "Feature", "properties": {"name": "요한보스코성당", "osm_id": 699180075, "origin": "OBSERVED", "building": "yes"}, "geometry": {"type": "Polygon", "coordinates": [[[129.41224, 35.969337], [129.412392, 35.969339], [129.412394, 35.969252], [129.412237, 35.969246], [129.41224, 35.969337]]]}}, {"type": "Feature", "properties": {"name": "20동", "osm_id": 897388926, "origin": "OBSERVED", "building": "apartments"}, "geometry": {"type": "Polygon", "coordinates": [[[129.41693, 35.971279], [129.416753, 35.970896], [129.416636, 35.970931], [129.416813, 35.971315], [129.41693, 35.971279]]]}}, {"type": "Feature", "properties": {"name": "18동", "osm_id": 897388927, "origin": "OBSERVED", "building": "apartments"}, "geometry": {"type": "Polygon", "coordinates": [[[129.41684, 35.970945], [129.417996, 35.970596], [129.417961, 35.970521], [129.416805, 35.970869], [129.41684, 35.970945]]]}}, {"type": "Feature", "properties": {"name": "17동", "osm_id": 897388928, "origin": "OBSERVED", "building": "apartments"}, "geometry": {"type": "Polygon", "coordinates": [[[129.417233, 35.970966], [129.417268, 35.971042], [129.418086, 35.970795], [129.418051, 35.970719], [129.417233, 35.970966]]]}}, {"type": "Feature", "properties": {"name": "15동", "osm_id": 897388929, "origin": "OBSERVED", "building": "apartments"}, "geometry": {"type": "Polygon", "coordinates": [[[129.416999, 35.971271], [129.417034, 35.971347], [129.417793, 35.971124], [129.417758, 35.971048], [129.416999, 35.971271]]]}}, {"type": "Feature", "properties": {"name": "", "osm_id": 978756035, "origin": "OBSERVED", "building": "warehouse"}, "geometry": {"type": "Polygon", "coordinates": [[[129.403573, 35.972495], [129.403919, 35.972512], [129.403977, 35.971648], [129.403647, 35.971624], [129.403573, 35.972495]]]}}, {"type": "Feature", "properties": {"name": "금성카고크레인", "osm_id": 978756036, "origin": "OBSERVED", "building": "warehouse"}, "geometry": {"type": "Polygon", "coordinates": [[[129.403919, 35.972512], [129.404249, 35.972522], [129.404305, 35.971677], [129.403977, 35.971648], [129.403919, 35.972512]]]}}, {"type": "Feature", "properties": {"name": "", "osm_id": 978756037, "origin": "OBSERVED", "building": "warehouse"}, "geometry": {"type": "Polygon", "coordinates": [[[129.404249, 35.972522], [129.404305, 35.971677], [129.40462, 35.971697], [129.404574, 35.972539], [129.404249, 35.972522]]]}}, {"type": "Feature", "properties": {"name": "E-Mart", "osm_id": 998904396, "origin": "OBSERVED", "building": "yes"}, "geometry": {"type": "Polygon", "coordinates": [[[129.398316, 35.991906], [129.39839, 35.991893], [129.3984, 35.991972], [129.399513, 35.991944], [129.399505, 35.990864], [129.398478, 35.990791], [129.3984, 35.991498], [129.398328, 35.991502], [129.398316, 35.991906]]]}}]}