{"type": "FeatureCollection", "features": [{"type": "Feature", "properties": {"name": "형산강", "osm_id": 353253952, "origin": "OBSERVED", "waterway": "river"}, "geometry": {"type": "LineString", "coordinates": [[129.202659, 35.860507], [129.202852, 35.861491], [129.203319, 35.86266], [129.204061, 35.863484], [129.205494, 35.86523], [129.206404, 35.866354], [129.207669, 35.868672], [129.210699, 35.872867], [129.211786, 35.87437], [129.214911, 35.880044], [129.216947, 35.883813], [129.218207, 35.885482], [129.221114, 35.887484], [129.225839, 35.888995], [129.229958, 35.89088], [129.231557, 35.892116], [129.234537, 35.895826], [129.236814, 35.900046], [129.23788, 35.904422], [129.238849, 35.91292], [129.238849, 35.914065], [129.238849, 35.922083], [129.240716, 35.927636], [129.241006, 35.928499], [129.240812, 35.933619], [129.240715, 35.938916], [129.240134, 35.942133], [129.239237, 35.944291], [129.238074, 35.945801], [129.235748, 35.949646], [129.234731, 35.952725], [129.234513, 35.956804], [129.23444, 35.960001], [129.235336, 35.962198], [129.235724, 35.963041], [129.236305, 35.964472], [129.236475, 35.968081], [129.236427, 35.970081], [129.236315, 35.971461], [129.236458, 35.972457], [129.237165, 35.974025], [129.237554, 35.974578], [129.237983, 35.974925], [129.241659, 35.978343], [129.242823, 35.978849], [129.2452, 35.979882], [129.247684, 35.981622], [129.249047, 35.983533], [129.250198, 35.985886], [129.250635, 35.986973], [129.251706, 35.987402], [129.252977, 35.987659], [129.254391, 35.987946], [129.255861, 35.987307], [129.257951, 35.986131], [129.260919, 35.983974], [129.26322, 35.982357], [129.266885, 35.980323], [129.269157, 35.980029], [129.271125, 35.980102], [129.271819, 35.98061], [129.273033, 35.981499], [129.28221, 35.985494], [129.284724, 35.986694], [129.28542, 35.987773], [129.286177, 35.990052], [129.287298, 35.991865], [129.288691, 35.993752], [129.290448, 35.994487], [129.291901, 35.994487], [129.292921, 35.994501], [129.295445, 35.994536], [129.302683, 35.995541], [129.30656, 35.996423], [129.308441, 35.997078], [129.311508, 35.998146], [129.313525, 35.998849], [129.32355, 36.00245], [129.32885, 36.00343], [129.332697, 36.003553], [129.345206, 36.002419], [129.346749, 36.002279], [129.356592, 36.001813], [129.363043, 36.004214], [129.367948, 36.007117], [129.370827, 36.00882], [129.375705, 36.013548], [129.376848, 36.017423], [129.383088, 36.028836], [129.383915, 36.029435]]}}, {"type": "Feature", "properties": {"name": "", "osm_id": 576817065, "origin": "OBSERVED", "waterway": "stream"}, "geometry": {"type": "LineString", "coordinates": [[129.417873, 35.997649], [129.41908, 35.998952], [129.41905, 35.99955], [129.419334, 35.999826], [129.420522, 36.000786], [129.420974, 36.00105], [129.421166, 36.00119], [129.421272, 36.001296], [129.421303, 36.001335], [129.421327, 36.00137], [129.421355, 36.001384], [129.421378, 36.001377], [129.421405, 36.001362], [129.421442, 36.001337], [129.421454, 36.001334], [129.421469, 36.001335], [129.42148, 36.00134], [129.421489, 36.001347], [129.421495, 36.001363], [129.421494, 36.00138], [129.421499, 36.001389], [129.421511, 36.001396], [129.421528, 36.001399], [129.421542, 36.001398], [129.42157, 36.001384], [129.421621, 36.00135], [129.421662, 36.001346], [129.421708, 36.001347], [129.421772, 36.001357], [129.421845, 36.001387], [129.421912, 36.001454]]}}, {"type": "Feature", "properties": {"name": "", "osm_id": 931634176, "origin": "OBSERVED", "waterway": "stream"}, "geometry": {"type": "LineString", "coordinates": [[129.43537, 35.954211], [129.435499, 35.954348], [129.435607, 35.954596], [129.435555, 35.954804], [129.435337, 35.95503], [129.435027, 35.955235], [129.434847, 35.955409], [129.43471, 35.95561], [129.43465, 35.955836], [129.434736, 35.9561], [129.434903, 35.956336], [129.434912, 35.956506], [129.434796, 35.956711], [129.434616, 35.957062], [129.434491, 35.957528], [129.434332, 35.95775], [129.433766, 35.958066], [129.433401, 35.958233], [129.432895, 35.958275], [129.432466, 35.958309], [129.432307, 35.958358], [129.432174, 35.958479], [129.432118, 35.958632], [129.432101, 35.958768], [129.432174, 35.958875], [129.432397, 35.959098], [129.432478, 35.959212], [129.432448, 35.959292], [129.432268, 35.959327], [129.431925, 35.959324], [129.431114, 35.959334], [129.430775, 35.9594], [129.430423, 35.959685], [129.430006, 35.960119], [129.42968, 35.960522], [129.429418, 35.960654], [129.428625, 35.960803], [129.428037, 35.961019], [129.427573, 35.96139], [129.42702, 35.961793], [129.424492, 35.963256], [129.423736, 35.963846], [129.423445, 35.964145], [129.42299, 35.964829], [129.422561, 35.965343], [129.422307, 35.965583], [129.421914, 35.965715]]}}, {"type": "Feature", "properties": {"name": "냉천", "osm_id": 954465311, "origin": "OBSERVED", "waterway": "stream"}, "geometry": {"type": "LineString", "coordinates": [[129.397662, 35.888054], [129.397383, 35.888585], [129.397328, 35.889638], [129.397001, 35.890685], [129.397025, 35.891093], [129.398427, 35.891688], [129.399168, 35.89246], [129.400066, 35.892843], [129.39995, 35.895046], [129.400515, 35.896501], [129.402967, 35.899254], [129.403149, 35.900243], [129.403325, 35.901698], [129.403404, 35.902361], [129.402427, 35.90272], [129.401741, 35.903242], [129.401753, 35.903595], [129.401334, 35.904102], [129.401122, 35.905056], [129.400982, 35.906117], [129.399653, 35.907415], [129.398178, 35.907656], [129.397741, 35.90827], [129.397784, 35.910645], [129.397942, 35.911648], [129.398664, 35.912439], [129.399392, 35.912631], [129.401516, 35.913098], [129.402372, 35.913766], [129.40276, 35.914695], [129.402427, 35.915305], [129.40077, 35.9176], [129.399926, 35.920018], [129.399198, 35.920927], [129.398907, 35.921621], [129.398773, 35.922058], [129.398737, 35.9225], [129.399787, 35.924353], [129.40009, 35.925361], [129.399935, 35.927372], [129.399906, 35.928821], [129.401364, 35.930318], [129.402476, 35.931253], [129.402865, 35.932737], [129.402649, 35.933719], [129.401739, 35.935098], [129.400671, 35.93691], [129.399848, 35.939294], [129.399912, 35.940827], [129.400155, 35.941898], [129.401235, 35.94347], [129.40345, 35.945719], [129.40526, 35.946915], [129.406679, 35.948551], [129.407006, 35.951001], [129.407189, 35.953459], [129.407562, 35.956066], [129.40773, 35.958954], [129.407812, 35.960709], [129.408527, 35.96263], [129.409573, 35.964993], [129.410435, 35.967058], [129.410895, 35.96819], [129.411109, 35.969008], [129.410992, 35.970123], [129.409767, 35.973175], [129.409042, 35.975435], [129.408649, 35.976636], [129.406807, 35.979697], [129.405158, 35.982551], [129.403933, 35.984467], [129.403173, 35.985978], [129.40231, 35.987597], [129.401341, 35.98917], [129.400749, 35.990099], [129.400647, 35.990669], [129.400764, 35.991524], [129.401254, 35.992978], [129.401688, 35.994121], [129.401907, 35.994807], [129.402265, 35.995505], [129.402943, 35.996454], [129.403821, 35.997264], [129.40549, 35.998333], [129.408317, 36.000154], [129.410502, 36.001508], [129.411752, 36.002499], [129.412533, 36.002932], [129.413257, 36.003312], [129.414156, 36.003845], [129.41561, 36.005447], [129.416616, 36.006215], [129.418953, 36.007734], [129.420678, 36.009022], [129.423602, 36.010834]]}}, {"type": "Feature", "properties": {"name": "", "osm_id": 1011924219, "origin": "OBSERVED", "waterway": "stream"}, "geometry": {"type": "LineString", "coordinates": [[129.384057, 35.988653], [129.384134, 35.98857], [129.383823, 35.98781], [129.383196, 35.986334], [129.382686, 35.984968], [129.382196, 35.983945], [129.381845, 35.982951], [129.381354, 35.981944], [129.380874, 35.980614], [129.380394, 35.979288], [129.380306, 35.979033], [129.380347, 35.978792], [129.380866, 35.97831], [129.382052, 35.977163], [129.383178, 35.976004], [129.384019, 35.975033], [129.384306, 35.974629], [129.384535, 35.97364], [129.384607, 35.973102], [129.384728, 35.972023], [129.384124, 35.969713]]}}, {"type": "Feature", "properties": {"name": "", "osm_id": 1011924222, "origin": "OBSERVED", "waterway": "stream"}, "geometry": {"type": "LineString", "coordinates": [[129.367948, 36.007117], [129.368477, 36.005022], [129.368804, 36.003596], [129.369054, 36.001727], [129.369397, 36.000572], [129.370022, 35.999833], [129.370903, 35.998899], [129.373993, 35.995768], [129.374531, 35.99528]]}}, {"type": "Feature", "properties": {"name": "", "osm_id": 1011924223, "origin": "OBSERVED", "waterway": "stream"}, "geometry": {"type": "LineString", "coordinates": [[129.374531, 35.99528], [129.375157, 35.994706]]}}, {"type": "Feature", "properties": {"name": "", "osm_id": 1011924226, "origin": "OBSERVED", "waterway": "stream"}, "geometry": {"type": "LineString", "coordinates": [[129.375157, 35.994706], [129.37568, 35.994203], [129.376845, 35.993272], [129.377592, 35.992833], [129.378629, 35.992363], [129.380496, 35.991417], [129.381897, 35.990706], [129.382558, 35.990349], [129.383064, 35.989807], [129.383517, 35.989349], [129.383751, 35.989032], [129.383819, 35.988954]]}}, {"type": "Feature", "properties": {"name": "", "osm_id": 1011924227, "origin": "OBSERVED", "waterway": "stream"}, "geometry": {"type": "LineString", "coordinates": [[129.383819, 35.988954], [129.384057, 35.988653]]}}]}