{"type": "FeatureCollection", "features": [{"type": "Feature", "properties": {"name": "냉천교", "kind": "bridge", "note": "범람 지점으로 보도된 교량(1970년대 교량, 교각 다수)", "origin": "DERIVED"}, "geometry": {"type": "Point", "coordinates": [129.40142, 35.99343]}}, {"type": "Feature", "properties": {"name": "인덕교", "kind": "bridge", "note": "복구사업 재가설 대상 교량", "origin": "DERIVED"}, "geometry": {"type": "Point", "coordinates": [129.40359, 35.98517]}}, {"type": "Feature", "properties": {"name": "인덕동 일대", "kind": "neighbourhood", "note": "지하주차장 침수 사고가 난 동. 개별 단지는 표시하지 않음", "origin": "DERIVED"}, "geometry": {"type": "Point", "coordinates": [129.39973, 35.98701]}}]}