{
"type": "FeatureCollection",
"name": "seoul_osm_waterways_2022",
"crs": { "type": "name", "properties": { "name": "urn:ogc:def:crs:OGC:1.3:CRS84" } },
"xy_coordinate_resolution": 1e-06,
"features": [
{ "type": "Feature", "properties": { "name": "대방천", "waterway": "stream", "osm_id": 361038838, "origin": "OBSERVED" }, "geometry": { "type": "LineString", "coordinates": [ [ 126.895195, 37.507733 ], [ 126.894835, 37.507902 ], [ 126.894455, 37.508031 ], [ 126.894249, 37.508093 ], [ 126.893774, 37.508124 ], [ 126.893411, 37.508132 ], [ 126.892958, 37.50815 ] ] } },
{ "type": "Feature", "properties": { "name": "대방천", "waterway": "stream", "osm_id": 361038839, "origin": "OBSERVED" }, "geometry": { "type": "LineString", "coordinates": [ [ 126.921651, 37.497953 ], [ 126.921346, 37.498063 ], [ 126.920632, 37.498362 ], [ 126.919914, 37.498652 ], [ 126.919125, 37.498902 ], [ 126.918956, 37.498924 ], [ 126.918789, 37.498921 ], [ 126.918527, 37.498887 ], [ 126.917175, 37.498604 ], [ 126.916571, 37.498503 ], [ 126.915871, 37.498459 ], [ 126.915212, 37.498476 ], [ 126.914885, 37.498506 ], [ 126.913708, 37.498662 ], [ 126.913508, 37.498701 ], [ 126.912784, 37.498973 ], [ 126.912473, 37.499048 ], [ 126.911499, 37.499131 ], [ 126.910225, 37.499204 ], [ 126.908894, 37.499306 ], [ 126.907019, 37.499515 ], [ 126.905462, 37.499702 ], [ 126.904987, 37.499784 ], [ 126.904533, 37.499891 ], [ 126.904082, 37.500041 ], [ 126.903844, 37.500162 ], [ 126.903411, 37.50053 ], [ 126.901753, 37.501912 ], [ 126.900968, 37.502589 ], [ 126.900002, 37.503418 ], [ 126.899435, 37.503968 ], [ 126.898207, 37.505051 ], [ 126.896663, 37.506438 ], [ 126.895813, 37.507193 ], [ 126.895195, 37.507733 ] ] } },
{ "type": "Feature", "properties": { "name": "도림천", "waterway": "stream", "osm_id": 389628716, "origin": "OBSERVED" }, "geometry": { "type": "LineString", "coordinates": [ [ 126.947464, 37.46706 ], [ 126.947214, 37.4678 ], [ 126.946907, 37.468109 ], [ 126.946568, 37.468376 ], [ 126.944001, 37.470333 ], [ 126.943553, 37.470596 ], [ 126.943415, 37.470658 ], [ 126.943289, 37.470707 ], [ 126.943151, 37.470747 ], [ 126.943012, 37.470784 ] ] } },
{ "type": "Feature", "properties": { "name": "도림천", "waterway": "stream", "osm_id": 389628717, "origin": "OBSERVED" }, "geometry": { "type": "LineString", "coordinates": [ [ 126.943012, 37.470784 ], [ 126.942826, 37.470825 ], [ 126.942585, 37.470847 ], [ 126.942397, 37.470847 ], [ 126.942235, 37.470833 ], [ 126.939913, 37.470607 ], [ 126.939764, 37.470596 ], [ 126.939625, 37.470592 ], [ 126.9395, 37.470591 ], [ 126.939363, 37.470603 ], [ 126.938786, 37.470663 ], [ 126.937773, 37.47079 ], [ 126.936705, 37.470895 ], [ 126.935939, 37.470993 ], [ 126.935553, 37.471045 ], [ 126.935365, 37.471075 ], [ 126.935178, 37.471118 ], [ 126.934858, 37.471215 ], [ 126.934584, 37.471329 ], [ 126.934305, 37.471458 ], [ 126.933999, 37.471618 ], [ 126.933823, 37.47171 ], [ 126.933609, 37.47189 ], [ 126.933463, 37.47209 ], [ 126.933399, 37.472196 ], [ 126.933338, 37.472367 ], [ 126.933281, 37.472545 ], [ 126.933251, 37.47274 ], [ 126.933257, 37.472977 ], [ 126.933334, 37.473244 ], [ 126.933436, 37.473434 ], [ 126.933556, 37.473624 ], [ 126.933749, 37.473841 ], [ 126.93392, 37.473927 ], [ 126.934159, 37.474026 ], [ 126.934505, 37.474115 ], [ 126.935187, 37.474222 ], [ 126.935373, 37.474282 ], [ 126.935533, 37.474367 ], [ 126.935816, 37.474564 ], [ 126.936086, 37.474787 ], [ 126.9367, 37.475419 ], [ 126.936858, 37.475623 ], [ 126.936976, 37.475842 ], [ 126.937071, 37.476059 ], [ 126.937131, 37.47628 ], [ 126.937156, 37.476512 ], [ 126.937133, 37.476707 ], [ 126.937058, 37.47689 ], [ 126.936915, 37.477055 ], [ 126.936774, 37.47716 ], [ 126.936594, 37.477245 ], [ 126.936225, 37.477342 ], [ 126.93585, 37.477413 ], [ 126.9345, 37.47759 ], [ 126.933553, 37.477793 ], [ 126.932735, 37.478103 ], [ 126.93243, 37.47828 ], [ 126.932174, 37.478502 ], [ 126.932023, 37.478662 ], [ 126.931681, 37.478957 ], [ 126.928886, 37.481646 ], [ 126.926605, 37.483514 ], [ 126.925612, 37.484341 ], [ 126.924792, 37.484988 ], [ 126.923467, 37.486117 ], [ 126.922865, 37.486939 ], [ 126.92208, 37.488117 ], [ 126.921621, 37.488575 ], [ 126.920876, 37.489022 ], [ 126.920464, 37.489223 ], [ 126.920015, 37.489375 ], [ 126.919477, 37.489499 ], [ 126.919065, 37.48959 ], [ 126.917791, 37.489765 ], [ 126.917336, 37.48972 ], [ 126.916954, 37.489633 ], [ 126.916214, 37.489375 ], [ 126.91534, 37.488794 ], [ 126.914425, 37.488209 ] ] } },
{ "type": "Feature", "properties": { "name": "", "waterway": "stream", "osm_id": 548789790, "origin": "OBSERVED" }, "geometry": { "type": "LineString", "coordinates": [ [ 126.93084, 37.462564 ], [ 126.930929, 37.462707 ], [ 126.930963, 37.462863 ], [ 126.930892, 37.463018 ], [ 126.93073, 37.463197 ], [ 126.930563, 37.463373 ], [ 126.93044, 37.463465 ], [ 126.930421, 37.463518 ], [ 126.930191, 37.463931 ], [ 126.930157, 37.464038 ], [ 126.93011, 37.464197 ], [ 126.930044, 37.46457 ], [ 126.930032, 37.464636 ], [ 126.929995, 37.465067 ], [ 126.930021, 37.465261 ], [ 126.930078, 37.4654 ], [ 126.930153, 37.465639 ], [ 126.93015, 37.465794 ], [ 126.930071, 37.466247 ], [ 126.930059, 37.466375 ], [ 126.930065, 37.466537 ], [ 126.930127, 37.466692 ], [ 126.93026, 37.466858 ], [ 126.930792, 37.467437 ], [ 126.930864, 37.467562 ], [ 126.931146, 37.46797 ], [ 126.931186, 37.468121 ], [ 126.931258, 37.468636 ], [ 126.931331, 37.468853 ], [ 126.931505, 37.469222 ], [ 126.931525, 37.469257 ], [ 126.931549, 37.469299 ], [ 126.931577, 37.469349 ], [ 126.931768, 37.46953 ], [ 126.932218, 37.47 ], [ 126.932557, 37.470339 ], [ 126.932683, 37.470539 ], [ 126.932747, 37.470684 ], [ 126.932795, 37.47099 ], [ 126.932814, 37.471165 ], [ 126.932902, 37.471397 ], [ 126.932961, 37.471532 ], [ 126.93302, 37.471668 ], [ 126.933044, 37.471725 ], [ 126.933168, 37.47204 ], [ 126.933223, 37.472151 ], [ 126.933338, 37.472367 ] ] } },
{ "type": "Feature", "properties": { "name": "도림천", "waterway": "stream", "osm_id": 548790283, "origin": "OBSERVED" }, "geometry": { "type": "LineString", "coordinates": [ [ 126.94732, 37.441103 ], [ 126.947213, 37.441563 ], [ 126.947633, 37.442404 ], [ 126.947792, 37.442721 ], [ 126.947663, 37.443198 ], [ 126.947813, 37.443573 ], [ 126.947298, 37.444902 ], [ 126.947577, 37.445737 ], [ 126.946976, 37.446077 ], [ 126.947028, 37.446713 ], [ 126.946728, 37.446984 ], [ 126.946747, 37.447055 ], [ 126.946835, 37.447391 ], [ 126.946652, 37.447548 ], [ 126.946641, 37.447673 ], [ 126.946669, 37.447798 ], [ 126.946699, 37.447808 ], [ 126.946749, 37.447824 ], [ 126.946842, 37.4479 ], [ 126.946949, 37.448184 ], [ 126.946842, 37.448409 ], [ 126.946909, 37.448551 ], [ 126.947131, 37.448727 ], [ 126.947322, 37.449038 ], [ 126.947479, 37.449517 ], [ 126.947951, 37.449762 ], [ 126.948123, 37.449877 ], [ 126.948265, 37.449921 ], [ 126.948549, 37.450146 ], [ 126.949245, 37.450547 ], [ 126.949331, 37.450598 ], [ 126.949405, 37.450659 ], [ 126.949411, 37.450769 ], [ 126.949374, 37.450916 ], [ 126.949433, 37.451021 ], [ 126.949374, 37.451178 ], [ 126.949402, 37.451518 ], [ 126.949197, 37.451566 ], [ 126.949239, 37.451823 ], [ 126.949342, 37.452005 ], [ 126.94951, 37.452211 ], [ 126.949554, 37.452311 ], [ 126.949584, 37.45247 ], [ 126.949662, 37.452581 ], [ 126.949647, 37.452715 ], [ 126.949727, 37.452763 ], [ 126.949647, 37.452852 ], [ 126.949666, 37.452915 ], [ 126.94954, 37.453011 ], [ 126.949545, 37.453108 ], [ 126.949488, 37.453243 ], [ 126.94935, 37.453705 ], [ 126.949437, 37.453929 ], [ 126.949492, 37.454069 ], [ 126.949423, 37.454305 ], [ 126.949456, 37.454395 ], [ 126.949403, 37.454599 ], [ 126.949134, 37.454821 ], [ 126.949057, 37.455025 ], [ 126.949045, 37.455154 ], [ 126.948777, 37.455496 ], [ 126.948582, 37.455751 ], [ 126.948522, 37.455799 ], [ 126.948382, 37.455794 ], [ 126.948321, 37.45587 ], [ 126.948167, 37.456125 ], [ 126.948085, 37.456324 ], [ 126.948001, 37.456461 ], [ 126.947924, 37.456567 ], [ 126.947842, 37.456721 ], [ 126.947714, 37.456811 ], [ 126.947624, 37.457011 ], [ 126.947614, 37.457404 ], [ 126.947624, 37.458011 ], [ 126.94741, 37.458857 ], [ 126.947359, 37.459275 ], [ 126.947387, 37.459545 ], [ 126.947596, 37.459896 ], [ 126.947732, 37.460007 ], [ 126.948256, 37.460487 ], [ 126.948939, 37.461282 ], [ 126.948968, 37.461574 ], [ 126.948723, 37.462195 ], [ 126.948645, 37.462681 ], [ 126.948355, 37.463283 ], [ 126.948146, 37.464193 ], [ 126.948214, 37.465038 ], [ 126.948189, 37.465201 ], [ 126.947863, 37.465825 ], [ 126.947464, 37.46706 ] ] } },
{ "type": "Feature", "properties": { "name": "", "waterway": "stream", "osm_id": 616202698, "origin": "OBSERVED" }, "geometry": { "type": "LineString", "coordinates": [ [ 126.920727, 37.494203 ], [ 126.920692, 37.494056 ] ] } },
{ "type": "Feature", "properties": { "name": "", "waterway": "stream", "osm_id": 616202699, "origin": "OBSERVED" }, "geometry": { "type": "LineString", "coordinates": [ [ 126.92068, 37.494004 ], [ 126.920642, 37.493843 ] ] } },
{ "type": "Feature", "properties": { "name": "", "waterway": "stream", "osm_id": 616202700, "origin": "OBSERVED" }, "geometry": { "type": "LineString", "coordinates": [ [ 126.920692, 37.494056 ], [ 126.92068, 37.494004 ] ] } },
{ "type": "Feature", "properties": { "name": "봉천천", "waterway": "stream", "osm_id": 618387107, "origin": "OBSERVED" }, "geometry": { "type": "LineString", "coordinates": [ [ 126.958792, 37.466305 ], [ 126.958157, 37.466554 ], [ 126.958276, 37.467297 ], [ 126.958333, 37.467556 ], [ 126.95843, 37.46781 ], [ 126.958528, 37.468107 ], [ 126.958579, 37.46842 ], [ 126.958592, 37.468753 ], [ 126.958474, 37.469975 ], [ 126.958416, 37.47046 ], [ 126.958416, 37.470513 ], [ 126.958423, 37.470556 ], [ 126.958443, 37.470606 ], [ 126.958471, 37.470648 ], [ 126.958515, 37.470689 ], [ 126.958564, 37.47072 ], [ 126.95907, 37.470971 ], [ 126.959158, 37.471021 ], [ 126.95922, 37.471082 ], [ 126.959254, 37.471147 ], [ 126.959271, 37.471207 ], [ 126.959279, 37.471284 ], [ 126.95927, 37.471354 ], [ 126.95925, 37.471435 ], [ 126.958853, 37.472563 ], [ 126.95896, 37.472597 ], [ 126.95908, 37.472649 ], [ 126.959419, 37.472882 ], [ 126.95971, 37.473081 ], [ 126.959936, 37.473257 ], [ 126.960046, 37.473385 ], [ 126.960086, 37.473445 ], [ 126.960121, 37.473499 ], [ 126.960152, 37.473557 ], [ 126.960175, 37.473619 ], [ 126.96019, 37.473687 ], [ 126.960202, 37.473756 ], [ 126.960207, 37.473851 ], [ 126.960203, 37.473912 ], [ 126.960195, 37.473969 ], [ 126.960171, 37.474046 ], [ 126.96016, 37.474076 ], [ 126.960148, 37.474109 ], [ 126.960062, 37.4743 ], [ 126.960039, 37.47435 ], [ 126.960021, 37.474391 ], [ 126.959832, 37.474808 ], [ 126.959689, 37.475123 ], [ 126.959661, 37.475208 ], [ 126.959644, 37.47529 ], [ 126.959626, 37.475488 ], [ 126.959611, 37.475538 ], [ 126.959605, 37.475557 ], [ 126.959496, 37.475808 ], [ 126.95937, 37.476158 ], [ 126.959053, 37.477046 ], [ 126.958665, 37.477875 ], [ 126.958479, 37.478274 ], [ 126.958269, 37.478356 ], [ 126.958178, 37.478391 ], [ 126.957182, 37.478777 ], [ 126.956999, 37.478849 ], [ 126.95616, 37.479174 ], [ 126.956087, 37.479209 ], [ 126.956052, 37.479227 ], [ 126.95602, 37.479247 ], [ 126.955988, 37.479268 ], [ 126.955963, 37.479292 ], [ 126.95594, 37.47932 ], [ 126.95592, 37.479351 ], [ 126.955903, 37.479383 ], [ 126.955889, 37.47942 ], [ 126.955869, 37.479497 ], [ 126.955843, 37.479687 ], [ 126.955798, 37.480022 ], [ 126.955789, 37.48009 ], [ 126.955779, 37.480164 ], [ 126.955732, 37.480514 ], [ 126.955728, 37.480547 ], [ 126.955711, 37.480624 ], [ 126.955682, 37.480697 ], [ 126.955642, 37.480761 ], [ 126.955589, 37.480825 ], [ 126.955533, 37.480875 ], [ 126.955467, 37.48092 ], [ 126.95538, 37.480973 ], [ 126.955076, 37.481153 ], [ 126.954483, 37.4815 ], [ 126.954059, 37.481692 ], [ 126.953983, 37.481726 ], [ 126.953926, 37.481752 ], [ 126.953166, 37.482022 ], [ 126.952965, 37.482075 ], [ 126.952824, 37.482112 ] ] } },
{ "type": "Feature", "properties": { "name": "봉천천", "waterway": "stream", "osm_id": 684518926, "origin": "OBSERVED" }, "geometry": { "type": "LineString", "coordinates": [ [ 126.952824, 37.482112 ], [ 126.952556, 37.48217 ], [ 126.951935, 37.482239 ], [ 126.951798, 37.482253 ], [ 126.95066, 37.482369 ], [ 126.949238, 37.482511 ], [ 126.947847, 37.48265 ], [ 126.946829, 37.482752 ], [ 126.946412, 37.482793 ], [ 126.945999, 37.482835 ], [ 126.945007, 37.482934 ], [ 126.943603, 37.483074 ], [ 126.943179, 37.483105 ], [ 126.942845, 37.483136 ], [ 126.942558, 37.483175 ], [ 126.942257, 37.483231 ], [ 126.941907, 37.48331 ], [ 126.941533, 37.483416 ], [ 126.941092, 37.483578 ], [ 126.9397, 37.484202 ], [ 126.938694, 37.484652 ], [ 126.93834, 37.484811 ], [ 126.937543, 37.485169 ], [ 126.937502, 37.485189 ], [ 126.936602, 37.485593 ], [ 126.936117, 37.485816 ], [ 126.935789, 37.485966 ], [ 126.93491, 37.486371 ], [ 126.934121, 37.486695 ], [ 126.933484, 37.486956 ], [ 126.933118, 37.487106 ], [ 126.932257, 37.487459 ], [ 126.932076, 37.487538 ], [ 126.931621, 37.487738 ], [ 126.931579, 37.487757 ], [ 126.930913, 37.488052 ], [ 126.930449, 37.488243 ], [ 126.929859, 37.488516 ], [ 126.929839, 37.488526 ], [ 126.928951, 37.488937 ], [ 126.928663, 37.489067 ], [ 126.928564, 37.489111 ], [ 126.927997, 37.489358 ], [ 126.927016, 37.489585 ], [ 126.926604, 37.48967 ], [ 126.926137, 37.489751 ], [ 126.925769, 37.489804 ], [ 126.925354, 37.489848 ], [ 126.924231, 37.489922 ], [ 126.923662, 37.489959 ], [ 126.923293, 37.489984 ], [ 126.922347, 37.489783 ], [ 126.921261, 37.489729 ], [ 126.920015, 37.489692 ], [ 126.919065, 37.48959 ] ] } },
{ "type": "Feature", "properties": { "name": "도림천", "waterway": "stream", "osm_id": 835202026, "origin": "OBSERVED" }, "geometry": { "type": "LineString", "coordinates": [ [ 126.893524, 37.498034 ], [ 126.893521, 37.498044 ], [ 126.89347, 37.498242 ], [ 126.893405, 37.498616 ], [ 126.893255, 37.499331 ], [ 126.893236, 37.49948 ], [ 126.893138, 37.499984 ], [ 126.893056, 37.500587 ], [ 126.893011, 37.500871 ], [ 126.892972, 37.50134 ], [ 126.892967, 37.50153 ], [ 126.892948, 37.501804 ], [ 126.892962, 37.502157 ], [ 126.893244, 37.502887 ], [ 126.893297, 37.503487 ], [ 126.89372, 37.505606 ], [ 126.893675, 37.506189 ], [ 126.893598, 37.506386 ], [ 126.893485, 37.506708 ], [ 126.893368, 37.507045 ], [ 126.893179, 37.507364 ], [ 126.893085, 37.5076 ], [ 126.892976, 37.508044 ], [ 126.892958, 37.50815 ], [ 126.892915, 37.508405 ], [ 126.892785, 37.508595 ], [ 126.891439, 37.510346 ], [ 126.890695, 37.511127 ], [ 126.889634, 37.512075 ], [ 126.888768, 37.512546 ], [ 126.887052, 37.513278 ], [ 126.885751, 37.513829 ], [ 126.884587, 37.514333 ], [ 126.88323, 37.514961 ], [ 126.881025, 37.516003 ], [ 126.879605, 37.516504 ] ] } },
{ "type": "Feature", "properties": { "name": "도림천", "waterway": "stream", "osm_id": 835202027, "origin": "OBSERVED" }, "geometry": { "type": "LineString", "coordinates": [ [ 126.893624, 37.497382 ], [ 126.893524, 37.498034 ] ] } },
{ "type": "Feature", "properties": { "name": "", "waterway": "drain", "osm_id": 838017601, "origin": "OBSERVED" }, "geometry": { "type": "LineString", "coordinates": [ [ 126.940961, 37.492898 ], [ 126.94101, 37.49292 ], [ 126.941069, 37.492945 ], [ 126.941095, 37.492978 ], [ 126.941118, 37.493002 ], [ 126.941164, 37.493013 ], [ 126.941185, 37.493028 ], [ 126.941236, 37.493096 ], [ 126.941248, 37.493137 ], [ 126.941253, 37.493177 ], [ 126.941246, 37.493201 ], [ 126.941225, 37.493263 ], [ 126.941207, 37.493333 ], [ 126.94116, 37.493433 ], [ 126.941145, 37.493524 ], [ 126.941142, 37.493599 ], [ 126.941145, 37.493634 ], [ 126.941178, 37.493691 ], [ 126.941436, 37.493986 ], [ 126.941489, 37.494107 ], [ 126.941517, 37.494262 ], [ 126.941499, 37.494359 ], [ 126.941449, 37.494445 ], [ 126.941442, 37.494465 ], [ 126.94147, 37.494571 ], [ 126.941521, 37.494634 ] ] } },
{ "type": "Feature", "properties": { "name": "", "waterway": "drain", "osm_id": 838017604, "origin": "OBSERVED" }, "geometry": { "type": "LineString", "coordinates": [ [ 126.940342, 37.494823 ], [ 126.940513, 37.494967 ], [ 126.940531, 37.495021 ], [ 126.940567, 37.495087 ], [ 126.94071, 37.495312 ], [ 126.94072, 37.495333 ], [ 126.940754, 37.495359 ], [ 126.940785, 37.495391 ], [ 126.940795, 37.495433 ], [ 126.940805, 37.495455 ], [ 126.940828, 37.495477 ], [ 126.940846, 37.495499 ], [ 126.94085, 37.495523 ], [ 126.940858, 37.495539 ], [ 126.940866, 37.495545 ] ] } },
{ "type": "Feature", "properties": { "name": "", "waterway": "drain", "osm_id": 838017610, "origin": "OBSERVED" }, "geometry": { "type": "LineString", "coordinates": [ [ 126.936589, 37.492817 ], [ 126.936516, 37.492823 ], [ 126.936467, 37.492818 ], [ 126.936248, 37.492739 ], [ 126.936199, 37.492709 ], [ 126.936138, 37.492689 ], [ 126.936063, 37.492681 ], [ 126.935992, 37.492701 ], [ 126.935802, 37.49278 ], [ 126.935508, 37.49293 ] ] } },
{ "type": "Feature", "properties": { "name": "도림천", "waterway": "stream", "osm_id": 877773354, "origin": "OBSERVED" }, "geometry": { "type": "LineString", "coordinates": [ [ 126.91436, 37.488168 ], [ 126.912228, 37.487014 ] ] } },
{ "type": "Feature", "properties": { "name": "도림천", "waterway": "stream", "osm_id": 877773355, "origin": "OBSERVED" }, "geometry": { "type": "LineString", "coordinates": [ [ 126.912228, 37.487014 ], [ 126.912179, 37.486988 ] ] } },
{ "type": "Feature", "properties": { "name": "도림천", "waterway": "stream", "osm_id": 877773356, "origin": "OBSERVED" }, "geometry": { "type": "LineString", "coordinates": [ [ 126.914425, 37.488209 ], [ 126.91436, 37.488168 ] ] } },
{ "type": "Feature", "properties": { "name": "도림천", "waterway": "stream", "osm_id": 877773357, "origin": "OBSERVED" }, "geometry": { "type": "LineString", "coordinates": [ [ 126.912179, 37.486988 ], [ 126.912108, 37.486949 ], [ 126.910998, 37.486491 ], [ 126.908884, 37.485817 ], [ 126.906924, 37.485262 ], [ 126.906347, 37.485098 ], [ 126.905806, 37.485004 ], [ 126.904871, 37.484968 ], [ 126.902997, 37.485072 ], [ 126.902078, 37.485172 ], [ 126.900745, 37.485627 ], [ 126.900147, 37.485952 ], [ 126.898927, 37.486665 ], [ 126.898131, 37.487175 ], [ 126.897691, 37.487588 ], [ 126.897175, 37.488159 ], [ 126.896895, 37.488488 ], [ 126.896533, 37.489391 ], [ 126.894423, 37.49503 ], [ 126.893797, 37.496833 ], [ 126.89363, 37.497364 ], [ 126.893624, 37.497382 ] ] } },
{ "type": "Feature", "properties": { "name": "", "waterway": "drain", "osm_id": 921471123, "origin": "OBSERVED" }, "geometry": { "type": "LineString", "coordinates": [ [ 126.914802, 37.509557 ], [ 126.914864, 37.509558 ] ] } },
{ "type": "Feature", "properties": { "name": "", "waterway": "stream", "osm_id": 921491332, "origin": "OBSERVED" }, "geometry": { "type": "LineString", "coordinates": [ [ 126.914864, 37.509558 ], [ 126.914864, 37.509515 ] ] } }
]
}
