{
"type": "FeatureCollection",
"name": "seoul_dorimcheon_aoi",
"crs": { "type": "name", "properties": { "name": "urn:ogc:def:crs:OGC:1.3:CRS84" } },
"xy_coordinate_resolution": 1e-06,
"features": [
{ "type": "Feature", "properties": { "name": "도림천 유역 분석 범위", "basis": "bbox around Sillim, Sindaebang, Daerim and the Dorimcheon channel" }, "geometry": { "type": "Polygon", "coordinates": [ [ [ 126.955, 37.465 ], [ 126.955, 37.51 ], [ 126.89, 37.51 ], [ 126.89, 37.465 ], [ 126.955, 37.465 ] ] ] } }
]
}
