{"type": "FeatureCollection", "features": [{"type": "Feature", "properties": {"facility_id": "osong-gungpyeong2-underpass", "facility_name": "궁평2지하차도", "facility_type": "underpass", "road_route": "지방도 508호선", "route_context": "청주-세종 연결 도로", "managing_agency": "충청북도도로관리사업소", "official_name_verified": true, "official_route_verified": true, "official_managing_agency_verified": true, "official_source": "https://www.chungbuk.go.kr/www/selectBbsNttView.do?bbsNo=65&key=429&nttNo=284501&pageIndex=42&searchCnd=CN&searchCtgry=&searchKrwd=%EB%8F%84%EB%A1%9C", "geometry_source": "OpenStreetMap Overpass attic snapshot", "geometry_snapshot": "2023-07-15T23:59:59Z", "osm_ids": [556705089, 988994037], "event_date": "2023-07-15", "origin": "DERIVED"}, "geometry": {"type": "MultiLineString", "coordinates": [[[127.3374417, 36.6249829], [127.3377291, 36.6242692]], [[127.3378636, 36.6243081], [127.3375927, 36.6250013]]]}}]}