{
"type": "FeatureCollection",
"name": "osong_wamis_national_rivers",
"crs": { "type": "name", "properties": { "name": "urn:ogc:def:crs:OGC:1.3:CRS84" } },
"features": [
{ "type": "Feature", "properties": { "ObjectID": 2113, "RIVCD_2": 3001810, "RIVNM_2": "미호천", "CLAS1": 3, "CLAS2": "국가", "source_dataset": "WAMIS river network", "river_scope": "national", "data_role": "official_river_polygon_context", "aoi_bbox": "127.27,36.58,127.4,36.68" }, "geometry": { "type": "Polygon", "coordinates": [ [ [ 127.30051294366875, 36.580020622501834 ], [ 127.300514131334026, 36.580087305220843 ], [ 127.300514890178349, 36.580191195945211 ], [ 127.300538169514141, 36.580258813528147 ], [ 127.300705375439378, 36.580868842386487 ], [ 127.300809919490177, 36.581250258188192 ], [ 127.301391107749055, 36.582503856375553 ], [ 127.30151218374786, 36.582500810821536 ], [ 127.301680284300673, 36.582527338823198 ], [ 127.301724845744644, 36.582536606497861 ], [ 127.301808018803584, 36.582566844255524 ], [ 127.301860124367977, 36.582590566529504 ], [ 127.301925523895775, 36.582627950638951 ], [ 127.302014349743686, 36.582692842474636 ], [ 127.302091882643083, 36.58275283294509 ], [ 127.302153078093923, 36.582788985705612 ], [ 127.302394751570034, 36.582940269626704 ], [ 127.30251938584108, 36.58300979106756 ], [ 127.302588350326857, 36.583041643675358 ], [ 127.302684330991411, 36.583069749236756 ], [ 127.302862370324419, 36.583114859413975 ], [ 127.303042346282723, 36.583137831568621 ], [ 127.303193320932579, 36.583168086610002 ], [ 127.303262960090237, 36.583197655528096 ], [ 127.303287223444357, 36.583204757958832 ], [ 127.303376860896449, 36.583216560500908 ], [ 127.303645191712391, 36.583254788474719 ], [ 127.303802277553174, 36.583275934992344 ], [ 127.304056530530261, 36.583314304745514 ], [ 127.304323636681104, 36.583362357383876 ], [ 127.304578437703967, 36.58340614136106 ], [ 127.304934527571291, 36.583458831577204 ], [ 127.305107007330292, 36.583478827806459 ], [ 127.305272140657365, 36.583489093564459 ], [ 127.305425219065967, 36.583494134128792 ], [ 127.305587393823814, 36.583502072344636 ], [ 127.305706375891305, 36.583517078060574 ], [ 127.30585736545855, 36.583536731663017 ], [ 127.306027199606248, 36.583571521353797 ], [ 127.306199262191186, 36.583616416687576 ], [ 127.306376312895154, 36.583667515015755 ], [ 127.306575880817249, 36.583727821529479 ], [ 127.3068240686206, 36.583796877182976 ], [ 127.306876330348729, 36.583811809647798 ], [ 127.306895911382838, 36.583815867490046 ], [ 127.306912200195171, 36.583817763597054 ], [ 127.306937266055073, 36.583818833715242 ], [ 127.306947870490902, 36.583818564211448 ], [ 127.306958767505989, 36.583816616578758 ], [ 127.306982227991512, 36.583809671513883 ], [ 127.306994322185474, 36.583808180174827 ], [ 127.307003810120278, 36.583808273066168 ], [ 127.30700389950168, 36.58380829124097 ], [ 127.307616747632494, 36.583838647519087 ], [ 127.307667850631972, 36.583836793552216 ], [ 127.307714096273287, 36.583836440846994 ], [ 127.307788750657267, 36.583839644395049 ], [ 127.308177040500681, 36.584016157045539 ], [ 127.308399669225778, 36.584123601232839 ], [ 127.308624630507254, 36.584229182633415 ], [ 127.308646995733241, 36.584236630709441 ], [ 127.308663201935147, 36.584240347484005 ], [ 127.308814005727072, 36.584257339407863 ], [ 127.309191218483548, 36.584300914938055 ], [ 127.309647496261277, 36.584351888899036 ], [ 127.310088331583017, 36.584396962307572 ], [ 127.310388792889896, 36.584429395356985 ], [ 127.310708145236845, 36.584463051241791 ], [ 127.310943019949818, 36.584482155454708 ], [ 127.311332181917138, 36.584523222555276 ], [ 127.311802339461252, 36.58457138492151 ], [ 127.312318779387908, 36.584621992877018 ], [ 127.312772357558586, 36.584667671417144 ], [ 127.313195463030425, 36.584709950489398 ], [ 127.313553390259429, 36.584746361909744 ], [ 127.313889328228711, 36.584780622995446 ], [ 127.314118044596185, 36.584807505747499 ], [ 127.314455521998894, 36.584840516349935 ], [ 127.314894830024585, 36.584885261294296 ], [ 127.314905623995443, 36.584885251010412 ], [ 127.314910253345857, 36.584880894916168 ], [ 127.314919440839788, 36.584826153591237 ], [ 127.314923292181476, 36.584822726641256 ], [ 127.315012390121439, 36.584832612013614 ], [ 127.315017407073071, 36.584835401842717 ], [ 127.315010145348253, 36.584893570078563 ], [ 127.31502133731793, 36.584898226589999 ], [ 127.315321794463117, 36.584928467362772 ], [ 127.315417834414646, 36.584936477239431 ], [ 127.315633045827212, 36.584958697029023 ], [ 127.315886057959673, 36.584983060903667 ], [ 127.316924055517717, 36.585081522711754 ], [ 127.31707939096286, 36.585099086300737 ], [ 127.318034330049173, 36.585210185276409 ], [ 127.318730098211617, 36.585309381363956 ], [ 127.319517717016396, 36.58547331612386 ], [ 127.319713654124072, 36.585514081176058 ], [ 127.319742950926738, 36.585524664072047 ], [ 127.320482260793511, 36.585740456878568 ], [ 127.32064265411114, 36.58578667866751 ], [ 127.320765782560301, 36.585832900106581 ], [ 127.320771983637997, 36.585838091279086 ], [ 127.320806611377293, 36.585851272853048 ], [ 127.321353797745047, 36.586042704708547 ], [ 127.321904739873929, 36.586263656723069 ], [ 127.322106898167775, 36.586346168598411 ], [ 127.322561797227266, 36.586538674166363 ], [ 127.322901521719274, 36.586714494974593 ], [ 127.323269517431868, 36.586919390584306 ], [ 127.323361581967205, 36.586970164554977 ], [ 127.323536115752475, 36.587064733054021 ], [ 127.323654976557393, 36.587134041729357 ], [ 127.323823410866439, 36.587236936092154 ], [ 127.324040980519754, 36.587374561997841 ], [ 127.324246418909397, 36.587507579157233 ], [ 127.324421519974521, 36.587625142764402 ], [ 127.324652555456481, 36.58778361032973 ], [ 127.32482080784898, 36.587908853103436 ], [ 127.325000015160199, 36.588045427404033 ], [ 127.325243942190511, 36.588231767421043 ], [ 127.325490266265632, 36.588435392280871 ], [ 127.325742050722269, 36.588659241743414 ], [ 127.325981121953944, 36.588890884543126 ], [ 127.326186143680033, 36.589096333587847 ], [ 127.326289674811875, 36.589199411049336 ], [ 127.326387640826312, 36.589286705793988 ], [ 127.326562881234281, 36.589493127694993 ], [ 127.326579259441644, 36.589510781340032 ], [ 127.32676528539875, 36.589712712911115 ], [ 127.32732283478974, 36.590334528415113 ], [ 127.327658943841001, 36.590708740554781 ], [ 127.328011132598689, 36.5910897740726 ], [ 127.328357770876522, 36.591470803945768 ], [ 127.328648831097397, 36.591791826340256 ], [ 127.328930239318481, 36.592097546456031 ], [ 127.329229504467165, 36.592428212648912 ], [ 127.329542515471672, 36.592769465160146 ], [ 127.330074052298912, 36.593350067669547 ], [ 127.330322991389849, 36.593620485740537 ], [ 127.330575748673724, 36.593892073451343 ], [ 127.33070124651104, 36.594028095734188 ], [ 127.330806528014747, 36.594121747370529 ], [ 127.330896011217277, 36.594190444519228 ], [ 127.330994823535661, 36.594255837295968 ], [ 127.331123752037811, 36.594336742464257 ], [ 127.331546894250096, 36.59460810781183 ], [ 127.331464052862984, 36.594655692853138 ], [ 127.331497761292894, 36.594693266493977 ], [ 127.331526589497869, 36.59467900218992 ], [ 127.331658395745237, 36.594826349840773 ], [ 127.33176612905865, 36.594905044535295 ], [ 127.331967638892664, 36.595060551448398 ], [ 127.332058691362732, 36.595153107312868 ], [ 127.332748226314607, 36.595863219234047 ], [ 127.333213395786743, 36.596346236608227 ], [ 127.333325407939995, 36.596465541370918 ], [ 127.333686859927937, 36.596838691628669 ], [ 127.334185229257031, 36.597346501331671 ], [ 127.334639628326386, 36.597787226579968 ], [ 127.335249951222551, 36.598334719745075 ], [ 127.335781778562819, 36.598780502244104 ], [ 127.336709178987888, 36.599548360353992 ], [ 127.337238859964216, 36.599988104088354 ], [ 127.33725402584804, 36.600000677322036 ], [ 127.337332114427994, 36.600065392822067 ], [ 127.337539126268965, 36.600236356685315 ], [ 127.337737471956942, 36.600400801340733 ], [ 127.337937038787828, 36.600565550227842 ], [ 127.338184720660095, 36.600771541145662 ], [ 127.338300037569539, 36.600866634894238 ], [ 127.338536983168126, 36.601063032941724 ], [ 127.338940763712316, 36.601405840128159 ], [ 127.33898133538662, 36.60144421241116 ], [ 127.339186170475656, 36.60163962820301 ], [ 127.339249055510479, 36.601702554972469 ], [ 127.339371867999631, 36.601829203155198 ], [ 127.339496081032522, 36.601966507050882 ], [ 127.339623213762763, 36.602111958916026 ], [ 127.339778825155733, 36.602305980410392 ], [ 127.339881843454947, 36.602441831025473 ], [ 127.339984152818133, 36.602582215153681 ], [ 127.340034471089382, 36.602656297846622 ], [ 127.3401327500778, 36.602804885512967 ], [ 127.340230974546031, 36.602963827677023 ], [ 127.340322275306363, 36.603120968293538 ], [ 127.340413461349101, 36.60328838400514 ], [ 127.34067937628393, 36.604145047842763 ], [ 127.340766118737349, 36.604424467146401 ], [ 127.34071584326405, 36.604654968124215 ], [ 127.340696743012245, 36.604782344662105 ], [ 127.340756919765525, 36.60516594025291 ], [ 127.340781254964213, 36.605547872418903 ], [ 127.340792721779152, 36.605954189216853 ], [ 127.340779435558076, 36.606229623541083 ], [ 127.340751838890824, 36.606353907368998 ], [ 127.340748234700868, 36.606365506683552 ], [ 127.340734509016215, 36.606612014811851 ], [ 127.340703284138343, 36.60688452769557 ], [ 127.340676985226622, 36.607032227027986 ], [ 127.340599949938067, 36.607342051263267 ], [ 127.340488333899302, 36.607708043182434 ], [ 127.340404701980688, 36.607976694062891 ], [ 127.340352168105454, 36.608144609488342 ], [ 127.340293107839415, 36.608343100478166 ], [ 127.340289912272738, 36.608356012908537 ], [ 127.340275284422944, 36.608527235306354 ], [ 127.340210309381106, 36.608847765375565 ], [ 127.340127320770705, 36.609115720911028 ], [ 127.340082651241531, 36.609293238708069 ], [ 127.340057598524126, 36.609490614038016 ], [ 127.340037015182119, 36.609797888357058 ], [ 127.340040817739663, 36.610083465606955 ], [ 127.340064947828623, 36.610344942349123 ], [ 127.340106126913881, 36.610635450454389 ], [ 127.340159613365699, 36.610882668731605 ], [ 127.340224436038469, 36.611117221660898 ], [ 127.340313790720685, 36.611369193770045 ], [ 127.340339128066134, 36.611429723845461 ], [ 127.340379708368161, 36.611552513960767 ], [ 127.340381465765418, 36.611563592155683 ], [ 127.340420448781813, 36.611656271786046 ], [ 127.34065304536044, 36.612158890332587 ], [ 127.340777306236049, 36.612445232466655 ], [ 127.340858021678329, 36.612622452745228 ], [ 127.34086410495901, 36.612640954256804 ], [ 127.341007159547843, 36.612899558607594 ], [ 127.341105838560907, 36.61305441660496 ], [ 127.341260783784435, 36.613273868085876 ], [ 127.341459291989636, 36.613549479514262 ], [ 127.341681820614383, 36.613872799278766 ], [ 127.341901256772971, 36.614175881229997 ], [ 127.34212158717267, 36.614486572613011 ], [ 127.342334164300141, 36.614790005252139 ], [ 127.342550350222965, 36.615080460659989 ], [ 127.342809129421283, 36.615454409326418 ], [ 127.343060540276397, 36.615806911830447 ], [ 127.34324683501471, 36.616083061218887 ], [ 127.343507093383622, 36.616448875121151 ], [ 127.343743785388298, 36.616765581665774 ], [ 127.343933028222509, 36.617025102932345 ], [ 127.344062173884765, 36.617185825581977 ], [ 127.344079254454087, 36.617206106444641 ], [ 127.344083996416927, 36.617211509029339 ], [ 127.344152811162246, 36.617266918705802 ], [ 127.34417577697306, 36.617300230322591 ], [ 127.344196557412531, 36.617320301449261 ], [ 127.344214455821714, 36.617313202998965 ], [ 127.344228728920655, 36.61731041438663 ], [ 127.344291751725379, 36.617379908660801 ], [ 127.344282862258865, 36.617397126515222 ], [ 127.344263469559593, 36.617405438244901 ], [ 127.344268831416358, 36.617411793616384 ], [ 127.34458432999196, 36.61775685442597 ], [ 127.345138610538896, 36.618370130919146 ], [ 127.345702407040108, 36.619009699431132 ], [ 127.346247037027595, 36.619605625925537 ], [ 127.346833306983569, 36.620257171855741 ], [ 127.347204381718598, 36.620675010174693 ], [ 127.347406956705569, 36.620901515530285 ], [ 127.347499532171938, 36.620996215783606 ], [ 127.347561611420232, 36.621095808156312 ], [ 127.347957442355877, 36.621513239422264 ], [ 127.348364759069895, 36.62197054647045 ], [ 127.348576120079031, 36.622205105958002 ], [ 127.348646987302544, 36.622260301052009 ], [ 127.348806485946469, 36.622337790894761 ], [ 127.349065883178142, 36.622471949151951 ], [ 127.349092820916496, 36.622485639184468 ], [ 127.349119800514742, 36.6225065484713 ], [ 127.349218954252493, 36.622594180729614 ], [ 127.349303919962239, 36.622706097582153 ], [ 127.349318291045549, 36.62272463616015 ], [ 127.349329909420774, 36.622745075222312 ], [ 127.349589888473673, 36.623305106764953 ], [ 127.349611720983631, 36.62338620795785 ], [ 127.349637750852182, 36.623490951753666 ], [ 127.349669184026169, 36.623601924507206 ], [ 127.349700366633712, 36.623716421796502 ], [ 127.349734529898839, 36.623841867035139 ], [ 127.349767802661248, 36.623966342928519 ], [ 127.349811009302769, 36.624128861976715 ], [ 127.349832568953559, 36.624224020752578 ], [ 127.34983492208768, 36.624242479209208 ], [ 127.349834932010992, 36.624250048208737 ], [ 127.349909695346312, 36.624347286154439 ], [ 127.35000004453488, 36.624437926670133 ], [ 127.350065830737293, 36.624999996796475 ], [ 127.350075491230626, 36.626832027841907 ], [ 127.350067652006743, 36.626985036575455 ], [ 127.351419131112294, 36.630065846497715 ], [ 127.351462471831283, 36.630099115341693 ], [ 127.351580288064881, 36.630221627936493 ], [ 127.35166318589269, 36.630306288106546 ], [ 127.351782002681531, 36.6304369891511 ], [ 127.351840302171965, 36.630486883864648 ], [ 127.351863118885404, 36.63050368551206 ], [ 127.351918259440126, 36.630554942930679 ], [ 127.351973786091762, 36.630619579036818 ], [ 127.352068416219595, 36.630749620491912 ], [ 127.352186284981073, 36.630910071191067 ], [ 127.352303035245697, 36.631084834371094 ], [ 127.3524135434334, 36.631241493026423 ], [ 127.352511388044036, 36.631379438828951 ], [ 127.35259621820687, 36.631507814370728 ], [ 127.352695951967945, 36.631647889888896 ], [ 127.352813644110128, 36.631813213226003 ], [ 127.352915646562437, 36.631960598899624 ], [ 127.352964527913159, 36.632031562054806 ], [ 127.353350459359788, 36.632597915210781 ], [ 127.353781485100782, 36.633178445285239 ], [ 127.354174273526539, 36.633760363942066 ], [ 127.354543258596593, 36.634277751836642 ], [ 127.354875406659573, 36.634753769031143 ], [ 127.355191187134352, 36.635199997922783 ], [ 127.355515333850221, 36.635643784020786 ], [ 127.355865370238575, 36.636116617931627 ], [ 127.356208761106032, 36.636575465944823 ], [ 127.356579900118305, 36.637049731297189 ], [ 127.356961962888306, 36.637520716307961 ], [ 127.357339510718973, 36.637973702573731 ], [ 127.357486670549932, 36.638150260227661 ], [ 127.357698769748168, 36.638398310078891 ], [ 127.357852230409122, 36.638577786631743 ], [ 127.358162798372248, 36.638924528187005 ], [ 127.358226219607346, 36.638987118890789 ], [ 127.358288401266321, 36.639057167072146 ], [ 127.358644291459839, 36.639461379395954 ], [ 127.359171343148233, 36.640038408107458 ], [ 127.359750908288319, 36.640641104190273 ], [ 127.360292626968246, 36.641209063430395 ], [ 127.360703324239637, 36.641592801249253 ], [ 127.361200898182545, 36.642074570262338 ], [ 127.361709433638794, 36.642558178124098 ], [ 127.362009118533678, 36.642847298404583 ], [ 127.362427252567059, 36.643220743715574 ], [ 127.362830659760974, 36.643595376785264 ], [ 127.363234558204368, 36.643931008498477 ], [ 127.363721748552067, 36.644355161909694 ], [ 127.364093596593634, 36.644662996936617 ], [ 127.36456972201232, 36.645062254720806 ], [ 127.364972230705504, 36.645396505013757 ], [ 127.365287034439135, 36.645649902368532 ], [ 127.365657116554189, 36.645943328161451 ], [ 127.36601386143046, 36.64622526896008 ], [ 127.366276945361705, 36.646434991110645 ], [ 127.366538625906742, 36.646649710798478 ], [ 127.366847706590931, 36.646894488286861 ], [ 127.367110337597012, 36.647111310055877 ], [ 127.367378471002951, 36.647344427395595 ], [ 127.367443509215875, 36.647379261465879 ], [ 127.367464731439625, 36.647404364694069 ], [ 127.367510254712016, 36.647441522706202 ], [ 127.367711394086854, 36.64760183387569 ], [ 127.367969964665718, 36.647810602467302 ], [ 127.368245004424807, 36.648039297340937 ], [ 127.368559352290546, 36.648295761354284 ], [ 127.368865609738748, 36.648550508190077 ], [ 127.369163266364339, 36.648783781974316 ], [ 127.369429737887202, 36.649010373200319 ], [ 127.369758623665547, 36.64926988798851 ], [ 127.37013874989475, 36.64957058576109 ], [ 127.370502940489857, 36.649872819163662 ], [ 127.370664949217527, 36.650000374686428 ], [ 127.370774153834063, 36.650086362453692 ], [ 127.371032511454928, 36.650298585836687 ], [ 127.371327809179007, 36.650536077811999 ], [ 127.371755744897413, 36.650892274788944 ], [ 127.372093197348448, 36.651164741364923 ], [ 127.372355410458809, 36.651374515722154 ], [ 127.37253868048748, 36.651526558033005 ], [ 127.37260159657275, 36.651579041880495 ], [ 127.372652864849144, 36.651614494814766 ], [ 127.372700264336444, 36.651643137303125 ], [ 127.37274783090038, 36.651666814515053 ], [ 127.372820058215552, 36.651693325296399 ], [ 127.372932807682702, 36.651734288767152 ], [ 127.373131520441476, 36.65180656790772 ], [ 127.37328549737812, 36.65186468532653 ], [ 127.373705553992792, 36.652031067853983 ], [ 127.373750258225499, 36.652059431207853 ], [ 127.373784002457285, 36.65209469379456 ], [ 127.373865946048866, 36.652358747399887 ], [ 127.373862301110051, 36.652381953434855 ], [ 127.373874758229192, 36.65246968571067 ], [ 127.37395101574046, 36.652656033356166 ], [ 127.373966583332603, 36.652679243495264 ], [ 127.374012841158759, 36.652721226376954 ], [ 127.374225505630164, 36.652886554536693 ], [ 127.374921996602723, 36.653446669208776 ], [ 127.375000037690867, 36.653509105737264 ], [ 127.375246469368747, 36.65369479259229 ], [ 127.375649054509935, 36.654028355604567 ], [ 127.37605604738188, 36.654365823496782 ], [ 127.37671380756133, 36.654902080592649 ], [ 127.377408989522181, 36.655466609153812 ], [ 127.378064347445417, 36.655997025368372 ], [ 127.378569260252888, 36.656410562745123 ], [ 127.379065584909995, 36.656814392762698 ], [ 127.379309552851907, 36.657015902473795 ], [ 127.379470939773668, 36.657133462111382 ], [ 127.379693899897177, 36.657331612433907 ], [ 127.380440508437417, 36.65797095219574 ], [ 127.381078382187155, 36.658540336336465 ], [ 127.381462347231206, 36.658895909624889 ], [ 127.3815155004513, 36.658939650725422 ], [ 127.381587292330735, 36.659018702029513 ], [ 127.381677033718191, 36.6591038507988 ], [ 127.381949964297732, 36.659342134115775 ], [ 127.381977856352435, 36.659357130166086 ], [ 127.382089889136992, 36.659430986954092 ], [ 127.382091883668195, 36.659445264990346 ], [ 127.382121785148811, 36.65950738229327 ], [ 127.382188477427121, 36.659592747655388 ], [ 127.382348792490703, 36.65975195853148 ], [ 127.382720812419549, 36.660107539339378 ], [ 127.383065210955763, 36.660442660391752 ], [ 127.383187084370945, 36.660569652642685 ], [ 127.383283189131959, 36.660669800071346 ], [ 127.383386800091017, 36.660795129891312 ], [ 127.383665285366234, 36.661052621887272 ], [ 127.38398532775858, 36.661376024064715 ], [ 127.384374847466844, 36.661799216083331 ], [ 127.384680218121161, 36.6621355854275 ], [ 127.38494744812192, 36.6624538025197 ], [ 127.385247539521259, 36.662798064164306 ], [ 127.385538881994691, 36.663141604447468 ], [ 127.385791934374694, 36.663457043794367 ], [ 127.385833714893735, 36.663511689120391 ], [ 127.38587887068384, 36.663558518110015 ], [ 127.386096957825444, 36.66381743569557 ], [ 127.386112855487369, 36.663836308340066 ], [ 127.38612658370576, 36.663852717830864 ], [ 127.386462586299658, 36.664254260916067 ], [ 127.386484499369658, 36.664276519844449 ], [ 127.386572769373373, 36.664400696320683 ], [ 127.38657758035886, 36.664405754674689 ], [ 127.386600631232483, 36.66443202811363 ], [ 127.386767186523628, 36.664640485652718 ], [ 127.387054774664492, 36.664991134951329 ], [ 127.387224146671997, 36.665223383111275 ], [ 127.387527494432959, 36.665637338199971 ], [ 127.387902846168856, 36.666160455384805 ], [ 127.388281703967422, 36.666672277121386 ], [ 127.38838560996389, 36.666826093544003 ], [ 127.388435240501082, 36.666899554037798 ], [ 127.388454837699385, 36.666928560805722 ], [ 127.388835339547555, 36.667432184082863 ], [ 127.389214434860492, 36.667950895789119 ], [ 127.389609740292514, 36.668490784720042 ], [ 127.389782977551661, 36.668721211683042 ], [ 127.389812971775726, 36.668791051042099 ], [ 127.389819631362272, 36.668807502235438 ], [ 127.390021295002597, 36.669073556888542 ], [ 127.390358677337744, 36.669531404383903 ], [ 127.390773396444231, 36.670093833689997 ], [ 127.39117496362222, 36.670651285868125 ], [ 127.391528615770454, 36.671158476275643 ], [ 127.39156604131388, 36.671199436312691 ], [ 127.391634024720858, 36.67140338874205 ], [ 127.391682193443017, 36.671471753068296 ], [ 127.391869580860273, 36.67172400948121 ], [ 127.392198648457807, 36.672176932696814 ], [ 127.392385061650046, 36.672412764002615 ], [ 127.392461605158644, 36.672510482789818 ], [ 127.392583588989112, 36.672590858143117 ], [ 127.392769401661894, 36.672785185390801 ], [ 127.392887280474014, 36.67295982217032 ], [ 127.392890770633144, 36.672964136245156 ], [ 127.392903207201826, 36.673157306559347 ], [ 127.392901087109777, 36.67317379474796 ], [ 127.393154609979675, 36.673522999102815 ], [ 127.393443669588478, 36.673926019521623 ], [ 127.393714247067166, 36.674290992377585 ], [ 127.39396196125044, 36.674622931606706 ], [ 127.394226050097757, 36.674953707499945 ], [ 127.394268059472296, 36.675000481752249 ], [ 127.394456265321082, 36.67521002740741 ], [ 127.394716731679949, 36.675477122996774 ], [ 127.394988853677717, 36.6757302209042 ], [ 127.395238011639876, 36.675955640213097 ], [ 127.395336531716126, 36.676033377736509 ], [ 127.39538897648751, 36.676072609861642 ], [ 127.395446677490312, 36.676118041629692 ], [ 127.395610641407998, 36.676247971433781 ], [ 127.395841904151197, 36.676442494076902 ], [ 127.396123179325599, 36.67665549540537 ], [ 127.396461988120876, 36.676928967674932 ], [ 127.396939932798546, 36.677288943993325 ], [ 127.397309392119681, 36.677541107452065 ], [ 127.397344662625713, 36.677564401752555 ], [ 127.397394852285132, 36.677597556791561 ], [ 127.397619395749516, 36.677745881334928 ], [ 127.397931364335307, 36.677938608556531 ], [ 127.398381894754962, 36.678201753381998 ], [ 127.398760185539288, 36.678422524502082 ], [ 127.399158463505302, 36.678646343957688 ], [ 127.399453743030818, 36.678615616586256 ], [ 127.399678743152876, 36.678772694698949 ], [ 127.399973660157471, 36.678937475777595 ], [ 127.399999947140998, 36.678952083985081 ], [ 127.400000001573162, 36.678952114235713 ], [ 127.400000006274482, 36.675677331577091 ], [ 127.399999952758478, 36.67567729667563 ], [ 127.399762380632438, 36.675505456499153 ], [ 127.39973128354805, 36.675477951044634 ], [ 127.399697662275088, 36.67543618005103 ], [ 127.399612498326846, 36.675341783390074 ], [ 127.399547821872048, 36.675161280818976 ], [ 127.399512755770729, 36.675000069882579 ], [ 127.399425023440614, 36.674936256733822 ], [ 127.399179447231589, 36.674741355661972 ], [ 127.39854386313894, 36.674221102119759 ], [ 127.398295626134768, 36.673995210851395 ], [ 127.398044148295838, 36.673763498053248 ], [ 127.397835412748833, 36.67356983190696 ], [ 127.397629197357219, 36.673363530437882 ], [ 127.397410040070056, 36.673131330206481 ], [ 127.39726415970388, 36.672973210722787 ], [ 127.397064745551745, 36.672751341746924 ], [ 127.396835468317974, 36.672490527337786 ], [ 127.396681068304673, 36.672304770806363 ], [ 127.396544502206012, 36.672119738136026 ], [ 127.396288331072043, 36.671772882481548 ], [ 127.39604655798837, 36.671447919851396 ], [ 127.395867487904624, 36.671205815447131 ], [ 127.395719726922394, 36.670991747556648 ], [ 127.395513177375719, 36.670702488505889 ], [ 127.395247604041785, 36.67034408137868 ], [ 127.395060038800523, 36.670085250966459 ], [ 127.394855809676201, 36.669806561880222 ], [ 127.394680101100036, 36.669566831325724 ], [ 127.39453263811977, 36.669363782019296 ], [ 127.394429982163018, 36.669218969019937 ], [ 127.394224670995442, 36.668936181471423 ], [ 127.39386385754743, 36.668447442447004 ], [ 127.39373228141676, 36.668255090765577 ], [ 127.393540571512901, 36.667995271551113 ], [ 127.393487662184953, 36.667922634226549 ], [ 127.393482794571554, 36.667915955219129 ], [ 127.393350515625073, 36.667734716077469 ], [ 127.393152038539583, 36.66746323204849 ], [ 127.392930459771875, 36.667162230057066 ], [ 127.39267993437457, 36.666804046893539 ], [ 127.392392337166541, 36.666420663609934 ], [ 127.392073292335411, 36.665980630126832 ], [ 127.391717114024118, 36.665480939037707 ], [ 127.391364365081003, 36.66498399952782 ], [ 127.390932069391596, 36.664396182282715 ], [ 127.390567014677231, 36.663894595381485 ], [ 127.390185379994875, 36.663384510784617 ], [ 127.38991701100079, 36.663025226960599 ], [ 127.389834961804794, 36.662966398950005 ], [ 127.389817502247169, 36.662953156083816 ], [ 127.389663792231829, 36.662795169449673 ], [ 127.389660655845404, 36.662778634951977 ], [ 127.389639476739788, 36.662682409719913 ], [ 127.38963496957372, 36.66267139469884 ], [ 127.389268009185287, 36.66222124656381 ], [ 127.389027664126829, 36.661934318984223 ], [ 127.388720309658339, 36.661567401869789 ], [ 127.388229722373978, 36.661010500775646 ], [ 127.388105553489083, 36.660858325590624 ], [ 127.388015730786279, 36.66073186613486 ], [ 127.387950372766042, 36.660624068917414 ], [ 127.387917550110387, 36.660531144481411 ], [ 127.387911604007158, 36.66049875902192 ], [ 127.38790972932533, 36.660475147127954 ], [ 127.387911158086595, 36.660449766005321 ], [ 127.386957786631825, 36.658430852152428 ], [ 127.386791019706735, 36.658326782113214 ], [ 127.386508398333959, 36.658125694463088 ], [ 127.385929760977675, 36.657725909494317 ], [ 127.385583559420084, 36.657488412271242 ], [ 127.385444543797533, 36.657395740242386 ], [ 127.385287182243246, 36.65730665816421 ], [ 127.385173997455908, 36.657259626315117 ], [ 127.385044694685675, 36.657201605812183 ], [ 127.384909681788159, 36.657141738799375 ], [ 127.384908333298981, 36.657129109360689 ], [ 127.384904706441816, 36.657115179568294 ], [ 127.384897319600924, 36.657103092403254 ], [ 127.384831744223419, 36.657057554025393 ], [ 127.384679947750996, 36.656965094114057 ], [ 127.384631458533121, 36.656892249668132 ], [ 127.384628911345118, 36.656888149006576 ], [ 127.38431711334475, 36.656663278878924 ], [ 127.38365367634934, 36.656136787258937 ], [ 127.382971048673483, 36.65558212297536 ], [ 127.382231034463274, 36.654983969398295 ], [ 127.381645923255391, 36.654511734547469 ], [ 127.380913972958311, 36.653918638095867 ], [ 127.380317338968524, 36.65343140227877 ], [ 127.37966748747364, 36.65290672108123 ], [ 127.378974594047321, 36.65233810778841 ], [ 127.378215605397855, 36.651730535961441 ], [ 127.377359131172312, 36.651038453707173 ], [ 127.376886182548787, 36.650657935030068 ], [ 127.376077393567229, 36.650000108091582 ], [ 127.376062865991216, 36.649988294203709 ], [ 127.375646590984417, 36.64965996659668 ], [ 127.375401030531663, 36.649443639528478 ], [ 127.375079000240447, 36.649168016135029 ], [ 127.375000054139292, 36.649104734866754 ], [ 127.374271068667781, 36.648544091963188 ], [ 127.37424317669111, 36.648511720459304 ], [ 127.374175236862484, 36.648453496830648 ], [ 127.373608251735618, 36.648001898082072 ], [ 127.373062214897757, 36.647556613174864 ], [ 127.372543845845541, 36.647140246485286 ], [ 127.372290976170589, 36.646930902519799 ], [ 127.371970633402782, 36.646657192621099 ], [ 127.371674634399184, 36.646419894260355 ], [ 127.371243027543414, 36.646071701669634 ], [ 127.370845982398023, 36.645747440031144 ], [ 127.370363789630645, 36.6453566693977 ], [ 127.370156851051291, 36.645192405969311 ], [ 127.369913267644648, 36.644995462594011 ], [ 127.369616237643513, 36.644757440346623 ], [ 127.369305867479156, 36.644507645401113 ], [ 127.369009740077047, 36.644275251558753 ], [ 127.368730312757052, 36.644050455157675 ], [ 127.368405172290693, 36.643778419677723 ], [ 127.368144623687769, 36.643565133213762 ], [ 127.367732176415601, 36.64323241143677 ], [ 127.367369004568744, 36.64293989934837 ], [ 127.36729574792848, 36.642873665950674 ], [ 127.367252207391957, 36.642839187484697 ], [ 127.367186258916448, 36.642779052672836 ], [ 127.366718162978003, 36.64239590048264 ], [ 127.366219318079487, 36.641988879940534 ], [ 127.365699500354694, 36.641543658864691 ], [ 127.365318925301722, 36.641192727285393 ], [ 127.36483289709831, 36.640761557046019 ], [ 127.364408647970151, 36.64035488569359 ], [ 127.36395536815445, 36.639932722591716 ], [ 127.363597210652017, 36.639580599417542 ], [ 127.36325269901134, 36.63924254515198 ], [ 127.362864335768322, 36.63884256244615 ], [ 127.362464101434114, 36.638426107014915 ], [ 127.36210256690994, 36.638070978795646 ], [ 127.36178007083582, 36.637737116005077 ], [ 127.361376877601884, 36.637319088422544 ], [ 127.361242838386119, 36.637171231060897 ], [ 127.361073860884332, 36.636993678954269 ], [ 127.361065938839033, 36.636985017144319 ], [ 127.361064717657968, 36.63697984833729 ], [ 127.361064920533138, 36.63697525995228 ], [ 127.361068970411239, 36.636971220557903 ], [ 127.361167487883861, 36.636930064853402 ], [ 127.361180787816934, 36.6369214638394 ], [ 127.361153669309033, 36.636877354424634 ], [ 127.361148256867097, 36.636875225991808 ], [ 127.36106535834567, 36.636915830150016 ], [ 127.361023341160788, 36.636925968063444 ], [ 127.361018501369145, 36.636926371697399 ], [ 127.36101262613812, 36.636925315500427 ], [ 127.361007575210692, 36.636921204188738 ], [ 127.360942356911309, 36.636849915199015 ], [ 127.36077988718931, 36.636700612373751 ], [ 127.360642502690951, 36.636564298596191 ], [ 127.360558061017571, 36.636487958352141 ], [ 127.360480651922884, 36.636398691597975 ], [ 127.360478213172939, 36.636396330424631 ], [ 127.360374922187674, 36.636295959292646 ], [ 127.360216221071511, 36.636148481128487 ], [ 127.360023635800829, 36.635956762520969 ], [ 127.359887032907906, 36.63581527418021 ], [ 127.35980540563088, 36.635729894684061 ], [ 127.359698895121539, 36.635593612520019 ], [ 127.359567565638727, 36.635421749546893 ], [ 127.359565755610305, 36.635419376474673 ], [ 127.359436326265808, 36.635244937308983 ], [ 127.359360578913069, 36.635140084877413 ], [ 127.35915358680397, 36.634835162993184 ], [ 127.359015482725724, 36.634631814689222 ], [ 127.358877186678839, 36.634427404027221 ], [ 127.358762415528872, 36.634256866920651 ], [ 127.358671139167441, 36.634130397541256 ], [ 127.358593979421229, 36.634022232629356 ], [ 127.358485369535529, 36.633875467843339 ], [ 127.358336075644814, 36.633683678859896 ], [ 127.358240606709586, 36.633569080487298 ], [ 127.358092201050624, 36.633394967013807 ], [ 127.357946426031361, 36.633226191552168 ], [ 127.35773187473248, 36.63299161279928 ], [ 127.35758869787675, 36.632840201040118 ], [ 127.357511610060058, 36.632768603856121 ], [ 127.357473330006869, 36.632740187927638 ], [ 127.357433907358654, 36.632716344820274 ], [ 127.357199082414013, 36.632582275886257 ], [ 127.357035058134485, 36.632477939932059 ], [ 127.356957055631099, 36.632418769339772 ], [ 127.356867198430024, 36.632349029715918 ], [ 127.356744733244255, 36.632295356984542 ], [ 127.356641982488568, 36.632254301777493 ], [ 127.356593245821585, 36.632227710235007 ], [ 127.356538142337797, 36.632192759528401 ], [ 127.356471788115485, 36.63212556127894 ], [ 127.356342893689302, 36.631998671533005 ], [ 127.356296667778523, 36.631944093183414 ], [ 127.356272483573647, 36.631902802444202 ], [ 127.356258676459433, 36.631861852365134 ], [ 127.356253321525514, 36.631815773942954 ], [ 127.35624885149069, 36.631789493486174 ], [ 127.356238669412775, 36.631770897718766 ], [ 127.356230173164434, 36.63175640580112 ], [ 127.356145851919777, 36.631633671429562 ], [ 127.356115838636271, 36.631576474797384 ], [ 127.355870938872314, 36.631275669791307 ], [ 127.355672336380707, 36.631049212828273 ], [ 127.3555510325412, 36.630916603280809 ], [ 127.355452912258372, 36.630802695370647 ], [ 127.355349987662379, 36.630671752243011 ], [ 127.355154872352244, 36.630376582824923 ], [ 127.355109971300038, 36.630313115036117 ], [ 127.355082875512494, 36.630277871361194 ], [ 127.355051786329341, 36.630229680911846 ], [ 127.354909419598627, 36.630021555400276 ], [ 127.354734484439732, 36.629751862743262 ], [ 127.354492013366666, 36.629393077009084 ], [ 127.354294091277495, 36.629068933944126 ], [ 127.354136712471885, 36.628786931142223 ], [ 127.354066258128057, 36.628643951941179 ], [ 127.35398932171897, 36.628447408524501 ], [ 127.353950925390336, 36.628338981501621 ], [ 127.353933268095801, 36.628262473108848 ], [ 127.353916725143876, 36.628216618834749 ], [ 127.353888960546186, 36.628159514518579 ], [ 127.353800485918001, 36.627994292908056 ], [ 127.353739479853971, 36.62789019590857 ], [ 127.353649169106987, 36.627744020592097 ], [ 127.353595475985202, 36.627649380203593 ], [ 127.353550915814012, 36.627559768757308 ], [ 127.353519827715729, 36.627484895330461 ], [ 127.353449380789584, 36.627274238430864 ], [ 127.353373359577532, 36.627088524503122 ], [ 127.353257634145578, 36.626843497097063 ], [ 127.353218275764362, 36.62674202098485 ], [ 127.353200489607389, 36.626676236535474 ], [ 127.353185971735684, 36.626628069594432 ], [ 127.353186374635314, 36.6265500922431 ], [ 127.353187159454023, 36.626518423555119 ], [ 127.353182692413299, 36.626485374511432 ], [ 127.353142112911272, 36.626375673390712 ], [ 127.353119182842875, 36.626272922933282 ], [ 127.353123586659464, 36.626219022333487 ], [ 127.353133847374025, 36.626176529307763 ], [ 127.353159935720825, 36.626094251004275 ], [ 127.353166467425609, 36.626038829490398 ], [ 127.353157693210093, 36.625982831987066 ], [ 127.353085251067569, 36.625723862835095 ], [ 127.353076747732743, 36.625683120822835 ], [ 127.35307638145359, 36.62563685724588 ], [ 127.352933982016239, 36.625192956535734 ], [ 127.352925067257743, 36.625167508834501 ], [ 127.352919136189854, 36.625131616441408 ], [ 127.352907768119735, 36.625029379624586 ], [ 127.352901900248256, 36.625000262975 ], [ 127.352789344799177, 36.624895083095005 ], [ 127.35267066810718, 36.624749567876719 ], [ 127.352610718848624, 36.624490813964734 ], [ 127.35258001013041, 36.624307108138076 ], [ 127.352576843523408, 36.624117600072054 ], [ 127.352554155063018, 36.623949804794044 ], [ 127.352508698095662, 36.623693953527237 ], [ 127.352467287530672, 36.623516894676868 ], [ 127.352417465316123, 36.623346456817821 ], [ 127.35239143510195, 36.623109725101038 ], [ 127.352395991504736, 36.622771821726609 ], [ 127.352376308761805, 36.622446345224439 ], [ 127.352361193198789, 36.62212932681993 ], [ 127.352383943132494, 36.621790441660998 ], [ 127.352413685936256, 36.621472162603126 ], [ 127.352431065917997, 36.621243114873941 ], [ 127.352437469932582, 36.621036455808436 ], [ 127.352386219831828, 36.620951793795555 ], [ 127.352264266994496, 36.620863400258209 ], [ 127.352121372331126, 36.620759552340886 ], [ 127.35188140386488, 36.620585585773199 ], [ 127.351748954662, 36.620386510544662 ], [ 127.351706828972411, 36.620295026215025 ], [ 127.351553024956843, 36.619686257408375 ], [ 127.351536512243271, 36.619525995229914 ], [ 127.35152518639012, 36.619350621354222 ], [ 127.351464187473596, 36.619108009392178 ], [ 127.351466845466717, 36.619107587197462 ], [ 127.351475944547261, 36.619107461511256 ], [ 127.351478355498287, 36.619104065861457 ], [ 127.351478193268193, 36.619090692808712 ], [ 127.351474633004699, 36.619062426346993 ], [ 127.351471452869319, 36.619041213694636 ], [ 127.351489439518076, 36.618955317755791 ], [ 127.351499645415728, 36.618827074070232 ], [ 127.351506430566133, 36.618772743711112 ], [ 127.351522638328092, 36.618634686557421 ], [ 127.351521285877766, 36.618565483925806 ], [ 127.351510784993138, 36.618486025246831 ], [ 127.351477327192754, 36.618308510638464 ], [ 127.351459095517839, 36.618224893612094 ], [ 127.351458849463256, 36.618094320029428 ], [ 127.351467539007402, 36.617986978422955 ], [ 127.35147019097144, 36.617940705923395 ], [ 127.351470490622674, 36.6178416242183 ], [ 127.35146418104766, 36.617751835952006 ], [ 127.351450497100089, 36.61768545405689 ], [ 127.351404521204316, 36.61752314292508 ], [ 127.351295191283796, 36.617135669751065 ], [ 127.351161127811736, 36.616749297846177 ], [ 127.351013327580645, 36.616458693006919 ], [ 127.350981541559946, 36.616388606682506 ], [ 127.3509554316513, 36.616339671238428 ], [ 127.350940176488891, 36.616300948942325 ], [ 127.350905734052077, 36.61620734994564 ], [ 127.350865394939191, 36.615976111488273 ], [ 127.350798240262549, 36.615631803897472 ], [ 127.350703569574847, 36.615271260011014 ], [ 127.350647492413174, 36.614941653421567 ], [ 127.350613275730609, 36.61475122802846 ], [ 127.350601886123656, 36.614692641451313 ], [ 127.35058183402947, 36.614660881684912 ], [ 127.350564050844667, 36.614643658753494 ], [ 127.350520656526726, 36.614611543359139 ], [ 127.350483795059304, 36.614582988058324 ], [ 127.350468349640295, 36.614551592849509 ], [ 127.35045195573899, 36.61449829358839 ], [ 127.350426730986882, 36.614400333715658 ], [ 127.350412232278089, 36.614358211828943 ], [ 127.350335528314986, 36.614165728058822 ], [ 127.350236052822737, 36.613957940588548 ], [ 127.350131679524665, 36.613709875026721 ], [ 127.350067807242993, 36.613615894359967 ], [ 127.350042170987436, 36.613570300252391 ], [ 127.350021693280013, 36.613516058223851 ], [ 127.349999999860373, 36.613432469006788 ], [ 127.349979829490024, 36.613354687367348 ], [ 127.349960166586953, 36.613265496967912 ], [ 127.349939875426102, 36.613180842125082 ], [ 127.349930556734719, 36.613146923140214 ], [ 127.349913079319094, 36.613106045110399 ], [ 127.349897667954281, 36.61307465887824 ], [ 127.349741666215692, 36.612797133559532 ], [ 127.349636022065795, 36.612651171714397 ], [ 127.349421034261951, 36.612402601649279 ], [ 127.349418410214412, 36.612396029997527 ], [ 127.349414922599621, 36.612388452982408 ], [ 127.349411233312622, 36.612381075845533 ], [ 127.349407333396954, 36.612373903984583 ], [ 127.349399033383492, 36.61236030426997 ], [ 127.349394946803898, 36.612353665861278 ], [ 127.349390927007519, 36.612347188003994 ], [ 127.349384881963587, 36.61233788949486 ], [ 127.34937865816363, 36.612328507821388 ], [ 127.349374795113192, 36.61232193279956 ], [ 127.349370864937313, 36.612315373919763 ], [ 127.349366867646538, 36.612308825772999 ], [ 127.349359061040346, 36.612295673823645 ], [ 127.349355386352315, 36.612288844815986 ], [ 127.349351678240438, 36.612281952660886 ], [ 127.349347934517326, 36.612274972113568 ], [ 127.349344034525174, 36.61226784532537 ], [ 127.349340123417917, 36.612260684265962 ], [ 127.349336190016729, 36.61225348711821 ], [ 127.349327967247589, 36.612239281687387 ], [ 127.349323789054822, 36.612232607100246 ], [ 127.34931954769408, 36.612226213701398 ], [ 127.34931308862086, 36.612217067920078 ], [ 127.349306522908506, 36.612208706309424 ], [ 127.349299636377381, 36.612200859951258 ], [ 127.349292939425823, 36.612193282479737 ], [ 127.34928617918743, 36.61218604749817 ], [ 127.349279340091059, 36.612179111714802 ], [ 127.349272601746307, 36.61217212016539 ], [ 127.349266376033938, 36.612164884055765 ], [ 127.349260921946893, 36.612157629088856 ], [ 127.349256498488486, 36.612150575558609 ], [ 127.349252814131432, 36.612141828141269 ], [ 127.349251143983139, 36.612133525007344 ], [ 127.349250513896195, 36.612125172705042 ], [ 127.349248965571178, 36.612116328824563 ], [ 127.349246430086595, 36.612109081155019 ], [ 127.349242448183631, 36.612101532357251 ], [ 127.349237652600024, 36.61209377879068 ], [ 127.349232161992191, 36.612085757500317 ], [ 127.349226111844956, 36.61207795186197 ], [ 127.349219830878397, 36.612070383927524 ], [ 127.349213035172284, 36.612062995641615 ], [ 127.349206140339362, 36.612055978648307 ], [ 127.349199244914374, 36.612049266361176 ], [ 127.349192253020178, 36.612042709009742 ], [ 127.349185552564279, 36.612036943544588 ], [ 127.349178983527736, 36.612032600814004 ], [ 127.349172140960505, 36.612029756031518 ], [ 127.349162608530676, 36.612027739027887 ], [ 127.349152799364347, 36.612026569084136 ], [ 127.349142481004606, 36.612026175588845 ], [ 127.349131783974585, 36.612026144016696 ], [ 127.349124047887869, 36.612026193721491 ], [ 127.349114900462837, 36.612025156231596 ], [ 127.349109012714692, 36.612023542301799 ], [ 127.349105732578323, 36.612021992975684 ], [ 127.349098740255414, 36.612015660993436 ], [ 127.349093899362103, 36.612010510898571 ], [ 127.349091533814331, 36.612006734219712 ], [ 127.349091096170497, 36.612004076040506 ], [ 127.349091968897469, 36.612001524094836 ], [ 127.349094896646605, 36.611999128006651 ], [ 127.349103455426885, 36.611995803290803 ], [ 127.349113648219685, 36.611992916969776 ], [ 127.349121196072218, 36.611990759317941 ], [ 127.349126872591782, 36.611988292786108 ], [ 127.349129179409829, 36.61198662792976 ], [ 127.349131951574876, 36.61198143699054 ], [ 127.349133447313108, 36.611975936121929 ], [ 127.349133473138721, 36.611971863173018 ], [ 127.349131821770129, 36.611967705162662 ], [ 127.349126233700204, 36.611960358066625 ], [ 127.349120881643884, 36.611953552169751 ], [ 127.349115154708414, 36.61194516276219 ], [ 127.349110269249152, 36.611937634451778 ], [ 127.349105201857839, 36.611929357664962 ], [ 127.34909948455676, 36.611920616683392 ], [ 127.349093441083241, 36.611911694988294 ], [ 127.349086751056248, 36.611902882457237 ], [ 127.349079589584832, 36.611893838544454 ], [ 127.349074799782471, 36.611887723907302 ], [ 127.349069998970705, 36.611881520908902 ], [ 127.349065042045851, 36.611875092337314 ], [ 127.349060071790859, 36.611868618673597 ], [ 127.349055079224684, 36.611862117936361 ], [ 127.349049997411356, 36.611855508905741 ], [ 127.34904485984174, 36.611848820472169 ], [ 127.34903965312165, 36.611842039997676 ], [ 127.349034401792522, 36.611835198164357 ], [ 127.349029105857937, 36.611828293169211 ], [ 127.34902376508947, 36.611821442207102 ], [ 127.349018381688396, 36.611814663310803 ], [ 127.349012986719288, 36.61180808272983 ], [ 127.349005183457351, 36.61179786063893 ], [ 127.349000042252044, 36.611790746690275 ], [ 127.348994879066183, 36.6117834361863 ], [ 127.348989522222482, 36.611775656656143 ], [ 127.348984177054419, 36.611767624720258 ], [ 127.348978830139657, 36.611759342164603 ], [ 127.348967831696498, 36.611741864347437 ], [ 127.348962447732234, 36.611733085918466 ], [ 127.348957078847803, 36.611724603200727 ], [ 127.348951698202001, 36.611716417963173 ], [ 127.34894608797488, 36.611708982483229 ], [ 127.348940443990827, 36.61170165514033 ], [ 127.348934743920367, 36.611694417876194 ], [ 127.348929189207212, 36.611687188008034 ], [ 127.348923768697105, 36.611679951097763 ], [ 127.348918538206703, 36.611672755897189 ], [ 127.348913497725448, 36.611665607815311 ], [ 127.348909005291688, 36.611658402732026 ], [ 127.348904524234555, 36.611651098497852 ], [ 127.348900041135252, 36.611643695095808 ], [ 127.348895558582043, 36.611636012228949 ], [ 127.348891141115828, 36.6116282122493 ], [ 127.348886779808353, 36.611620286130545 ], [ 127.348882327422373, 36.611612044370744 ], [ 127.348877795136787, 36.611603488787068 ], [ 127.348873162809426, 36.611594626565989 ], [ 127.348868550773105, 36.611585681432338 ], [ 127.348863947838524, 36.611576656977952 ], [ 127.348859503556653, 36.611567703041679 ], [ 127.348855251400479, 36.611558857529019 ], [ 127.348851175697078, 36.611550129435166 ], [ 127.348843340997931, 36.61153312079324 ], [ 127.3488396397982, 36.611525020618728 ], [ 127.348835835595324, 36.61151698522152 ], [ 127.348831944048072, 36.611509012818466 ], [ 127.3488279945648, 36.611500932161633 ], [ 127.348823978182082, 36.611492752254676 ], [ 127.348819537555471, 36.611484222026931 ], [ 127.348815014370885, 36.611475594332163 ], [ 127.34881041534473, 36.611466865572879 ], [ 127.348800344411174, 36.611449747713628 ], [ 127.348794649424676, 36.611441068047199 ], [ 127.348788965674544, 36.611432361349721 ], [ 127.348783281925705, 36.611423654651951 ], [ 127.34877735057897, 36.611414615887298 ], [ 127.348771441897455, 36.61140542389591 ], [ 127.348765576044471, 36.611396060673357 ], [ 127.348759700123992, 36.611387272595444 ], [ 127.348753794564033, 36.611378774762969 ], [ 127.348747854898647, 36.611370563564229 ], [ 127.348742040261328, 36.611362462507053 ], [ 127.348736348404984, 36.611354476997541 ], [ 127.348731070280166, 36.61134649922495 ], [ 127.348725915003058, 36.61133860274316 ], [ 127.348720904924065, 36.611330794792572 ], [ 127.348715975147172, 36.611323095123836 ], [ 127.348711112288854, 36.61131548568995 ], [ 127.348701777553174, 36.611300472860229 ], [ 127.348697104884366, 36.611292818592162 ], [ 127.348692365246151, 36.611285101133802 ], [ 127.348687534019874, 36.611277329468848 ], [ 127.348682837108683, 36.611269493066203 ], [ 127.34867815352554, 36.611261703558327 ], [ 127.348673490000948, 36.61125395013579 ], [ 127.348668819084523, 36.611246546486086 ], [ 127.348664147496109, 36.611239487208778 ], [ 127.348659468498099, 36.611232786719334 ], [ 127.34865236151785, 36.61122338224871 ], [ 127.34864516629591, 36.611214500536242 ], [ 127.348637895127851, 36.611205571848799 ], [ 127.348630411297677, 36.611196745661914 ], [ 127.348622759330041, 36.611188126606208 ], [ 127.348615154121674, 36.611179613986558 ], [ 127.348607660522589, 36.611171211491325 ], [ 127.348600924248302, 36.611162092362861 ], [ 127.34859702617301, 36.611155192729754 ], [ 127.348593114873552, 36.61114819391458 ], [ 127.348586750860036, 36.611137416496163 ], [ 127.348581900951231, 36.611130059493568 ], [ 127.348576815722623, 36.611122954612078 ], [ 127.348571633742438, 36.611116148905793 ], [ 127.348566339341389, 36.611109649566821 ], [ 127.348560677775765, 36.611103348091255 ], [ 127.348554669134842, 36.611097264337616 ], [ 127.348548463102091, 36.611091479631199 ], [ 127.348542290035269, 36.611085992461703 ], [ 127.348533034682617, 36.611078449557652 ], [ 127.348523881185812, 36.611071429652995 ], [ 127.348515275835581, 36.611064300461294 ], [ 127.348507173853505, 36.611057087167787 ], [ 127.34849959698326, 36.611050107128541 ], [ 127.348492871626007, 36.611043422060817 ], [ 127.348487194115961, 36.611036130713167 ], [ 127.348482449286323, 36.611027655978582 ], [ 127.348478059474161, 36.611018334284111 ], [ 127.348473712652904, 36.611008758420823 ], [ 127.348469500142954, 36.610999119623031 ], [ 127.348465576862239, 36.610989109774415 ], [ 127.348463052207677, 36.610982098294016 ], [ 127.348460403515531, 36.610974471832037 ], [ 127.348457717453442, 36.610966513570048 ], [ 127.348455009694163, 36.610958214512955 ], [ 127.348449227601776, 36.610940370057733 ], [ 127.348446213420004, 36.610930943734253 ], [ 127.348443219313992, 36.610921544481251 ], [ 127.34844023633805, 36.61091217228735 ], [ 127.348437447457087, 36.610903043745523 ], [ 127.348434834747735, 36.610894175060039 ], [ 127.348432240402815, 36.610886207898993 ], [ 127.348429390380659, 36.610878610028188 ], [ 127.348426271259058, 36.610871383233501 ], [ 127.348418722818124, 36.610857888977591 ], [ 127.34841404314092, 36.610851558092726 ], [ 127.348406559497406, 36.61084266698348 ], [ 127.34839845386621, 36.610835049805139 ], [ 127.348390040591269, 36.610828072300691 ], [ 127.348381280154143, 36.6108213575923 ], [ 127.348373086900565, 36.610813947646037 ], [ 127.348367843585208, 36.6108087897967 ], [ 127.348361431319148, 36.610799842351703 ], [ 127.348355767162261, 36.610790315291567 ], [ 127.348352459727636, 36.610783324448548 ], [ 127.34834930907742, 36.610776214806791 ], [ 127.348346315211558, 36.610768986366303 ], [ 127.348340997883682, 36.610754800788598 ], [ 127.348337298116903, 36.610744872354935 ], [ 127.348333745377019, 36.61073523980064 ], [ 127.34833050712848, 36.610726040367069 ], [ 127.348327837402081, 36.610716603660663 ], [ 127.348326743145449, 36.610706649694684 ], [ 127.34832620585739, 36.610696647756498 ], [ 127.348325925883344, 36.610686583040717 ], [ 127.348325209782956, 36.610676528587838 ], [ 127.348323119723204, 36.610666874455738 ], [ 127.348319302149903, 36.610657721162454 ], [ 127.348314050887694, 36.610648634558245 ], [ 127.348308209588978, 36.610639352478486 ], [ 127.348302308314004, 36.610629862976801 ], [ 127.348297943948026, 36.610623557730577 ], [ 127.34829092826682, 36.610614405774108 ], [ 127.34828333252068, 36.61060567678431 ], [ 127.348275469785776, 36.610597383780657 ], [ 127.348267711183055, 36.610589592143754 ], [ 127.348260681027227, 36.610582124171316 ], [ 127.348253928349521, 36.61057457541667 ], [ 127.34824805948135, 36.610566815032811 ], [ 127.348243105358108, 36.610559034177506 ], [ 127.348239090859366, 36.610551090445391 ], [ 127.348236236137424, 36.610542482882202 ], [ 127.348233502868879, 36.610533525691132 ], [ 127.348229928910754, 36.610524461052172 ], [ 127.348224967015739, 36.610514942091804 ], [ 127.348218555567684, 36.610505597979227 ], [ 127.348213931662201, 36.610499357307333 ], [ 127.348208739753261, 36.610493090669713 ], [ 127.348203324233793, 36.610486807520047 ], [ 127.348197819395779, 36.610480453939203 ], [ 127.348192245391843, 36.610474017331917 ], [ 127.348180718140668, 36.610460660428707 ], [ 127.348175086734571, 36.61045384511695 ], [ 127.348169614024144, 36.610447076885166 ], [ 127.34816431790783, 36.610440352150171 ], [ 127.348158867249012, 36.610433744413179 ], [ 127.348153450367292, 36.61042701952384 ], [ 127.348148053826506, 36.610420186479999 ], [ 127.348137340552199, 36.610406881093752 ], [ 127.348131636014912, 36.610400868022815 ], [ 127.348122891838798, 36.610392739761792 ], [ 127.348114441448232, 36.610385338484555 ], [ 127.348106386062042, 36.610378368627785 ], [ 127.348098730909555, 36.610371444355685 ], [ 127.348091890889705, 36.610363974812422 ], [ 127.348085414480849, 36.610355838621324 ], [ 127.34807937669963, 36.610347556945861 ], [ 127.348074210178538, 36.610339759585486 ], [ 127.348070204940612, 36.610331669815999 ], [ 127.348066723897404, 36.610323137176081 ], [ 127.348063340223845, 36.61031399163933 ], [ 127.348059117044798, 36.610304136452115 ], [ 127.348054556357468, 36.610294183472263 ], [ 127.348049425343859, 36.610284249598038 ], [ 127.348043736768361, 36.610274668401104 ], [ 127.348037270732704, 36.610265811019516 ], [ 127.348029857442, 36.610257588889482 ], [ 127.348021940568216, 36.610249564447024 ], [ 127.348013654700154, 36.610241532321439 ], [ 127.348005560727557, 36.610233724012311 ], [ 127.347998069168483, 36.610225501780434 ], [ 127.347991142647615, 36.610216537431768 ], [ 127.347987179428472, 36.610209836024914 ], [ 127.347983502776486, 36.610202979925248 ], [ 127.347980097072096, 36.610195951082837 ], [ 127.347973728547672, 36.610181857902681 ], [ 127.34797104753801, 36.610174783106444 ], [ 127.347968344394602, 36.610167591086707 ], [ 127.347965628080942, 36.610160272839941 ], [ 127.347962576814126, 36.610152694533397 ], [ 127.347959257212722, 36.610145097854399 ], [ 127.347955678236616, 36.610137475602322 ], [ 127.347946703449011, 36.610122668712314 ], [ 127.347936489217062, 36.610108100039383 ], [ 127.347931014828688, 36.610101070358773 ], [ 127.347922941557357, 36.610090703609643 ], [ 127.347917782018087, 36.610083923144565 ], [ 127.347912754283357, 36.610077216770563 ], [ 127.347907525416886, 36.610070436216553 ], [ 127.347902265414945, 36.610063567275411 ], [ 127.347896967571856, 36.610056608135629 ], [ 127.347891672036923, 36.610049612938489 ], [ 127.347886376573783, 36.610042581681157 ], [ 127.347880991601741, 36.610035577354367 ], [ 127.347875593566272, 36.610028392710355 ], [ 127.347870173504063, 36.610021036752748 ], [ 127.34786460439615, 36.61001327673204 ], [ 127.347858990950556, 36.610005318324156 ], [ 127.347853333167322, 36.609997161529122 ], [ 127.347842134996156, 36.609980289157271 ], [ 127.347836451211947, 36.609971708622581 ], [ 127.347830733971279, 36.60996308296982 ], [ 127.347824983256487, 36.609954421213992 ], [ 127.347819221375076, 36.609945752231575 ], [ 127.347813437169762, 36.609937063387349 ], [ 127.347807563594159, 36.609928331156638 ], [ 127.347801443801643, 36.60991970679131 ], [ 127.347795068843055, 36.609911192082933 ], [ 127.347782699875864, 36.609894916806802 ], [ 127.347776572032984, 36.609886977570895 ], [ 127.34777041277529, 36.609879092384588 ], [ 127.347764228829675, 36.609871252241511 ], [ 127.347758416200833, 36.609863376512386 ], [ 127.347752702032068, 36.609855472060744 ], [ 127.347747099685108, 36.609847567751657 ], [ 127.347741810600127, 36.609839580904428 ], [ 127.347736655807324, 36.609831540138458 ], [ 127.347731610727394, 36.609823434604351 ], [ 127.347726791278021, 36.609815455568494 ], [ 127.347722184058341, 36.609807593998802 ], [ 127.347717925407906, 36.609799891538593 ], [ 127.347713854563679, 36.609792216363253 ], [ 127.347709998362575, 36.609784568507088 ], [ 127.347706331817548, 36.609777144465497 ], [ 127.347702868343504, 36.609769946058648 ], [ 127.347699663570481, 36.609763115794856 ], [ 127.347694955659293, 36.609753009357036 ], [ 127.347690285431469, 36.609743074252414 ], [ 127.347685646177766, 36.609733310472457 ], [ 127.347681309301421, 36.609723312688445 ], [ 127.347677419945626, 36.609713194675081 ], [ 127.347674254942604, 36.60970320199467 ], [ 127.347671617899508, 36.60969312524788 ], [ 127.347669493281785, 36.609682903112805 ], [ 127.347667234405691, 36.609672718669117 ], [ 127.34766409223424, 36.609662489824174 ], [ 127.347659921394239, 36.609652219998104 ], [ 127.347655179892072, 36.60964214236364 ], [ 127.347648190724811, 36.609628690240427 ], [ 127.347644672542785, 36.609622023647567 ], [ 127.347639364896764, 36.609612116573899 ], [ 127.347633911509718, 36.609602400431903 ], [ 127.347627855640681, 36.609593136073023 ], [ 127.347621165586347, 36.609584523589895 ], [ 127.347613940780789, 36.609576038435755 ], [ 127.347606591163839, 36.609567336761252 ], [ 127.347601253875865, 36.609561133015497 ], [ 127.347595692976654, 36.609554914559517 ], [ 127.347589897291371, 36.609548677772949 ], [ 127.347584036591627, 36.60954252203809 ], [ 127.347577827010255, 36.609536367659707 ], [ 127.347571248440971, 36.609530203794023 ], [ 127.347557424172436, 36.609518223187685 ], [ 127.347550321925951, 36.609512242557187 ], [ 127.347543141459695, 36.609506234781193 ], [ 127.34753588272045, 36.609500226904615 ], [ 127.347528746878012, 36.60949427327489 ], [ 127.347521747333033, 36.609488382924233 ], [ 127.347515293300916, 36.609482579815307 ], [ 127.347508874892483, 36.60947685788674 ], [ 127.347502478685726, 36.609471218924362 ], [ 127.347496238431646, 36.609465883065653 ], [ 127.347487149613443, 36.609457961661164 ], [ 127.347478841539115, 36.609449920454026 ], [ 127.347471259395505, 36.609441202246401 ], [ 127.347464375869947, 36.609432048605811 ], [ 127.347460101201989, 36.609425689352491 ], [ 127.347455990502141, 36.609418969708365 ], [ 127.347451781078234, 36.609412414010954 ], [ 127.347447470665472, 36.609406036681385 ], [ 127.347440233613568, 36.609396974539955 ], [ 127.347434718748161, 36.609391241142987 ], [ 127.347428758534576, 36.609385662233841 ], [ 127.347415600234001, 36.609375085199574 ], [ 127.347408871812178, 36.609370076857708 ], [ 127.347402042486863, 36.609365203611432 ], [ 127.347395112240264, 36.609360474475778 ], [ 127.347384865031216, 36.609353665835684 ], [ 127.347374341983098, 36.609347244487054 ], [ 127.347366923224342, 36.609343012352859 ], [ 127.347359225019673, 36.609338727573203 ], [ 127.347351770942126, 36.609334261002445 ], [ 127.347344596717249, 36.609329641534472 ], [ 127.347337702366318, 36.60932485835135 ], [ 127.347328534791657, 36.609317198269125 ], [ 127.347320258946894, 36.609308706341352 ], [ 127.34731485831287, 36.609302891949994 ], [ 127.347309587710512, 36.609296915454742 ], [ 127.347304261806869, 36.609290630574925 ], [ 127.347298779402522, 36.609284322055288 ], [ 127.347293140490393, 36.609277993501799 ], [ 127.347287152854236, 36.609271586972049 ], [ 127.347281079706306, 36.609265448979841 ], [ 127.347268731032045, 36.609253733468947 ], [ 127.347262690824977, 36.609247903831466 ], [ 127.347256675151584, 36.609242108482171 ], [ 127.347250690717559, 36.609236349232688 ], [ 127.347244829339459, 36.609230563095565 ], [ 127.347239138034922, 36.609224723086101 ], [ 127.347233612352497, 36.609218818380548 ], [ 127.347228162957251, 36.60921278756237 ], [ 127.347222479289101, 36.609206478781118 ], [ 127.34721655911531, 36.609199890230961 ], [ 127.347210547730469, 36.609193058158162 ], [ 127.347204447385352, 36.609185975353618 ], [ 127.347198010142591, 36.60917848824414 ], [ 127.34719174981096, 36.609170882362953 ], [ 127.347185690951548, 36.609163177574644 ], [ 127.347179900268429, 36.609155570492057 ], [ 127.347174187913552, 36.609147936464581 ], [ 127.347168562832451, 36.609140275503719 ], [ 127.347157740895369, 36.609124411426535 ], [ 127.347147282151212, 36.609108095260417 ], [ 127.347142217105741, 36.609099962629834 ], [ 127.347137274561149, 36.609092084379569 ], [ 127.34713252357146, 36.609084599429401 ], [ 127.347127852786713, 36.609077269640196 ], [ 127.347123181757311, 36.609070064257672 ], [ 127.347118611505167, 36.609062788687147 ], [ 127.347114162164814, 36.609055439348424 ], [ 127.347109769073143, 36.609047918796392 ], [ 127.347105443380102, 36.609040243272446 ], [ 127.347101428848546, 36.609032414892326 ], [ 127.347097403203492, 36.609024552240726 ], [ 127.34709335528791, 36.609016642682327 ], [ 127.347089273613733, 36.60900884126066 ], [ 127.347085216416076, 36.609001102975334 ], [ 127.347081168040205, 36.608993427806304 ], [ 127.347073443029629, 36.608977825524377 ], [ 127.347069638974148, 36.608969871202994 ], [ 127.34706596021411, 36.608961888194223 ], [ 127.347062379944845, 36.608953860236639 ], [ 127.347058781233429, 36.608946111720726 ], [ 127.347055159624858, 36.608938633625755 ], [ 127.347051517141864, 36.608931534134484 ], [ 127.347043785302972, 36.60891713083867 ], [ 127.347039919521677, 36.608909859775139 ], [ 127.347036018115602, 36.60890250933361 ], [ 127.347032060960842, 36.608895077685254 ], [ 127.347027947883021, 36.608887330311106 ], [ 127.347023709707315, 36.608879512459104 ], [ 127.347019359837873, 36.608871631358461 ], [ 127.347014663276255, 36.608863776857632 ], [ 127.347010011457556, 36.608855915202035 ], [ 127.347005404406616, 36.608848033770705 ], [ 127.347000607331694, 36.608840117838128 ], [ 127.346995631432506, 36.608832158403736 ], [ 127.346990600020092, 36.608823998764485 ], [ 127.346985633620562, 36.608815759876364 ], [ 127.346980754622663, 36.60880742914712 ], [ 127.34697136046934, 36.608791117937756 ], [ 127.346966854416053, 36.608783058137234 ], [ 127.34696240399181, 36.608775140845225 ], [ 127.346958009193045, 36.608767367864694 ], [ 127.346953649999151, 36.608759685079875 ], [ 127.346949321905271, 36.608752108711997 ], [ 127.346944839655109, 36.60874445461684 ], [ 127.346940424625558, 36.608736735699736 ], [ 127.346936063380426, 36.608728960958445 ], [ 127.346931927828919, 36.608721278460017 ], [ 127.3469279355526, 36.608713522222359 ], [ 127.346924111201602, 36.608705667035096 ], [ 127.346917074198643, 36.608689367863953 ], [ 127.346913805655007, 36.608680914793304 ], [ 127.346910515065431, 36.60867230122696 ], [ 127.346907189018808, 36.608663523541701 ], [ 127.346903919057013, 36.608654657581226 ], [ 127.346900751705618, 36.608645925174699 ], [ 127.346897671253004, 36.608637355149995 ], [ 127.346891698677709, 36.608621107828775 ], [ 127.346885583235149, 36.608605860990281 ], [ 127.346882397542316, 36.60859848982691 ], [ 127.346879155815927, 36.608591181696553 ], [ 127.346875849128281, 36.608583927572717 ], [ 127.34687243079712, 36.608576584958186 ], [ 127.346868965577542, 36.608569204420235 ], [ 127.346865478026956, 36.608561807626451 ], [ 127.346858740094063, 36.608546958450241 ], [ 127.346855619564067, 36.608539434114554 ], [ 127.346852613125435, 36.608531891895367 ], [ 127.346849718563178, 36.608524320971839 ], [ 127.346846876094034, 36.608516418362619 ], [ 127.346844047154221, 36.608508459877598 ], [ 127.346841216099833, 36.608500440087695 ], [ 127.346838286256983, 36.608492616698072 ], [ 127.346835335713351, 36.608485083565256 ], [ 127.346832375657939, 36.60847783709761 ], [ 127.34682929394404, 36.608471043027293 ], [ 127.34682451126541, 36.608461522432982 ], [ 127.34681949534199, 36.608452336897216 ], [ 127.346814202109613, 36.608443151004799 ], [ 127.346808961131558, 36.608433552291579 ], [ 127.346805465746158, 36.608426730643799 ], [ 127.34680184739301, 36.608419892610776 ], [ 127.346798106057889, 36.608413045404546 ], [ 127.346792639959261, 36.608403067770524 ], [ 127.346786942460241, 36.608393623527647 ], [ 127.346780964863456, 36.608384458389835 ], [ 127.346775021348606, 36.608375022845081 ], [ 127.346770934846646, 36.608368564642809 ], [ 127.346766691942065, 36.608362034119153 ], [ 127.346757470059188, 36.608349128986148 ], [ 127.346752566939131, 36.608342844624424 ], [ 127.346745195885404, 36.608333782267032 ], [ 127.346737579692132, 36.608325415553097 ], [ 127.346729944061252, 36.608317831317009 ], [ 127.346722457337364, 36.608310717855758 ], [ 127.346715318407249, 36.608304151151309 ], [ 127.346708418166713, 36.608297889460957 ], [ 127.346701660608815, 36.608291853329149 ], [ 127.346695507392283, 36.608285554735929 ], [ 127.346689822384064, 36.608278849266028 ], [ 127.346684614907886, 36.608271545813153 ], [ 127.346679817812046, 36.608263674942059 ], [ 127.34667527809566, 36.608255705236708 ], [ 127.346671038238924, 36.608247642160826 ], [ 127.346667146756616, 36.608239831953448 ], [ 127.346663797109528, 36.608232831991501 ], [ 127.346660881271688, 36.608225856026692 ], [ 127.346657231691736, 36.608216728134934 ], [ 127.346654360293272, 36.608209898270388 ], [ 127.346651469092862, 36.608202904306978 ], [ 127.346649190803376, 36.608195837209067 ], [ 127.346647044838207, 36.608188579163048 ], [ 127.346644629015756, 36.608180945745062 ], [ 127.34664197762055, 36.608172563777572 ], [ 127.346639342987032, 36.608163622900619 ], [ 127.346636451757718, 36.608154386000862 ], [ 127.346632904199978, 36.60814569096032 ], [ 127.346628565503835, 36.608137854933979 ], [ 127.346623589619952, 36.608129929740258 ], [ 127.346618554815478, 36.608121267042193 ], [ 127.346613585370051, 36.608112350204593 ], [ 127.346608478463807, 36.60810283098678 ], [ 127.346605108165093, 36.608096101446939 ], [ 127.346601746815978, 36.608089370115479 ], [ 127.346598407866779, 36.608082620782767 ], [ 127.346594856603033, 36.608075800859488 ], [ 127.34659140608332, 36.608068926975719 ], [ 127.346588065256626, 36.608061997339938 ], [ 127.346584680181792, 36.608054826044679 ], [ 127.34658124864751, 36.608047400466042 ], [ 127.346577705542259, 36.608039850336453 ], [ 127.346574128660194, 36.608032417358466 ], [ 127.346570553800845, 36.60802509256316 ], [ 127.346566590619801, 36.608018490272059 ], [ 127.346560111808301, 36.608009488550643 ], [ 127.34655323682388, 36.608001786284007 ], [ 127.346546420475889, 36.607994965761058 ], [ 127.346537963037932, 36.607987942991095 ], [ 127.346530303528155, 36.607982278909482 ], [ 127.346525825529554, 36.607978165901393 ], [ 127.346522549949384, 36.607973300786377 ], [ 127.346520548050862, 36.607967835108525 ], [ 127.346519303124239, 36.607959566735587 ], [ 127.34651928949522, 36.607951772335213 ], [ 127.346519441406713, 36.607942824226015 ], [ 127.346518514364888, 36.607933265312106 ], [ 127.346516515972382, 36.607923773532534 ], [ 127.346513904189734, 36.607914598291458 ], [ 127.34651112444871, 36.607905540029215 ], [ 127.346508367461311, 36.607896285268836 ], [ 127.346504330057698, 36.607883130766254 ], [ 127.346500485477904, 36.607873111934474 ], [ 127.346496204552494, 36.607863222356741 ], [ 127.34649134405484, 36.607853512332589 ], [ 127.346486147958629, 36.607843875799048 ], [ 127.346480660901747, 36.607834357888692 ], [ 127.34647528822191, 36.607824677855092 ], [ 127.34647022428895, 36.607814933310891 ], [ 127.346465307960173, 36.607805187153623 ], [ 127.346460894276163, 36.607795712094223 ], [ 127.346456952042047, 36.607786450396439 ], [ 127.346453515067466, 36.607777268681652 ], [ 127.346450532184079, 36.607768031658736 ], [ 127.346447710050754, 36.607758930068101 ], [ 127.346445067672292, 36.607750530077254 ], [ 127.346441785259174, 36.607741222351002 ], [ 127.346438674640865, 36.607733247265429 ], [ 127.346436106720333, 36.607729028534862 ], [ 127.346434121909965, 36.607727358199234 ], [ 127.346430689832161, 36.607726989569969 ], [ 127.346428167283349, 36.607728086151305 ], [ 127.346423488042291, 36.607734120182251 ], [ 127.346419465192696, 36.607741835457915 ], [ 127.346415555838604, 36.60774983214823 ], [ 127.346412058740668, 36.607755186166948 ], [ 127.346407899193707, 36.607759657663181 ], [ 127.346403296982359, 36.607762933197598 ], [ 127.346396781686082, 36.607765584229924 ], [ 127.346392235718923, 36.607766434797036 ], [ 127.346388188331517, 36.607766222234716 ], [ 127.346385871235938, 36.607765209566175 ], [ 127.346383376957604, 36.6077621989416 ], [ 127.346381328679442, 36.607756446523929 ], [ 127.346379970235489, 36.607747916567455 ], [ 127.34637951319344, 36.60774043892382 ], [ 127.346379554130507, 36.607732201054702 ], [ 127.346379580500127, 36.607723415053826 ], [ 127.346379552047964, 36.60771408086925 ], [ 127.346379072234996, 36.607706808738598 ], [ 127.34637790862439, 36.607699270684954 ], [ 127.346376230832121, 36.607691641818342 ], [ 127.346374376347072, 36.607684023541914 ], [ 127.346372452285209, 36.607676531386012 ], [ 127.346370867558903, 36.607669337163038 ], [ 127.346369428091933, 36.607662195414385 ], [ 127.346368403907576, 36.607653141214605 ], [ 127.346368530473498, 36.607646832669282 ], [ 127.346370630710169, 36.607638788573119 ], [ 127.346373952201759, 36.607631768354089 ], [ 127.346378145983181, 36.607624691563288 ], [ 127.346380545770543, 36.607618962909314 ], [ 127.346381273010095, 36.607614238175138 ], [ 127.34638064945986, 36.607607274172608 ], [ 127.346378392251339, 36.607599747330191 ], [ 127.346375402997992, 36.607591474903678 ], [ 127.346372358819892, 36.607582706580388 ], [ 127.346370056045643, 36.607575603384824 ], [ 127.346367773200839, 36.607567472503 ], [ 127.346365519302523, 36.607558277886483 ], [ 127.346363126478096, 36.607548093241995 ], [ 127.346361441012377, 36.607540952978987 ], [ 127.346359610116536, 36.607533846785515 ], [ 127.34635763377986, 36.607526780070557 ], [ 127.346353843409545, 36.607516508882895 ], [ 127.346349663018458, 36.607506689746096 ], [ 127.346345344190738, 36.607497889127508 ], [ 127.346340971710603, 36.607490206301634 ], [ 127.346338699506205, 36.607486860603714 ], [ 127.346328315348671, 36.607399325825661 ], [ 127.346319025162273, 36.607361200157683 ], [ 127.346308943714646, 36.607324002015055 ], [ 127.346293021549272, 36.607285371965602 ], [ 127.346283610514746, 36.607255193777313 ], [ 127.346282420241323, 36.607223910132944 ], [ 127.346286043948993, 36.607191934935436 ], [ 127.346289287103502, 36.607184941662233 ], [ 127.347912937425448, 36.603552810578734 ], [ 127.347828065383297, 36.603145293513244 ], [ 127.347660668534587, 36.60252193235894 ], [ 127.347574190987515, 36.602256556495036 ], [ 127.347501451104563, 36.602051319338457 ], [ 127.347435914697968, 36.601902694893099 ], [ 127.347289654354555, 36.601579423484388 ], [ 127.347209471492135, 36.601399204105725 ], [ 127.347035180763839, 36.601050863495551 ], [ 127.346995384269746, 36.600971328725429 ], [ 127.346857468137202, 36.600721709404233 ], [ 127.346803168970908, 36.600626004607292 ], [ 127.346400735797417, 36.600008741559769 ], [ 127.346395222456835, 36.60000035769017 ], [ 127.346373933753142, 36.59996800596646 ], [ 127.346156822632111, 36.599649508036045 ], [ 127.345960941171768, 36.599397153357287 ], [ 127.345708628729852, 36.599094041009302 ], [ 127.345362624933912, 36.598691585368279 ], [ 127.345009298625513, 36.598335308586918 ], [ 127.344541309114689, 36.59785331808083 ], [ 127.344214742069681, 36.597514009440346 ], [ 127.344108594630214, 36.597403629434581 ], [ 127.34394302512294, 36.597227331158969 ], [ 127.343895961085309, 36.597138316402621 ], [ 127.34388412728255, 36.597090896258095 ], [ 127.343871309913482, 36.597007822174248 ], [ 127.343865967143628, 36.596927229801743 ], [ 127.343841291371845, 36.596874468549515 ], [ 127.343790775182256, 36.596801000154763 ], [ 127.343769967436458, 36.596730698899748 ], [ 127.343806865583815, 36.596649092700069 ], [ 127.343816579051875, 36.596616858656823 ], [ 127.343788028366689, 36.596625104252439 ], [ 127.343723589541412, 36.596637655248202 ], [ 127.343685181979879, 36.596638342312048 ], [ 127.343650747914353, 36.596635675574802 ], [ 127.343618907019177, 36.596629999406126 ], [ 127.343552567141231, 36.596607300839956 ], [ 127.343451509352022, 36.596565302333723 ], [ 127.343321110751646, 36.59650434622673 ], [ 127.343182953667679, 36.596445431590418 ], [ 127.343062579302853, 36.596402289472771 ], [ 127.342931372269575, 36.596353256959624 ], [ 127.342890592446167, 36.596332973477331 ], [ 127.342821768170722, 36.596294053184216 ], [ 127.342784099838738, 36.596262196662934 ], [ 127.342751366226452, 36.596221632709138 ], [ 127.342723542350271, 36.596176960763763 ], [ 127.342689948429737, 36.596118529664146 ], [ 127.342653678715564, 36.596077387659335 ], [ 127.342642770645128, 36.596066749942977 ], [ 127.34259074639364, 36.596028709925349 ], [ 127.342536319771924, 36.59599553302612 ], [ 127.342508062904358, 36.59597917667756 ], [ 127.342335460647178, 36.595914106948406 ], [ 127.341928771419063, 36.595775055887337 ], [ 127.341895909763323, 36.595763597464568 ], [ 127.341799988243736, 36.595730170452676 ], [ 127.341702266415354, 36.595714455514077 ], [ 127.34163013104326, 36.595707614638194 ], [ 127.341432087026448, 36.595689321256309 ], [ 127.341284898114253, 36.595687787513683 ], [ 127.341159977584852, 36.59569500260892 ], [ 127.341055174955201, 36.59570304493846 ], [ 127.341015937385635, 36.595703075544392 ], [ 127.340916717933524, 36.595694835033264 ], [ 127.340805396566495, 36.595679292325727 ], [ 127.340713024626339, 36.595675014784646 ], [ 127.340656327978337, 36.595679556500031 ], [ 127.340617292799507, 36.595689905853021 ], [ 127.340546098978621, 36.595724325586808 ], [ 127.340496734001405, 36.595753933419232 ], [ 127.340441801828277, 36.595773518075895 ], [ 127.340384827515351, 36.595785810416132 ], [ 127.34031885268918, 36.595789685053681 ], [ 127.340197983095052, 36.595788452071901 ], [ 127.340074948723995, 36.595785207513387 ], [ 127.339971179533535, 36.59577670047738 ], [ 127.339881134024992, 36.595765422537056 ], [ 127.339812817823244, 36.595757525524192 ], [ 127.339757963082661, 36.595751473017017 ], [ 127.339695897116599, 36.595744386678085 ], [ 127.339667189137586, 36.595739981180948 ], [ 127.339618181209772, 36.595736273171198 ], [ 127.339519608028468, 36.595745330413287 ], [ 127.339425682660547, 36.595741839499851 ], [ 127.339308376505372, 36.595726999519052 ], [ 127.339177233458173, 36.595691930850805 ], [ 127.33909528195251, 36.595678771883946 ], [ 127.338971202838948, 36.595676963575201 ], [ 127.338852380471423, 36.595670910754919 ], [ 127.338700213917434, 36.59565022096195 ], [ 127.338501153397232, 36.595626546571999 ], [ 127.338268465806422, 36.595595314898233 ], [ 127.338116267677904, 36.59557276000799 ], [ 127.337987795148877, 36.595565535688159 ], [ 127.337876434128859, 36.595566112677751 ], [ 127.337620434222075, 36.595549897723672 ], [ 127.337443891635914, 36.595523722625664 ], [ 127.337320155640597, 36.595461921623183 ], [ 127.337282874070169, 36.595446276526339 ], [ 127.337116476653023, 36.595416872987023 ], [ 127.336908552029286, 36.595362123425915 ], [ 127.336789310456908, 36.595308048496321 ], [ 127.336758088837371, 36.595300793711722 ], [ 127.336699881967675, 36.595292000044786 ], [ 127.336622485492001, 36.595272735228498 ], [ 127.336574645711863, 36.595260301015905 ], [ 127.336506358252606, 36.595246571223477 ], [ 127.336446518867845, 36.595229447105062 ], [ 127.336380502002569, 36.595205708259535 ], [ 127.336338461686182, 36.595190471025731 ], [ 127.336286681130588, 36.595169007237146 ], [ 127.336238271304168, 36.595145984850454 ], [ 127.336182169400303, 36.595112521477496 ], [ 127.336134327716181, 36.5950947231401 ], [ 127.336100573748425, 36.595080707031975 ], [ 127.33604529624084, 36.595048674512427 ], [ 127.336004694681577, 36.595020349310126 ], [ 127.335971571299666, 36.595000003675928 ], [ 127.3359105497846, 36.594962626288194 ], [ 127.335862147490019, 36.594928771293304 ], [ 127.335796430719981, 36.594873355508945 ], [ 127.335721545551962, 36.594817335665184 ], [ 127.335631788060326, 36.594748039558276 ], [ 127.335257226621479, 36.594387645844833 ], [ 127.334972513346116, 36.594113697943172 ], [ 127.334924188698537, 36.594061675571545 ], [ 127.334877525074049, 36.594016119261639 ], [ 127.334835525492139, 36.593958078162899 ], [ 127.334794023010289, 36.593896583176196 ], [ 127.334594028000041, 36.593694271634362 ], [ 127.334458124379552, 36.593559337014895 ], [ 127.334413322669633, 36.593520623715555 ], [ 127.334365103563258, 36.593477107847853 ], [ 127.334334477150733, 36.593452313599627 ], [ 127.334328539132727, 36.59344887061723 ], [ 127.334309854102912, 36.593438055448559 ], [ 127.334265771351241, 36.593415568355155 ], [ 127.334244480806703, 36.593394605834192 ], [ 127.334225999273897, 36.593348248252397 ], [ 127.334212807470351, 36.593313635602868 ], [ 127.334192005325377, 36.593262978220906 ], [ 127.334155849196662, 36.593192385255968 ], [ 127.334124875618656, 36.593138700882896 ], [ 127.33409145875352, 36.593083716738107 ], [ 127.334051381448106, 36.593023344939347 ], [ 127.334020020634256, 36.59298349447441 ], [ 127.333969144224966, 36.592932362445424 ], [ 127.333854213210159, 36.592845670557708 ], [ 127.333792449551865, 36.592799047021366 ], [ 127.333720254693162, 36.592741278935875 ], [ 127.333657970854034, 36.592698531069637 ], [ 127.333610100725366, 36.592670991827994 ], [ 127.33354281210579, 36.592644281878265 ], [ 127.333489362834243, 36.592631589775095 ], [ 127.333417290477527, 36.592604388062405 ], [ 127.333347902528061, 36.592559965928594 ], [ 127.33322993242615, 36.59249070066258 ], [ 127.333166409726473, 36.5924513638981 ], [ 127.333100331331721, 36.592412077611215 ], [ 127.333029435024301, 36.592372598828639 ], [ 127.332947420179707, 36.592320400429713 ], [ 127.332898970843758, 36.592287950499809 ], [ 127.332830147688156, 36.592247320579673 ], [ 127.332779333542092, 36.592215588487186 ], [ 127.332699404411812, 36.592159581284626 ], [ 127.332633517554612, 36.592115690124913 ], [ 127.332585274274791, 36.592084232010237 ], [ 127.332511226766556, 36.592031938122339 ], [ 127.332445354314856, 36.591993894032051 ], [ 127.332374070401343, 36.591960283102807 ], [ 127.332310041109039, 36.591932273464273 ], [ 127.332216027283764, 36.59188827218059 ], [ 127.332158697299548, 36.591859027815467 ], [ 127.331994764597013, 36.59177390224243 ], [ 127.331934350301239, 36.591736952775584 ], [ 127.331876637855743, 36.591696527284014 ], [ 127.331792499121832, 36.591625344827698 ], [ 127.331752652701454, 36.591579263209631 ], [ 127.331683375071904, 36.591492108972346 ], [ 127.331639007371749, 36.59143902886634 ], [ 127.331573594326869, 36.591361830822443 ], [ 127.331516379595399, 36.591289113987123 ], [ 127.331470302992514, 36.591233371964584 ], [ 127.331401468141678, 36.591155721839783 ], [ 127.331352523706897, 36.591114073432898 ], [ 127.33118406376019, 36.590973431126066 ], [ 127.331107592075256, 36.590894578224088 ], [ 127.331098335960377, 36.590859512830271 ], [ 127.331033972406402, 36.590784438111456 ], [ 127.330985417031812, 36.590734775732656 ], [ 127.330953835147398, 36.590713370710084 ], [ 127.330909108536702, 36.590685858274341 ], [ 127.330854163227954, 36.590662824417024 ], [ 127.330813554458231, 36.590655087771822 ], [ 127.330794851191541, 36.590648038506266 ], [ 127.330781990064821, 36.590640045543701 ], [ 127.330769698868636, 36.590621911468695 ], [ 127.330740150945374, 36.590587552861166 ], [ 127.330713838661623, 36.590575568762567 ], [ 127.330691253170812, 36.5905699076921 ], [ 127.330670581193971, 36.590552142136673 ], [ 127.330643457442562, 36.590522703751653 ], [ 127.330629610937464, 36.590499088110519 ], [ 127.33061642173368, 36.590464240661404 ], [ 127.330589805699233, 36.590435767594656 ], [ 127.330517861242555, 36.590369877159205 ], [ 127.330407024908837, 36.590271996469738 ], [ 127.33027160905489, 36.590140921555047 ], [ 127.330130048186163, 36.589999248659552 ], [ 127.330018614722434, 36.589891709840892 ], [ 127.32999287744164, 36.589870531060093 ], [ 127.329968320160731, 36.589855713167033 ], [ 127.329916874258998, 36.589819684177783 ], [ 127.329912657396704, 36.589815639422049 ], [ 127.329832629142302, 36.589730470085428 ], [ 127.329647582626365, 36.589508534905825 ], [ 127.329554536510244, 36.589378280578856 ], [ 127.329470849310724, 36.589275717548787 ], [ 127.329416042668413, 36.589168985768893 ], [ 127.329344795628828, 36.589069624562882 ], [ 127.329268245922123, 36.588952777353235 ], [ 127.329193962425862, 36.588825282968443 ], [ 127.329144140179409, 36.588755031258948 ], [ 127.329089477696385, 36.58866643779352 ], [ 127.328890185095673, 36.588454518325399 ], [ 127.328660323863019, 36.588206049063565 ], [ 127.328608445580358, 36.588146915126281 ], [ 127.328564786391979, 36.58810990869253 ], [ 127.328515198240595, 36.588081858272439 ], [ 127.328479225730433, 36.588046893053196 ], [ 127.328443650241269, 36.588000248503576 ], [ 127.328424955124561, 36.587955559264557 ], [ 127.328382427877486, 36.587898156953898 ], [ 127.328348409073968, 36.587836161996023 ], [ 127.32829988347217, 36.587776684768642 ], [ 127.328255914671914, 36.587714085866338 ], [ 127.328209515692905, 36.587655504154604 ], [ 127.328164411717751, 36.587601776188095 ], [ 127.32810067066427, 36.587542882753056 ], [ 127.328036969387583, 36.587480212037157 ], [ 127.327981010850934, 36.587433588422165 ], [ 127.327933673071001, 36.587372053720287 ], [ 127.32786630714169, 36.587309610209765 ], [ 127.327786018991191, 36.587251013642977 ], [ 127.327741038009179, 36.587189462434928 ], [ 127.327689968101069, 36.587109257491278 ], [ 127.327646153800558, 36.58705398420711 ], [ 127.327550334958389, 36.586988041199348 ], [ 127.327466779071315, 36.586936310954968 ], [ 127.327405737384595, 36.586881553546952 ], [ 127.327371993236397, 36.586834318131437 ], [ 127.327344477493725, 36.586775235139946 ], [ 127.327320954473066, 36.586719329418806 ], [ 127.327301759563667, 36.586677623251227 ], [ 127.327271399639329, 36.586632776286983 ], [ 127.327230128747814, 36.586589182819054 ], [ 127.327198983559299, 36.586543599069863 ], [ 127.327178250420801, 36.586512989975873 ], [ 127.327177094753182, 36.586498854511305 ], [ 127.327180705463064, 36.586488833212186 ], [ 127.327172144625422, 36.586453811770504 ], [ 127.32707011091415, 36.586326021552793 ], [ 127.327012417709909, 36.586259873777969 ], [ 127.326980081769904, 36.586226025831628 ], [ 127.326963054874184, 36.586202776553201 ], [ 127.326937891902944, 36.586160609104745 ], [ 127.326898062098621, 36.586119644595705 ], [ 127.326881268440161, 36.586101099695227 ], [ 127.326864328248845, 36.586080097077826 ], [ 127.326844887551573, 36.586064532307731 ], [ 127.326843043827921, 36.586025157314985 ], [ 127.326849933923398, 36.585984307526374 ], [ 127.326812288495375, 36.58592836134995 ], [ 127.326787324130436, 36.585880433541597 ], [ 127.326774804547242, 36.585845197166357 ], [ 127.326739931053638, 36.585789467749244 ], [ 127.32663069081643, 36.585714729235164 ], [ 127.326536406455034, 36.585614591755409 ], [ 127.326363261053658, 36.585443975102784 ], [ 127.326242095675383, 36.585360573426996 ], [ 127.326199584529064, 36.585319282032671 ], [ 127.326157824886181, 36.58528186278042 ], [ 127.326016082995338, 36.585047829079095 ], [ 127.325797897850421, 36.584728763557898 ], [ 127.325517409209553, 36.584441047325775 ], [ 127.32526851183971, 36.584231111700227 ], [ 127.325000016199951, 36.584023914398863 ], [ 127.324988889080217, 36.584016069393819 ], [ 127.324868281197197, 36.583891390818707 ], [ 127.324682531505502, 36.583737766367555 ], [ 127.32438853073684, 36.583525429445949 ], [ 127.32424799176961, 36.583441059614238 ], [ 127.323988472234262, 36.583305214750233 ], [ 127.323557886452662, 36.582886371789598 ], [ 127.323130506457431, 36.582661694575982 ], [ 127.322862979489514, 36.582557923541771 ], [ 127.322796806374583, 36.582535727496499 ], [ 127.322763742820356, 36.582530220629096 ], [ 127.32272737801874, 36.58252339805474 ], [ 127.322679831167306, 36.582509487429832 ], [ 127.31717474679678, 36.581165142470631 ], [ 127.31705505474163, 36.581151268580612 ], [ 127.316718614681065, 36.581127399179614 ], [ 127.316413525430207, 36.581103129969463 ], [ 127.315881835759129, 36.581064412461522 ], [ 127.315746102875266, 36.58105373265748 ], [ 127.315665127491016, 36.581036888151687 ], [ 127.31557659864859, 36.581001013750218 ], [ 127.315476568926698, 36.580963729556672 ], [ 127.314661871461524, 36.580856762377273 ], [ 127.313540953741537, 36.58072366141522 ], [ 127.312905326986325, 36.580658188031855 ], [ 127.312319025500983, 36.580594258382348 ], [ 127.311395935376382, 36.580462627722291 ], [ 127.3108840845982, 36.58040456940499 ], [ 127.310346193238232, 36.580349857123352 ], [ 127.310057976047972, 36.580341252229701 ], [ 127.309833724843415, 36.580368329309131 ], [ 127.309659762875498, 36.580395284337868 ], [ 127.309475944370988, 36.580373935131746 ], [ 127.309305593416212, 36.580336971479639 ], [ 127.30912361955285, 36.580293801041648 ], [ 127.309022852010116, 36.580247293261984 ], [ 127.308892949938979, 36.580140339642242 ], [ 127.308850631249655, 36.580080298250238 ], [ 127.308801471695759, 36.580014842416475 ], [ 127.30051237934191, 36.580012732501935 ], [ 127.30051294366875, 36.580020622501834 ] ] ] } }
]
}
