{
  "type": "FeatureCollection",
  "features": [
    {
      "type": "Feature",
      "geometry": {
        "type": "Polygon",
        "coordinates": [
          [
            [
              127.3246458,
              36.6653386
            ],
            [
              127.3247498,
              36.6647372
            ],
            [
              127.3249264,
              36.6642261
            ],
            [
              127.3249884,
              36.6641849
            ],
            [
              127.3255232,
              36.6638287
            ],
            [
              127.3258231,
              36.6639105
            ],
            [
              127.3268717,
              36.6640474
            ],
            [
              127.3282364,
              36.6640904
            ],
            [
              127.3302776,
              36.6631337
            ],
            [
              127.3315911,
              36.6621241
            ],
            [
              127.3321628,
              36.6614593
            ],
            [
              127.3321634,
              36.6614577
            ],
            [
              127.3327516,
              36.6598114
            ],
            [
              127.3330942,
              36.6588069
            ],
            [
              127.3335826,
              36.6580516
            ],
            [
              127.3342181,
              36.6570689
            ],
            [
              127.3344724,
              36.6573238
            ],
            [
              127.3346508,
              36.6575027
            ],
            [
              127.3349648,
              36.6575437
            ],
            [
              127.3359933,
              36.657678
            ],
            [
              127.336089,
              36.6576818
            ],
            [
              127.336872,
              36.6575384
            ],
            [
              127.3370965,
              36.6572683
            ],
            [
              127.3374517,
              36.6568408
            ],
            [
              127.3378355,
              36.656379
            ],
            [
              127.3382098,
              36.655941
            ],
            [
              127.3382435,
              36.6559372
            ],
            [
              127.3388006,
              36.6558746
            ],
            [
              127.3402575,
              36.655737
            ],
            [
              127.3404288,
              36.6557225
            ],
            [
              127.3406962,
              36.6557073
            ],
            [
              127.3452276,
              36.6561361
            ],
            [
              127.3459383,
              36.656662
            ],
            [
              127.3462338,
              36.6577463
            ],
            [
              127.3462066,
              36.6577914
            ],
            [
              127.3458637,
              36.6583014
            ],
            [
              127.3458199,
              36.658239
            ],
            [
              127.3457696,
              36.6581882
            ],
            [
              127.3456637,
              36.6581102
            ],
            [
              127.3453809,
              36.6579265
            ],
            [
              127.3447102,
              36.6579664
            ],
            [
              127.3456197,
              36.658874
            ],
            [
              127.3475232,
              36.659717
            ],
            [
              127.3478898,
              36.6598323
            ],
            [
              127.3486403,
              36.6599825
            ],
            [
              127.3489273,
              36.6600218
            ],
            [
              127.3493813,
              36.6600504
            ],
            [
              127.3495309,
              36.6600458
            ],
            [
              127.3498198,
              36.6599249
            ],
            [
              127.3499811,
              36.6597782
            ],
            [
              127.3500327,
              36.6597205
            ],
            [
              127.3507855,
              36.658767
            ],
            [
              127.3512076,
              36.6580311
            ],
            [
              127.3518366,
              36.6567983
            ],
            [
              127.3519982,
              36.6564597
            ],
            [
              127.3521158,
              36.6561685
            ],
            [
              127.352193,
              36.6558982
            ],
            [
              127.3522977,
              36.6553313
            ],
            [
              127.352311,
              36.6548716
            ],
            [
              127.3521781,
              36.6501717
            ],
            [
              127.3521593,
              36.649749
            ],
            [
              127.3521467,
              36.6496449
            ],
            [
              127.3520758,
              36.6493551
            ],
            [
              127.3519946,
              36.6491593
            ],
            [
              127.3518925,
              36.6489627
            ],
            [
              127.3504096,
              36.6463908
            ],
            [
              127.3503864,
              36.6463729
            ],
            [
              127.3499843,
              36.6460623
            ],
            [
              127.3496542,
              36.6458298
            ],
            [
              127.3494135,
              36.6455846
            ],
            [
              127.3493204,
              36.6454704
            ],
            [
              127.3491766,
              36.6452395
            ],
            [
              127.3490682,
              36.6450125
            ],
            [
              127.3489689,
              36.6447148
            ],
            [
              127.348914,
              36.6444654
            ],
            [
              127.348877,
              36.6442977
            ],
            [
              127.3488387,
              36.6437083
            ],
            [
              127.3488386,
              36.6434928
            ],
            [
              127.3488715,
              36.6432959
            ],
            [
              127.3489502,
              36.6430843
            ],
            [
              127.3491026,
              36.6429026
            ],
            [
              127.3491126,
              36.6428952
            ],
            [
              127.3491893,
              36.6428384
            ],
            [
              127.3500032,
              36.6423517
            ],
            [
              127.3503288,
              36.6422646
            ],
            [
              127.3507039,
              36.6421694
            ],
            [
              127.3507324,
              36.6421646
            ],
            [
              127.3511406,
              36.6421112
            ],
            [
              127.3513708,
              36.642114
            ],
            [
              127.3520327,
              36.6421231
            ],
            [
              127.3521542,
              36.6421253
            ],
            [
              127.3523229,
              36.6421398
            ],
            [
              127.3523633,
              36.6421439
            ],
            [
              127.3524847,
              36.6421849
            ],
            [
              127.3527582,
              36.6422966
            ],
            [
              127.3530343,
              36.6424116
            ],
            [
              127.3531489,
              36.6424392
            ],
            [
              127.3533305,
              36.6424769
            ],
            [
              127.353496,
              36.6425036
            ],
            [
              127.3537964,
              36.642541
            ],
            [
              127.3540813,
              36.6425335
            ],
            [
              127.3541701,
              36.6425305
            ],
            [
              127.3545825,
              36.6424976
            ],
            [
              127.3546223,
              36.6424878
            ],
            [
              127.354853,
              36.6424265
            ],
            [
              127.3551378,
              36.6423028
            ],
            [
              127.3553818,
              36.6421845
            ],
            [
              127.3554139,
              36.6421676
            ],
            [
              127.3556349,
              36.6420449
            ],
            [
              127.3558187,
              36.6419241
            ],
            [
              127.3561895,
              36.6416695
            ],
            [
              127.3563668,
              36.6415182
            ],
            [
              127.3565432,
              36.6413602
            ],
            [
              127.356945,
              36.6409877
            ],
            [
              127.3572391,
              36.6406888
            ],
            [
              127.3573756,
              36.6405253
            ],
            [
              127.3574743,
              36.6403801
            ],
            [
              127.3575634,
              36.6402253
            ],
            [
              127.3576663,
              36.6400055
            ],
            [
              127.3577239,
              36.6398621
            ],
            [
              127.3577578,
              36.6396358
            ],
            [
              127.3577822,
              36.6394048
            ],
            [
              127.357802,
              36.6391724
            ],
            [
              127.3578087,
              36.6390861
            ],
            [
              127.3577796,
              36.6387833
            ],
            [
              127.3577528,
              36.6386804
            ],
            [
              127.3576909,
              36.6385031
            ],
            [
              127.3575797,
              36.6382266
            ],
            [
              127.3574097,
              36.6378251
            ],
            [
              127.357235,
              36.6374386
            ],
            [
              127.3569198,
              36.6368762
            ],
            [
              127.3548962,
              36.6354931
            ],
            [
              127.3524628,
              36.6341154
            ],
            [
              127.3521798,
              36.6338445
            ],
            [
              127.3518846,
              36.6335227
            ],
            [
              127.351048,
              36.6315853
            ],
            [
              127.3510127,
              36.6314797
            ],
            [
              127.350959,
              36.6313037
            ],
            [
              127.3504281,
              36.6291564
            ],
            [
              127.3504239,
              36.6285165
            ],
            [
              127.3504255,
              36.6280881
            ],
            [
              127.350438,
              36.6279323
            ],
            [
              127.3504671,
              36.6276903
            ],
            [
              127.3504791,
              36.6276153
            ],
            [
              127.3505396,
              36.6272375
            ],
            [
              127.3506134,
              36.6269024
            ],
            [
              127.3506717,
              36.6267246
            ],
            [
              127.350721,
              36.6265745
            ],
            [
              127.3508815,
              36.6263127
            ],
            [
              127.351364,
              36.6255994
            ],
            [
              127.3514571,
              36.6254626
            ],
            [
              127.351743,
              36.6252215
            ],
            [
              127.3517632,
              36.6251076
            ],
            [
              127.3517842,
              36.6247602
            ],
            [
              127.3518221,
              36.6240648
            ],
            [
              127.3518298,
              36.6237074
            ],
            [
              127.3517132,
              36.6232443
            ],
            [
              127.3501985,
              36.6201491
            ],
            [
              127.349908,
              36.6195974
            ],
            [
              127.3498143,
              36.6194225
            ],
            [
              127.3496002,
              36.619174
            ],
            [
              127.3492646,
              36.6188021
            ],
            [
              127.3489443,
              36.6185293
            ],
            [
              127.3487055,
              36.6183261
            ],
            [
              127.3484501,
              36.6182168
            ],
            [
              127.3474491,
              36.6176532
            ],
            [
              127.3467496,
              36.6172323
            ],
            [
              127.3460328,
              36.6166921
            ],
            [
              127.3454359,
              36.6161064
            ],
            [
              127.344833,
              36.6153394
            ],
            [
              127.3445869,
              36.6150207
            ],
            [
              127.34332,
              36.6132351
            ],
            [
              127.3438674,
              36.6100286
            ],
            [
              127.3440503,
              36.609379
            ],
            [
              127.3446634,
              36.6080634
            ],
            [
              127.3448506,
              36.6077368
            ],
            [
              127.3451739,
              36.6070171
            ],
            [
              127.3455744,
              36.6058123
            ],
            [
              127.3457236,
              36.6051996
            ],
            [
              127.3457686,
              36.604514
            ],
            [
              127.3457088,
              36.6039091
            ],
            [
              127.3457032,
              36.6038523
            ],
            [
              127.3446068,
              36.6021447
            ],
            [
              127.3442532,
              36.6016235
            ],
            [
              127.3439344,
              36.6013495
            ],
            [
              127.3437946,
              36.6012293
            ],
            [
              127.343184,
              36.60097
            ],
            [
              127.3424487,
              36.600795
            ],
            [
              127.3418351,
              36.60067
            ],
            [
              127.3377649,
              36.5992306
            ],
            [
              127.3377495,
              36.5991659
            ],
            [
              127.3370578,
              36.5971214
            ],
            [
              127.3368034,
              36.5964761
            ],
            [
              127.3366884,
              36.5962384
            ],
            [
              127.3364705,
              36.5958158
            ],
            [
              127.3345565,
              36.5933067
            ],
            [
              127.3293353,
              36.5878842
            ],
            [
              127.3270442,
              36.585882
            ],
            [
              127.3262763,
              36.5854482
            ],
            [
              127.3248405,
              36.5847386
            ],
            [
              127.3223921,
              36.5840094
            ],
            [
              127.3214721,
              36.5837857
            ],
            [
              127.3214403,
              36.583778
            ],
            [
              127.3214394,
              36.5837797
            ],
            [
              127.3209959,
              36.5837748
            ],
            [
              127.3208875,
              36.5837736
            ],
            [
              127.3189744,
              36.5837179
            ],
            [
              127.3162129,
              36.583304
            ],
            [
              127.3132059,
              36.5828721
            ],
            [
              127.3128859,
              36.5828589
            ],
            [
              127.3127374,
              36.5828538
            ],
            [
              127.3093401,
              36.5828779
            ],
            [
              127.3085065,
              36.5829019
            ],
            [
              127.3061948,
              36.5829794
            ],
            [
              127.3061413,
              36.5829815
            ],
            [
              127.3057677,
              36.5829957
            ],
            [
              127.3052124,
              36.5830933
            ],
            [
              127.3050934,
              36.5831154
            ],
            [
              127.3040482,
              36.5833376
            ],
            [
              127.3038704,
              36.5833967
            ],
            [
              127.3034155,
              36.583659
            ],
            [
              127.2998209,
              36.5859532
            ],
            [
              127.2995617,
              36.586327
            ],
            [
              127.299459,
              36.5865756
            ],
            [
              127.299449,
              36.5868827
            ],
            [
              127.2995974,
              36.5873027
            ],
            [
              127.2998457,
              36.5876728
            ],
            [
              127.2998647,
              36.5876966
            ],
            [
              127.2999838,
              36.5877408
            ],
            [
              127.3000007,
              36.5877472
            ],
            [
              127.3004954,
              36.5879364
            ],
            [
              127.3014301,
              36.5883431
            ],
            [
              127.3017934,
              36.5885455
            ],
            [
              127.3021672,
              36.5887923
            ],
            [
              127.3035311,
              36.5898328
            ],
            [
              127.3037646,
              36.5900474
            ],
            [
              127.3039128,
              36.5901918
            ],
            [
              127.3039701,
              36.5902475
            ],
            [
              127.3041044,
              36.5903782
            ],
            [
              127.3043612,
              36.5906549
            ],
            [
              127.3045834,
              36.5909825
            ],
            [
              127.3048433,
              36.5913898
            ],
            [
              127.3049374,
              36.5917052
            ],
            [
              127.3049793,
              36.5920102
            ],
            [
              127.3050005,
              36.592288
            ],
            [
              127.3049907,
              36.5925477
            ],
            [
              127.3049622,
              36.5926365
            ],
            [
              127.3047983,
              36.5931498
            ],
            [
              127.3046785,
              36.5935934
            ],
            [
              127.3046024,
              36.5939597
            ],
            [
              127.3045912,
              36.5943466
            ],
            [
              127.3046354,
              36.5953623
            ],
            [
              127.3046805,
              36.5956602
            ],
            [
              127.3047036,
              36.5958124
            ],
            [
              127.3048026,
              36.5962389
            ],
            [
              127.3049474,
              36.5966414
            ],
            [
              127.3051234,
              36.5968677
            ],
            [
              127.3054364,
              36.5973878
            ],
            [
              127.30557,
              36.5976344
            ],
            [
              127.3061252,
              36.5987143
            ],
            [
              127.3064794,
              36.5996449
            ],
            [
              127.3065504,
              36.5998373
            ],
            [
              127.3066205,
              36.6003542
            ],
            [
              127.3066319,
              36.6006177
            ],
            [
              127.3066198,
              36.6007451
            ],
            [
              127.3066016,
              36.6009382
            ],
            [
              127.3065341,
              36.6013842
            ],
            [
              127.3064632,
              36.6017872
            ],
            [
              127.3064095,
              36.6020378
            ],
            [
              127.3063668,
              36.6021377
            ],
            [
              127.3062939,
              36.6023081
            ],
            [
              127.3061952,
              36.6025384
            ],
            [
              127.3061846,
              36.6025631
            ],
            [
              127.3057217,
              36.6033783
            ],
            [
              127.3054923,
              36.6036989
            ],
            [
              127.3054511,
              36.6037559
            ],
            [
              127.3049487,
              36.6043651
            ],
            [
              127.3045303,
              36.6046853
            ],
            [
              127.3043131,
              36.6048378
            ],
            [
              127.3040958,
              36.6049903
            ],
            [
              127.3036087,
              36.605372
            ],
            [
              127.3032733,
              36.6056412
            ],
            [
              127.3032539,
              36.6056567
            ],
            [
              127.3008942,
              36.6077237
            ],
            [
              127.3015896,
              36.6092957
            ],
            [
              127.3020001,
              36.6114423
            ],
            [
              127.3019697,
              36.6118211
            ],
            [
              127.3019301,
              36.6122444
            ],
            [
              127.3018073,
              36.6128137
            ],
            [
              127.3000616,
              36.6171937
            ],
            [
              127.2997877,
              36.6176503
            ],
            [
              127.2996072,
              36.6179442
            ],
            [
              127.2995142,
              36.6180583
            ],
            [
              127.2993308,
              36.6182801
            ],
            [
              127.2988831,
              36.6186614
            ],
            [
              127.2983244,
              36.6187322
            ],
            [
              127.2972773,
              36.6188649
            ],
            [
              127.2964671,
              36.6189677
            ],
            [
              127.2964091,
              36.618975
            ],
            [
              127.2962049,
              36.619241
            ],
            [
              127.2961111,
              36.6193632
            ],
            [
              127.295913,
              36.6196999
            ],
            [
              127.2958689,
              36.6198517
            ],
            [
              127.2957725,
              36.6201835
            ],
            [
              127.2957594,
              36.6205384
            ],
            [
              127.2958166,
              36.6209712
            ],
            [
              127.2959609,
              36.6214198
            ],
            [
              127.2962005,
              36.6220076
            ],
            [
              127.2962612,
              36.6224824
            ],
            [
              127.2963591,
              36.6233878
            ],
            [
              127.2963431,
              36.623814
            ],
            [
              127.2963025,
              36.6242402
            ],
            [
              127.2960028,
              36.6243815
            ],
            [
              127.2959689,
              36.6243975
            ],
            [
              127.2946589,
              36.624451
            ],
            [
              127.2945872,
              36.6244439
            ],
            [
              127.2944947,
              36.6244348
            ],
            [
              127.2939368,
              36.6243855
            ],
            [
              127.2932142,
              36.6245287
            ],
            [
              127.292816,
              36.6246086
            ],
            [
              127.2925128,
              36.6246732
            ],
            [
              127.2923596,
              36.624748
            ],
            [
              127.2922387,
              36.6248088
            ],
            [
              127.2921826,
              36.624837
            ],
            [
              127.2921262,
              36.624901
            ],
            [
              127.2920116,
              36.6250368
            ],
            [
              127.2917595,
              36.625623
            ],
            [
              127.2917031,
              36.6257693
            ],
            [
              127.291515,
              36.6262795
            ],
            [
              127.2914632,
              36.6264235
            ],
            [
              127.2914112,
              36.6265703
            ],
            [
              127.2912303,
              36.6273738
            ],
            [
              127.2911743,
              36.6276269
            ],
            [
              127.2910671,
              36.6282155
            ],
            [
              127.290738,
              36.6301367
            ],
            [
              127.2907109,
              36.6305402
            ],
            [
              127.2907058,
              36.630617
            ],
            [
              127.2906989,
              36.6309659
            ],
            [
              127.2907002,
              36.6310679
            ],
            [
              127.2907691,
              36.6315062
            ],
            [
              127.2908301,
              36.6318107
            ],
            [
              127.2908736,
              36.6320077
            ],
            [
              127.2908842,
              36.6320353
            ],
            [
              127.2911092,
              36.6325592
            ],
            [
              127.2912497,
              36.6327183
            ],
            [
              127.2913667,
              36.632833
            ],
            [
              127.2915201,
              36.6330272
            ],
            [
              127.2917169,
              36.6334256
            ],
            [
              127.2918292,
              36.6336735
            ],
            [
              127.2922051,
              36.6349118
            ],
            [
              127.2922085,
              36.6349283
            ],
            [
              127.2922614,
              36.6351891
            ],
            [
              127.2922321,
              36.6354195
            ],
            [
              127.2921589,
              36.6356402
            ],
            [
              127.2920348,
              36.6358325
            ],
            [
              127.2917195,
              36.6361368
            ],
            [
              127.291408,
              36.6364374
            ],
            [
              127.2914058,
              36.6364392
            ],
            [
              127.2911779,
              36.6366174
            ],
            [
              127.2910494,
              36.6366868
            ],
            [
              127.2907837,
              36.636811
            ],
            [
              127.2905608,
              36.6368919
            ],
            [
              127.2902629,
              36.6369427
            ],
            [
              127.2899935,
              36.6369403
            ],
            [
              127.2894757,
              36.6369342
            ],
            [
              127.2892119,
              36.6368943
            ],
            [
              127.2886817,
              36.6367871
            ],
            [
              127.2808257,
              36.6343893
            ],
            [
              127.2799694,
              36.6339719
            ],
            [
              127.279611,
              36.6336708
            ],
            [
              127.2794782,
              36.6335032
            ],
            [
              127.2793974,
              36.633518
            ],
            [
              127.2793511,
              36.6335408
            ],
            [
              127.2793211,
              36.6335556
            ],
            [
              127.2792639,
              36.6336024
            ],
            [
              127.2791643,
              36.633684
            ],
            [
              127.2790243,
              36.6338468
            ],
            [
              127.2773603,
              36.6365905
            ],
            [
              127.2758386,
              36.6394282
            ],
            [
              127.2756505,
              36.6398037
            ],
            [
              127.2764899,
              36.6413329
            ],
            [
              127.2770091,
              36.6418666
            ],
            [
              127.2771062,
              36.6418468
            ],
            [
              127.2785845,
              36.6413444
            ],
            [
              127.2785892,
              36.6413411
            ],
            [
              127.2789989,
              36.6410545
            ],
            [
              127.2795157,
              36.6406969
            ],
            [
              127.2798866,
              36.6408033
            ],
            [
              127.2800192,
              36.6408678
            ],
            [
              127.282778,
              36.6422938
            ],
            [
              127.2822063,
              36.6432037
            ],
            [
              127.2816196,
              36.6451429
            ],
            [
              127.2840623,
              36.6494134
            ],
            [
              127.2844025,
              36.6499925
            ],
            [
              127.2861494,
              36.6516723
            ],
            [
              127.2886882,
              36.6588982
            ],
            [
              127.28916,
              36.6593223
            ],
            [
              127.2929393,
              36.6598351
            ],
            [
              127.2937142,
              36.6597349
            ],
            [
              127.2944867,
              36.6596306
            ],
            [
              127.2946223,
              36.6596123
            ],
            [
              127.2959274,
              36.65957
            ],
            [
              127.2997456,
              36.66219
            ],
            [
              127.302319,
              36.6657465
            ],
            [
              127.3029578,
              36.6663884
            ],
            [
              127.3038947,
              36.6670643
            ],
            [
              127.3046449,
              36.6674193
            ],
            [
              127.3050817,
              36.6675669
            ],
            [
              127.3050905,
              36.6675699
            ],
            [
              127.306256,
              36.6670719
            ],
            [
              127.3115576,
              36.6662869
            ],
            [
              127.3119673,
              36.665357
            ],
            [
              127.3139034,
              36.6644488
            ],
            [
              127.3143612,
              36.6644248
            ],
            [
              127.3195625,
              36.6669821
            ],
            [
              127.3209764,
              36.6680888
            ],
            [
              127.3227398,
              36.668417
            ],
            [
              127.3234506,
              36.6678574
            ],
            [
              127.3245776,
              36.6659049
            ],
            [
              127.3246458,
              36.6653386
            ]
          ]
        ]
      },
      "properties": {
        "x": "983867",
        "y": "1847956",
        "adm_cd": "33043110",
        "adm_nm": "충청북도 청주시 흥덕구 오송읍"
      }
    }
  ]
}