{"type": "FeatureCollection", "features": [{"type": "Feature", "properties": {"name": "조치원지하차도", "highway": "tertiary", "osm_id": 182813808, "origin": "OBSERVED"}, "geometry": {"type": "LineString", "coordinates": [[127.2947612, 36.6036484], [127.2959911, 36.6037701]]}}, {"type": "Feature", "properties": {"name": "OSM feature", "highway": "residential", "osm_id": 206801991, "origin": "OBSERVED"}, "geometry": {"type": "LineString", "coordinates": [[127.3460485, 36.6481894], [127.3461325, 36.6478525]]}}, {"type": "Feature", "properties": {"name": "OSM feature", "highway": "residential", "osm_id": 217835347, "origin": "OBSERVED"}, "geometry": {"type": "LineString", "coordinates": [[127.3965454, 36.6132466], [127.3960856, 36.6130681]]}}, {"type": "Feature", "properties": {"name": "OSM feature", "highway": "track", "osm_id": 217835351, "origin": "OBSERVED"}, "geometry": {"type": "LineString", "coordinates": [[127.40008, 36.6175761], [127.3998172, 36.6173308]]}}, {"type": "Feature", "properties": {"name": "조치원로", "highway": "pedestrian", "osm_id": 324942365, "origin": "OBSERVED"}, "geometry": {"type": "LineString", "coordinates": [[127.2965968, 36.5970522], [127.2971105, 36.597219]]}}, {"type": "Feature", "properties": {"name": "OSM feature", "highway": "pedestrian", "osm_id": 324942398, "origin": "OBSERVED"}, "geometry": {"type": "LineString", "coordinates": [[127.2963311, 36.5969917], [127.2963581, 36.5969962], [127.2965968, 36.5970522]]}}, {"type": "Feature", "properties": {"name": "OSM feature", "highway": "tertiary", "osm_id": 326332422, "origin": "OBSERVED"}, "geometry": {"type": "LineString", "coordinates": [[127.330987, 36.6232422], [127.3309205, 36.6235331]]}}, {"type": "Feature", "properties": {"name": "OSM feature", "highway": "service", "osm_id": 468657956, "origin": "OBSERVED"}, "geometry": {"type": "LineString", "coordinates": [[127.3257079, 36.6275673], [127.3257358, 36.6274915], [127.3256952, 36.6273969], [127.3256362, 36.6273578]]}}, {"type": "Feature", "properties": {"name": "OSM feature", "highway": "residential", "osm_id": 473913240, "origin": "OBSERVED"}, "geometry": {"type": "LineString", "coordinates": [[127.3550632, 36.582568], [127.355295, 36.5825974]]}}, {"type": "Feature", "properties": {"name": "조치원로", "highway": "footway", "osm_id": 475819977, "origin": "OBSERVED"}, "geometry": {"type": "LineString", "coordinates": [[127.2959781, 36.6038182], [127.2947517, 36.6036907]]}}, {"type": "Feature", "properties": {"name": "OSM feature", "highway": "service", "osm_id": 476267321, "origin": "OBSERVED"}, "geometry": {"type": "LineString", "coordinates": [[127.2966793, 36.6149258], [127.2965793, 36.6150607], [127.29651, 36.6156892]]}}, {"type": "Feature", "properties": {"name": "조치원로", "highway": "residential", "osm_id": 476863520, "origin": "OBSERVED"}, "geometry": {"type": "LineString", "coordinates": [[127.302145, 36.5945871], [127.302187, 36.5943538], [127.3022038, 36.5942843], [127.3022264, 36.5942357], [127.3023146, 36.5941738], [127.3024775, 36.5941034]]}}, {"type": "Feature", "properties": {"name": "조치원로", "highway": "residential", "osm_id": 476863522, "origin": "OBSERVED"}, "geometry": {"type": "LineString", "coordinates": [[127.3013642, 36.592893], [127.3014403, 36.5927257], [127.3016164, 36.5926097]]}}, {"type": "Feature", "properties": {"name": "OSM feature", "highway": "residential", "osm_id": 476952615, "origin": "OBSERVED"}, "geometry": {"type": "LineString", "coordinates": [[127.3310461, 36.5954295], [127.3315747, 36.5951138]]}}, {"type": "Feature", "properties": {"name": "OSM feature", "highway": "residential", "osm_id": 483439720, "origin": "OBSERVED"}, "geometry": {"type": "LineString", "coordinates": [[127.3526993, 36.597922], [127.3524, 36.5975547]]}}, {"type": "Feature", "properties": {"name": "OSM feature", "highway": "residential", "osm_id": 483439721, "origin": "OBSERVED"}, "geometry": {"type": "LineString", "coordinates": [[127.3509464, 36.5966479], [127.3505951, 36.5963041]]}}, {"type": "Feature", "properties": {"name": "OSM feature", "highway": "residential", "osm_id": 493466697, "origin": "OBSERVED"}, "geometry": {"type": "LineString", "coordinates": [[127.3899121, 36.6445071], [127.3904238, 36.6443325]]}}, {"type": "Feature", "properties": {"name": "OSM feature", "highway": "residential", "osm_id": 493466699, "origin": "OBSERVED"}, "geometry": {"type": "LineString", "coordinates": [[127.3858553, 36.647507], [127.3853285, 36.6478952]]}}, {"type": "Feature", "properties": {"name": "OSM feature", "highway": "residential", "osm_id": 528455290, "origin": "OBSERVED"}, "geometry": {"type": "LineString", "coordinates": [[127.2745051, 36.6436613], [127.274743, 36.6437999]]}}, {"type": "Feature", "properties": {"name": "OSM feature", "highway": "residential", "osm_id": 528455303, "origin": "OBSERVED"}, "geometry": {"type": "LineString", "coordinates": [[127.2816976, 36.6385713], [127.2818657, 36.6387374]]}}, {"type": "Feature", "properties": {"name": "궁평지하차도", "highway": "tertiary", "osm_id": 556705089, "origin": "OBSERVED"}, "geometry": {"type": "LineString", "coordinates": [[127.3374417, 36.6249829], [127.3377291, 36.6242692]]}}, {"type": "Feature", "properties": {"name": "OSM feature", "highway": "residential", "osm_id": 575590568, "origin": "OBSERVED"}, "geometry": {"type": "LineString", "coordinates": [[127.3305707, 36.6229019], [127.3304279, 36.6232234]]}}, {"type": "Feature", "properties": {"name": "OSM feature", "highway": "service", "osm_id": 576222778, "origin": "OBSERVED"}, "geometry": {"type": "LineString", "coordinates": [[127.3569368, 36.6439056], [127.3571633, 36.6436283]]}}, {"type": "Feature", "properties": {"name": "OSM feature", "highway": "service", "osm_id": 576226176, "origin": "OBSERVED"}, "geometry": {"type": "LineString", "coordinates": [[127.3704689, 36.6637873], [127.3709644, 36.6637333]]}}, {"type": "Feature", "properties": {"name": "OSM feature", "highway": "tertiary", "osm_id": 585462391, "origin": "OBSERVED"}, "geometry": {"type": "LineString", "coordinates": [[127.3254652, 36.6415077], [127.325385, 36.6413626]]}}, {"type": "Feature", "properties": {"name": "OSM feature", "highway": "service", "osm_id": 585635249, "origin": "OBSERVED"}, "geometry": {"type": "LineString", "coordinates": [[127.2932542, 36.6500566], [127.293575, 36.6504326]]}}, {"type": "Feature", "properties": {"name": "오송생명11로", "highway": "tertiary", "osm_id": 647622778, "origin": "OBSERVED"}, "geometry": {"type": "LineString", "coordinates": [[127.3190622, 36.6158632], [127.3193948, 36.615586], [127.3195614, 36.6154319], [127.3199889, 36.6147465]]}}, {"type": "Feature", "properties": {"name": "OSM feature", "highway": "tertiary", "osm_id": 647622865, "origin": "OBSERVED"}, "geometry": {"type": "LineString", "coordinates": [[127.2985919, 36.636877], [127.2957798, 36.636459], [127.2952368, 36.6363998], [127.2945894, 36.6364835], [127.2939242, 36.6366355]]}}, {"type": "Feature", "properties": {"name": "OSM feature", "highway": "tertiary", "osm_id": 647622868, "origin": "OBSERVED"}, "geometry": {"type": "LineString", "coordinates": [[127.29381, 36.6363296], [127.2945993, 36.6361934], [127.295277, 36.6361507], [127.2958551, 36.636165], [127.298612, 36.6365851]]}}, {"type": "Feature", "properties": {"name": "미호강변로", "highway": "secondary", "osm_id": 647718908, "origin": "OBSERVED"}, "geometry": {"type": "LineString", "coordinates": [[127.3456244, 36.6246001], [127.3455296, 36.6240002], [127.3453911, 36.6231925], [127.3450568, 36.6217879], [127.3446802, 36.620829]]}}, {"type": "Feature", "properties": {"name": "미호강변로", "highway": "secondary", "osm_id": 647718915, "origin": "OBSERVED"}, "geometry": {"type": "LineString", "coordinates": [[127.3447832, 36.6208022], [127.3448499, 36.620947], [127.3451865, 36.6218138], [127.3455046, 36.6231704], [127.3456266, 36.6239037], [127.3457114, 36.624588]]}}, {"type": "Feature", "properties": {"name": "OSM feature", "highway": "residential", "osm_id": 744249166, "origin": "OBSERVED"}, "geometry": {"type": "LineString", "coordinates": [[127.3745264, 36.648483], [127.3751246, 36.6489587]]}}, {"type": "Feature", "properties": {"name": "OSM feature", "highway": "service", "osm_id": 744249177, "origin": "OBSERVED"}, "geometry": {"type": "LineString", "coordinates": [[127.3860996, 36.6499033], [127.3864359, 36.649656]]}}, {"type": "Feature", "properties": {"name": "OSM feature", "highway": "service", "osm_id": 744249179, "origin": "OBSERVED"}, "geometry": {"type": "LineString", "coordinates": [[127.3859774, 36.6443384], [127.3855306, 36.6439601]]}}, {"type": "Feature", "properties": {"name": "OSM feature", "highway": "service", "osm_id": 744249209, "origin": "OBSERVED"}, "geometry": {"type": "LineString", "coordinates": [[127.3749056, 36.6735414], [127.3743593, 36.6737419]]}}, {"type": "Feature", "properties": {"name": "OSM feature", "highway": "service", "osm_id": 744249211, "origin": "OBSERVED"}, "geometry": {"type": "LineString", "coordinates": [[127.3722493, 36.6791583], [127.3715961, 36.6788568]]}}, {"type": "Feature", "properties": {"name": "OSM feature", "highway": "service", "osm_id": 762867184, "origin": "OBSERVED"}, "geometry": {"type": "LineString", "coordinates": [[127.3912797, 36.6522042], [127.3914639, 36.652358]]}}, {"type": "Feature", "properties": {"name": "OSM feature", "highway": "service", "osm_id": 762867192, "origin": "OBSERVED"}, "geometry": {"type": "LineString", "coordinates": [[127.3865828, 36.6557884], [127.3867573, 36.6559369]]}}, {"type": "Feature", "properties": {"name": "OSM feature", "highway": "secondary_link", "osm_id": 762870497, "origin": "OBSERVED"}, "geometry": {"type": "LineString", "coordinates": [[127.3431131, 36.6172956], [127.3431201, 36.6174043], [127.3431108, 36.6174961], [127.3430752, 36.6176611], [127.3429816, 36.6178082]]}}, {"type": "Feature", "properties": {"name": "OSM feature", "highway": "track", "osm_id": 782870969, "origin": "OBSERVED"}, "geometry": {"type": "LineString", "coordinates": [[127.3972498, 36.6568094], [127.3969402, 36.657036]]}}, {"type": "Feature", "properties": {"name": "OSM feature", "highway": "service", "osm_id": 782870971, "origin": "OBSERVED"}, "geometry": {"type": "LineString", "coordinates": [[127.3989423, 36.6559166], [127.3990229, 36.6557096]]}}, {"type": "Feature", "properties": {"name": "OSM feature", "highway": "track", "osm_id": 782870976, "origin": "OBSERVED"}, "geometry": {"type": "LineString", "coordinates": [[127.4001906, 36.657253], [127.3998898, 36.6574748]]}}, {"type": "Feature", "properties": {"name": "OSM feature", "highway": "track", "osm_id": 782870983, "origin": "OBSERVED"}, "geometry": {"type": "LineString", "coordinates": [[127.3904517, 36.654404], [127.3900646, 36.6546891]]}}, {"type": "Feature", "properties": {"name": "OSM feature", "highway": "cycleway", "osm_id": 783632615, "origin": "OBSERVED"}, "geometry": {"type": "LineString", "coordinates": [[127.2896678, 36.6053097], [127.2892661, 36.6052928]]}}, {"type": "Feature", "properties": {"name": "OSM feature", "highway": "cycleway", "osm_id": 783632617, "origin": "OBSERVED"}, "geometry": {"type": "LineString", "coordinates": [[127.2886941, 36.6052385], [127.2885114, 36.6052057]]}}, {"type": "Feature", "properties": {"name": "OSM feature", "highway": "cycleway", "osm_id": 783632619, "origin": "OBSERVED"}, "geometry": {"type": "LineString", "coordinates": [[127.287655, 36.6049723], [127.2875546, 36.604886], [127.2874752, 36.604768]]}}, {"type": "Feature", "properties": {"name": "OSM feature", "highway": "cycleway", "osm_id": 783648118, "origin": "OBSERVED"}, "geometry": {"type": "LineString", "coordinates": [[127.2946169, 36.6033946], [127.2946144, 36.6034394], [127.2946321, 36.6034757], [127.2946755, 36.6035261], [127.2947175, 36.6035568]]}}, {"type": "Feature", "properties": {"name": "OSM feature", "highway": "footway", "osm_id": 783648119, "origin": "OBSERVED"}, "geometry": {"type": "LineString", "coordinates": [[127.2947175, 36.6035568], [127.2947419, 36.6035733], [127.2950038, 36.6035891], [127.2959956, 36.6037242]]}}, {"type": "Feature", "properties": {"name": "OSM feature", "highway": "service", "osm_id": 786215938, "origin": "OBSERVED"}, "geometry": {"type": "LineString", "coordinates": [[127.2868243, 36.5940576], [127.2865639, 36.5940327]]}}, {"type": "Feature", "properties": {"name": "OSM feature", "highway": "service", "osm_id": 866887849, "origin": "OBSERVED"}, "geometry": {"type": "LineString", "coordinates": [[127.3601334, 36.643571], [127.3603006, 36.6433767]]}}, {"type": "Feature", "properties": {"name": "OSM feature", "highway": "service", "osm_id": 887779453, "origin": "OBSERVED"}, "geometry": {"type": "LineString", "coordinates": [[127.3387253, 36.6047181], [127.3385784, 36.6046736]]}}, {"type": "Feature", "properties": {"name": "OSM feature", "highway": "service", "osm_id": 887779455, "origin": "OBSERVED"}, "geometry": {"type": "LineString", "coordinates": [[127.3402743, 36.604978], [127.3398331, 36.6049887]]}}, {"type": "Feature", "properties": {"name": "OSM feature", "highway": "service", "osm_id": 910787985, "origin": "OBSERVED"}, "geometry": {"type": "LineString", "coordinates": [[127.3190672, 36.6184392], [127.319253, 36.6182656]]}}, {"type": "Feature", "properties": {"name": "OSM feature", "highway": "service", "osm_id": 910787989, "origin": "OBSERVED"}, "geometry": {"type": "LineString", "coordinates": [[127.3203472, 36.6172993], [127.3205427, 36.6171204]]}}, {"type": "Feature", "properties": {"name": "오송생명11로", "highway": "tertiary", "osm_id": 988994000, "origin": "OBSERVED"}, "geometry": {"type": "LineString", "coordinates": [[127.3201153, 36.6147966], [127.3196901, 36.6155039], [127.3195381, 36.6156637], [127.3192444, 36.615897], [127.3191862, 36.6159432]]}}, {"type": "Feature", "properties": {"name": "궁평지하차도", "highway": "tertiary", "osm_id": 988994037, "origin": "OBSERVED"}, "geometry": {"type": "LineString", "coordinates": [[127.3378636, 36.6243081], [127.3375927, 36.6250013]]}}, {"type": "Feature", "properties": {"name": "OSM feature", "highway": "service", "osm_id": 989021066, "origin": "OBSERVED"}, "geometry": {"type": "LineString", "coordinates": [[127.325926, 36.6287465], [127.3259768, 36.628766], [127.3260347, 36.628766], [127.3260723, 36.6287399], [127.3260998, 36.6287024], [127.326056, 36.6286192]]}}, {"type": "Feature", "properties": {"name": "OSM feature", "highway": "service", "osm_id": 989021078, "origin": "OBSERVED"}, "geometry": {"type": "LineString", "coordinates": [[127.3263831, 36.6307145], [127.3266353, 36.6307842]]}}, {"type": "Feature", "properties": {"name": "OSM feature", "highway": "service", "osm_id": 989022991, "origin": "OBSERVED"}, "geometry": {"type": "LineString", "coordinates": [[127.326321, 36.6267861], [127.3262579, 36.6267356], [127.3262206, 36.6266793], [127.3262065, 36.6266156], [127.3262135, 36.6265632]]}}, {"type": "Feature", "properties": {"name": "OSM feature", "highway": "service", "osm_id": 989022998, "origin": "OBSERVED"}, "geometry": {"type": "LineString", "coordinates": [[127.3286418, 36.6299079], [127.3289171, 36.6298149]]}}, {"type": "Feature", "properties": {"name": "OSM feature", "highway": "service", "osm_id": 989023002, "origin": "OBSERVED"}, "geometry": {"type": "LineString", "coordinates": [[127.3282452, 36.6291315], [127.3281408, 36.6289416]]}}, {"type": "Feature", "properties": {"name": "OSM feature", "highway": "service", "osm_id": 989023007, "origin": "OBSERVED"}, "geometry": {"type": "LineString", "coordinates": [[127.3292, 36.6282088], [127.3291907, 36.6282538], [127.3292257, 36.6283512], [127.3292794, 36.6283775]]}}, {"type": "Feature", "properties": {"name": "OSM feature", "highway": "service", "osm_id": 989023011, "origin": "OBSERVED"}, "geometry": {"type": "LineString", "coordinates": [[127.3307154, 36.6297604], [127.3307411, 36.6298016], [127.3307831, 36.6298353], [127.3308438, 36.629841], [127.3308905, 36.6298147], [127.3309232, 36.6297885], [127.3309279, 36.6297585], [127.3309232, 36.6297341]]}}, {"type": "Feature", "properties": {"name": "OSM feature", "highway": "service", "osm_id": 989023015, "origin": "OBSERVED"}, "geometry": {"type": "LineString", "coordinates": [[127.3297534, 36.6293463], [127.329716, 36.6293331], [127.3296507, 36.6291945], [127.3296621, 36.6291681], [127.3296693, 36.6291514]]}}, {"type": "Feature", "properties": {"name": "OSM feature", "highway": "service", "osm_id": 989023019, "origin": "OBSERVED"}, "geometry": {"type": "LineString", "coordinates": [[127.3318488, 36.6271988], [127.3319132, 36.6271815], [127.3319722, 36.6271945], [127.3320151, 36.6272332], [127.3320259, 36.6272784], [127.3320071, 36.6273042], [127.3319776, 36.6273279]]}}, {"type": "Feature", "properties": {"name": "OSM feature", "highway": "service", "osm_id": 989023027, "origin": "OBSERVED"}, "geometry": {"type": "LineString", "coordinates": [[127.3304904, 36.6284194], [127.3304356, 36.6284438], [127.3303685, 36.6284357], [127.330336, 36.6284063], [127.3303197, 36.6283721], [127.3303258, 36.6283394], [127.3303624, 36.6283084]]}}, {"type": "Feature", "properties": {"name": "OSM feature", "highway": "service", "osm_id": 989023029, "origin": "OBSERVED"}, "geometry": {"type": "LineString", "coordinates": [[127.3323794, 36.6282156], [127.3324197, 36.6282005], [127.3324639, 36.6281973], [127.3325095, 36.6282016], [127.3325471, 36.6282274], [127.3325538, 36.6282575], [127.3325484, 36.6282844], [127.3325377, 36.6283049], [127.3325042, 36.6283339]]}}, {"type": "Feature", "properties": {"name": "OSM feature", "highway": "service", "osm_id": 989023031, "origin": "OBSERVED"}, "geometry": {"type": "LineString", "coordinates": [[127.3326398, 36.6286841], [127.3326888, 36.6286653], [127.332732, 36.6286653], [127.3327857, 36.6286841], [127.3328009, 36.6287215], [127.3328032, 36.6287515], [127.332795, 36.6287787], [127.332781, 36.6287974], [127.3327542, 36.6288143]]}}, {"type": "Feature", "properties": {"name": "OSM feature", "highway": "service", "osm_id": 989036848, "origin": "OBSERVED"}, "geometry": {"type": "LineString", "coordinates": [[127.3277546, 36.6342528], [127.3277816, 36.6342017], [127.3279164, 36.6341525], [127.3280071, 36.6341643]]}}, {"type": "Feature", "properties": {"name": "OSM feature", "highway": "service", "osm_id": 989036852, "origin": "OBSERVED"}, "geometry": {"type": "LineString", "coordinates": [[127.3285783, 36.6358561], [127.3286714, 36.6358836], [127.3288626, 36.6358285]]}}, {"type": "Feature", "properties": {"name": "OSM feature", "highway": "service", "osm_id": 989036857, "origin": "OBSERVED"}, "geometry": {"type": "LineString", "coordinates": [[127.329449, 36.6356048], [127.3292873, 36.6356586]]}}, {"type": "Feature", "properties": {"name": "OSM feature", "highway": "service", "osm_id": 989036859, "origin": "OBSERVED"}, "geometry": {"type": "LineString", "coordinates": [[127.3292179, 36.6355128], [127.3293769, 36.6354631]]}}, {"type": "Feature", "properties": {"name": "OSM feature", "highway": "service", "osm_id": 989894672, "origin": "OBSERVED"}, "geometry": {"type": "LineString", "coordinates": [[127.3830404, 36.6721558], [127.3830731, 36.6721895], [127.3830987, 36.6722232], [127.3831057, 36.67227], [127.3830871, 36.6723225], [127.3830287, 36.6723805]]}}, {"type": "Feature", "properties": {"name": "OSM feature", "highway": "service", "osm_id": 989894677, "origin": "OBSERVED"}, "geometry": {"type": "LineString", "coordinates": [[127.3808554, 36.6715304], [127.3808656, 36.6714946], [127.3809022, 36.6714571], [127.3809652, 36.6714359], [127.3810709, 36.6714636], [127.3811082, 36.6714943]]}}, {"type": "Feature", "properties": {"name": "OSM feature", "highway": "service", "osm_id": 989894679, "origin": "OBSERVED"}, "geometry": {"type": "LineString", "coordinates": [[127.3815102, 36.6731862], [127.381558, 36.6732174], [127.3815881, 36.6732572], [127.3815969, 36.6732912], [127.3815686, 36.6733324], [127.3815261, 36.6733622], [127.3814925, 36.673375], [127.381443, 36.6733778]]}}, {"type": "Feature", "properties": {"name": "OSM feature", "highway": "service", "osm_id": 989894681, "origin": "OBSERVED"}, "geometry": {"type": "LineString", "coordinates": [[127.3800841, 36.6729328], [127.3799956, 36.6729129], [127.3799142, 36.6729115], [127.3798842, 36.6729285], [127.3798674, 36.6729626], [127.3798735, 36.6730038]]}}, {"type": "Feature", "properties": {"name": "조치원로", "highway": "footway", "osm_id": 1035030796, "origin": "OBSERVED"}, "geometry": {"type": "LineString", "coordinates": [[127.2947517, 36.6036907], [127.2946898, 36.6037092], [127.2945917, 36.6037783], [127.294556, 36.6038096], [127.2945379, 36.6038502]]}}, {"type": "Feature", "properties": {"name": "대동지하차도", "highway": "tertiary", "osm_id": 1039274063, "origin": "OBSERVED"}, "geometry": {"type": "LineString", "coordinates": [[127.2977821, 36.5964502], [127.2969899, 36.5961992]]}}, {"type": "Feature", "properties": {"name": "대동지하차도", "highway": "tertiary", "osm_id": 1039274064, "origin": "OBSERVED"}, "geometry": {"type": "LineString", "coordinates": [[127.2970336, 36.5961263], [127.297678, 36.5963438], [127.297832, 36.5963958]]}}, {"type": "Feature", "properties": {"name": "OSM feature", "highway": "footway", "osm_id": 1039274070, "origin": "OBSERVED"}, "geometry": {"type": "LineString", "coordinates": [[127.2985211, 36.5966935], [127.2977524, 36.5965155], [127.2969561, 36.5962473]]}}, {"type": "Feature", "properties": {"name": "OSM feature", "highway": "unclassified", "osm_id": 1101136480, "origin": "OBSERVED"}, "geometry": {"type": "LineString", "coordinates": [[127.3753027, 36.654348], [127.3751059, 36.6544927]]}}, {"type": "Feature", "properties": {"name": "OSM feature", "highway": "service", "osm_id": 1101136482, "origin": "OBSERVED"}, "geometry": {"type": "LineString", "coordinates": [[127.37749, 36.6558835], [127.3773301, 36.6560644]]}}, {"type": "Feature", "properties": {"name": "OSM feature", "highway": "track", "osm_id": 1101136484, "origin": "OBSERVED"}, "geometry": {"type": "LineString", "coordinates": [[127.3790687, 36.6571115], [127.3788277, 36.6572652]]}}, {"type": "Feature", "properties": {"name": "OSM feature", "highway": "track", "osm_id": 1101136486, "origin": "OBSERVED"}, "geometry": {"type": "LineString", "coordinates": [[127.3814663, 36.659305], [127.3811711, 36.6595529]]}}, {"type": "Feature", "properties": {"name": "OSM feature", "highway": "service", "osm_id": 1101185607, "origin": "OBSERVED"}, "geometry": {"type": "LineString", "coordinates": [[127.3552256, 36.6356185], [127.355033, 36.6357478]]}}, {"type": "Feature", "properties": {"name": "OSM feature", "highway": "track", "osm_id": 1101942134, "origin": "OBSERVED"}, "geometry": {"type": "LineString", "coordinates": [[127.3403852, 36.6122735], [127.3400165, 36.6123611]]}}, {"type": "Feature", "properties": {"name": "OSM feature", "highway": "track", "osm_id": 1101942136, "origin": "OBSERVED"}, "geometry": {"type": "LineString", "coordinates": [[127.3421106, 36.6164016], [127.3426085, 36.6162184]]}}, {"type": "Feature", "properties": {"name": "OSM feature", "highway": "track", "osm_id": 1101942140, "origin": "OBSERVED"}, "geometry": {"type": "LineString", "coordinates": [[127.3359079, 36.5999539], [127.3361242, 36.5996851]]}}, {"type": "Feature", "properties": {"name": "미호천길", "highway": "track", "osm_id": 1101942142, "origin": "OBSERVED"}, "geometry": {"type": "LineString", "coordinates": [[127.3279551, 36.5919019], [127.32822, 36.5916578]]}}, {"type": "Feature", "properties": {"name": "OSM feature", "highway": "service", "osm_id": 1101957664, "origin": "OBSERVED"}, "geometry": {"type": "LineString", "coordinates": [[127.3339007, 36.6119744], [127.3343325, 36.6122802]]}}, {"type": "Feature", "properties": {"name": "OSM feature", "highway": "unclassified", "osm_id": 1131071869, "origin": "OBSERVED"}, "geometry": {"type": "LineString", "coordinates": [[127.3586808, 36.5922925], [127.3584271, 36.5921839]]}}, {"type": "Feature", "properties": {"name": "OSM feature", "highway": "unclassified", "osm_id": 1181141861, "origin": "OBSERVED"}, "geometry": {"type": "LineString", "coordinates": [[127.3779167, 36.6394976], [127.3788216, 36.6397155]]}}, {"type": "Feature", "properties": {"name": "OSM feature", "highway": "service", "osm_id": 1181142146, "origin": "OBSERVED"}, "geometry": {"type": "LineString", "coordinates": [[127.377629, 36.6406793], [127.378255, 36.6408661]]}}, {"type": "Feature", "properties": {"name": "OSM feature", "highway": "unclassified", "osm_id": 1183408517, "origin": "OBSERVED"}, "geometry": {"type": "LineString", "coordinates": [[127.3943188, 36.5892912], [127.3945712, 36.589181]]}}, {"type": "Feature", "properties": {"name": "3순환로", "highway": "trunk", "osm_id": 1305343149, "origin": "OBSERVED"}, "geometry": {"type": "LineString", "coordinates": [[127.3913587, 36.6312994], [127.3914934, 36.6310081]]}}, {"type": "Feature", "properties": {"name": "3순환로", "highway": "trunk", "osm_id": 1305343150, "origin": "OBSERVED"}, "geometry": {"type": "LineString", "coordinates": [[127.3915933, 36.6310289], [127.3914564, 36.631325]]}}, {"type": "Feature", "properties": {"name": "황탄리길", "highway": "residential", "osm_id": 1418861988, "origin": "OBSERVED"}, "geometry": {"type": "LineString", "coordinates": [[127.3531857, 36.5923254], [127.3536409, 36.5922147]]}}, {"type": "Feature", "properties": {"name": "세종포천고속도로오송지선", "highway": "construction", "osm_id": 1420071247, "origin": "OBSERVED"}, "geometry": {"type": "LineString", "coordinates": [[127.2801065, 36.6527347], [127.2834354, 36.6536727], [127.2905465, 36.6541774]]}}, {"type": "Feature", "properties": {"name": "세종포천고속도로오송지선", "highway": "construction", "osm_id": 1420071260, "origin": "OBSERVED"}, "geometry": {"type": "LineString", "coordinates": [[127.2901997, 36.6547104], [127.2834797, 36.6540052], [127.2801696, 36.6530608]]}}, {"type": "Feature", "properties": {"name": "세종포천고속도로오송지선", "highway": "construction", "osm_id": 1455138310, "origin": "OBSERVED"}, "geometry": {"type": "LineString", "coordinates": [[127.3032201, 36.6475515], [127.3010401, 36.6500878], [127.29802, 36.6523469]]}}, {"type": "Feature", "properties": {"name": "세종포천고속도로오송지선", "highway": "construction", "osm_id": 1455138311, "origin": "OBSERVED"}, "geometry": {"type": "LineString", "coordinates": [[127.2978244, 36.6519823], [127.3008294, 36.6499072], [127.3030438, 36.6474924]]}}, {"type": "Feature", "properties": {"name": "OSM feature", "highway": "residential", "osm_id": 1464390009, "origin": "OBSERVED"}, "geometry": {"type": "LineString", "coordinates": [[127.319021, 36.6273158], [127.3193434, 36.6275296]]}}, {"type": "Feature", "properties": {"name": "석화지하차도", "highway": "residential", "osm_id": 1503533007, "origin": "OBSERVED"}, "geometry": {"type": "LineString", "coordinates": [[127.3609371, 36.6250635], [127.3608467, 36.6241819]]}}, {"type": "Feature", "properties": {"name": "연제길", "highway": "residential", "osm_id": 1551458994, "origin": "OBSERVED"}, "geometry": {"type": "LineString", "coordinates": [[127.323042, 36.6235953], [127.3235494, 36.6239664]]}}]}