{"type": "FeatureCollection", "features": [{"type": "Feature", "properties": {"name": "고려대학교 세종캠퍼스", "amenity": "university", "osm_id": 227115256, "origin": "OBSERVED"}, "geometry": {"type": "Point", "coordinates": [127.28716149611651, 36.610272869902914]}}, {"type": "Feature", "properties": {"name": "한국교원대학교", "amenity": "university", "osm_id": 230620326, "origin": "OBSERVED"}, "geometry": {"type": "Point", "coordinates": [127.35797580666667, 36.609863049999994]}}, {"type": "Feature", "properties": {"name": "OSM feature", "amenity": "parking", "osm_id": 406956694, "origin": "OBSERVED"}, "geometry": {"type": "Point", "coordinates": [127.32991815999999, 36.61958376]}}, {"type": "Feature", "properties": {"name": "학술정보원", "amenity": "library", "osm_id": 434752711, "origin": "OBSERVED"}, "geometry": {"type": "Point", "coordinates": [127.28710103043478, 36.61005626086956]}}, {"type": "Feature", "properties": {"name": "Amphitheater", "amenity": "theatre", "osm_id": 434858530, "origin": "OBSERVED"}, "geometry": {"type": "Point", "coordinates": [127.28172305000001, 36.610471285]}}, {"type": "Feature", "properties": {"name": "OSM feature", "amenity": "parking", "osm_id": 434859985, "origin": "OBSERVED"}, "geometry": {"type": "Point", "coordinates": [127.2884432, 36.61043953]}}, {"type": "Feature", "properties": {"name": "OSM feature", "amenity": "parking", "osm_id": 434859987, "origin": "OBSERVED"}, "geometry": {"type": "Point", "coordinates": [127.28651535384614, 36.61115608461539]}}, {"type": "Feature", "properties": {"name": "OSM feature", "amenity": "parking", "osm_id": 468464910, "origin": "OBSERVED"}, "geometry": {"type": "Point", "coordinates": [127.35773281428571, 36.607760785714284]}}, {"type": "Feature", "properties": {"name": "OSM feature", "amenity": "parking", "osm_id": 468464920, "origin": "OBSERVED"}, "geometry": {"type": "Point", "coordinates": [127.35617084, 36.611040179999996]}}, {"type": "Feature", "properties": {"name": "OSM feature", "amenity": "parking", "osm_id": 468644835, "origin": "OBSERVED"}, "geometry": {"type": "Point", "coordinates": [127.3570313857143, 36.61097155714286]}}, {"type": "Feature", "properties": {"name": "OSM feature", "amenity": "parking", "osm_id": 468644838, "origin": "OBSERVED"}, "geometry": {"type": "Point", "coordinates": [127.35726096, 36.610452880000004]}}, {"type": "Feature", "properties": {"name": "OSM feature", "amenity": "parking", "osm_id": 468644841, "origin": "OBSERVED"}, "geometry": {"type": "Point", "coordinates": [127.35918403999999, 36.61016016]}}, {"type": "Feature", "properties": {"name": "OSM feature", "amenity": "parking", "osm_id": 468644848, "origin": "OBSERVED"}, "geometry": {"type": "Point", "coordinates": [127.36177496666666, 36.60813126666667]}}, {"type": "Feature", "properties": {"name": "OSM feature", "amenity": "parking", "osm_id": 468644857, "origin": "OBSERVED"}, "geometry": {"type": "Point", "coordinates": [127.36201098, 36.61002096]}}, {"type": "Feature", "properties": {"name": "OSM feature", "amenity": "parking", "osm_id": 468644860, "origin": "OBSERVED"}, "geometry": {"type": "Point", "coordinates": [127.35602288, 36.60642174]}}, {"type": "Feature", "properties": {"name": "OSM feature", "amenity": "parking", "osm_id": 468644864, "origin": "OBSERVED"}, "geometry": {"type": "Point", "coordinates": [127.35687102, 36.61207556]}}, {"type": "Feature", "properties": {"name": "OSM feature", "amenity": "parking", "osm_id": 468644867, "origin": "OBSERVED"}, "geometry": {"type": "Point", "coordinates": [127.35629018, 36.612978580000004]}}, {"type": "Feature", "properties": {"name": "OSM feature", "amenity": "parking", "osm_id": 468644869, "origin": "OBSERVED"}, "geometry": {"type": "Point", "coordinates": [127.35679064000001, 36.61287176]}}, {"type": "Feature", "properties": {"name": "도서관(미래관)", "amenity": "library", "osm_id": 468644875, "origin": "OBSERVED"}, "geometry": {"type": "Point", "coordinates": [127.35854855882353, 36.60897804117647]}}, {"type": "Feature", "properties": {"name": "OSM feature", "amenity": "parking", "osm_id": 468650605, "origin": "OBSERVED"}, "geometry": {"type": "Point", "coordinates": [127.35627178, 36.61338796]}}, {"type": "Feature", "properties": {"name": "OSM feature", "amenity": "parking", "osm_id": 468650609, "origin": "OBSERVED"}, "geometry": {"type": "Point", "coordinates": [127.3549897, 36.61509774285714]}}, {"type": "Feature", "properties": {"name": "OSM feature", "amenity": "parking", "osm_id": 468653958, "origin": "OBSERVED"}, "geometry": {"type": "Point", "coordinates": [127.36121376000001, 36.60935236]}}, {"type": "Feature", "properties": {"name": "OSM feature", "amenity": "parking", "osm_id": 468653967, "origin": "OBSERVED"}, "geometry": {"type": "Point", "coordinates": [127.36201055833334, 36.60553155]}}, {"type": "Feature", "properties": {"name": "오송유치원", "amenity": "kindergarten", "osm_id": 468654446, "origin": "OBSERVED"}, "geometry": {"type": "Point", "coordinates": [127.32560276, 36.62868942]}}, {"type": "Feature", "properties": {"name": "OSM feature", "amenity": "parking", "osm_id": 468672298, "origin": "OBSERVED"}, "geometry": {"type": "Point", "coordinates": [127.35672087999998, 36.613898660000004]}}, {"type": "Feature", "properties": {"name": "OSM feature", "amenity": "parking", "osm_id": 468672313, "origin": "OBSERVED"}, "geometry": {"type": "Point", "coordinates": [127.3601683, 36.606689933333335]}}, {"type": "Feature", "properties": {"name": "OSM feature", "amenity": "parking", "osm_id": 468672325, "origin": "OBSERVED"}, "geometry": {"type": "Point", "coordinates": [127.36086813333333, 36.61247545]}}, {"type": "Feature", "properties": {"name": "OSM feature", "amenity": "parking", "osm_id": 468680268, "origin": "OBSERVED"}, "geometry": {"type": "Point", "coordinates": [127.360067, 36.6134932]}}, {"type": "Feature", "properties": {"name": "OSM feature", "amenity": "parking", "osm_id": 468708600, "origin": "OBSERVED"}, "geometry": {"type": "Point", "coordinates": [127.36105751999999, 36.61073844]}}, {"type": "Feature", "properties": {"name": "OSM feature", "amenity": "parking", "osm_id": 468738233, "origin": "OBSERVED"}, "geometry": {"type": "Point", "coordinates": [127.3575857, 36.6125903]}}, {"type": "Feature", "properties": {"name": "OSM feature", "amenity": "parking", "osm_id": 468738244, "origin": "OBSERVED"}, "geometry": {"type": "Point", "coordinates": [127.36152544, 36.60573754]}}, {"type": "Feature", "properties": {"name": "OSM feature", "amenity": "parking", "osm_id": 468946477, "origin": "OBSERVED"}, "geometry": {"type": "Point", "coordinates": [127.35756311999998, 36.60988690000001]}}, {"type": "Feature", "properties": {"name": "세종도원초둥학교", "amenity": "school", "osm_id": 469068798, "origin": "OBSERVED"}, "geometry": {"type": "Point", "coordinates": [127.2868600909091, 36.5857014]}}, {"type": "Feature", "properties": {"name": "조치원명동초등학교", "amenity": "school", "osm_id": 469361862, "origin": "OBSERVED"}, "geometry": {"type": "Point", "coordinates": [127.30475799000001, 36.60128695]}}, {"type": "Feature", "properties": {"name": "OSM feature", "amenity": "parking", "osm_id": 469362280, "origin": "OBSERVED"}, "geometry": {"type": "Point", "coordinates": [127.30509610769231, 36.60033381025641]}}, {"type": "Feature", "properties": {"name": "OSM feature", "amenity": "parking", "osm_id": 469395380, "origin": "OBSERVED"}, "geometry": {"type": "Point", "coordinates": [127.30373292499999, 36.603861175]}}, {"type": "Feature", "properties": {"name": "OSM feature", "amenity": "parking", "osm_id": 470125425, "origin": "OBSERVED"}, "geometry": {"type": "Point", "coordinates": [127.36751396, 36.62185452]}}, {"type": "Feature", "properties": {"name": "OSM feature", "amenity": "parking", "osm_id": 470125430, "origin": "OBSERVED"}, "geometry": {"type": "Point", "coordinates": [127.36876362000001, 36.61933512]}}, {"type": "Feature", "properties": {"name": "OSM feature", "amenity": "parking", "osm_id": 470125431, "origin": "OBSERVED"}, "geometry": {"type": "Point", "coordinates": [127.3695492375, 36.619362775]}}, {"type": "Feature", "properties": {"name": "OSM feature", "amenity": "parking", "osm_id": 470125432, "origin": "OBSERVED"}, "geometry": {"type": "Point", "coordinates": [127.36670521666667, 36.61966795833333]}}, {"type": "Feature", "properties": {"name": "OSM feature", "amenity": "library", "osm_id": 470125433, "origin": "OBSERVED"}, "geometry": {"type": "Point", "coordinates": [127.36906512727273, 36.61800906363636]}}, {"type": "Feature", "properties": {"name": "운동장", "amenity": "school", "osm_id": 470125445, "origin": "OBSERVED"}, "geometry": {"type": "Point", "coordinates": [127.36758317333333, 36.61741247333334]}}, {"type": "Feature", "properties": {"name": "OSM feature", "amenity": "community_centre", "osm_id": 471355817, "origin": "OBSERVED"}, "geometry": {"type": "Point", "coordinates": [127.28408744761906, 36.615709095238095]}}, {"type": "Feature", "properties": {"name": "OSM feature", "amenity": "parking", "osm_id": 471475720, "origin": "OBSERVED"}, "geometry": {"type": "Point", "coordinates": [127.28877412, 36.614031880000006]}}, {"type": "Feature", "properties": {"name": "OSM feature", "amenity": "parking", "osm_id": 471475730, "origin": "OBSERVED"}, "geometry": {"type": "Point", "coordinates": [127.29818173999999, 36.61153122]}}, {"type": "Feature", "properties": {"name": "OSM feature", "amenity": "parking", "osm_id": 471475731, "origin": "OBSERVED"}, "geometry": {"type": "Point", "coordinates": [127.29828447142857, 36.61095905714286]}}, {"type": "Feature", "properties": {"name": "OSM feature", "amenity": "parking", "osm_id": 471482385, "origin": "OBSERVED"}, "geometry": {"type": "Point", "coordinates": [127.29155455, 36.602228333333336]}}, {"type": "Feature", "properties": {"name": "OSM feature", "amenity": "parking", "osm_id": 471482386, "origin": "OBSERVED"}, "geometry": {"type": "Point", "coordinates": [127.29048435, 36.60223295]}}, {"type": "Feature", "properties": {"name": "OSM feature", "amenity": "parking", "osm_id": 471482387, "origin": "OBSERVED"}, "geometry": {"type": "Point", "coordinates": [127.29105594444445, 36.6026259]}}, {"type": "Feature", "properties": {"name": "OSM feature", "amenity": "parking", "osm_id": 471693832, "origin": "OBSERVED"}, "geometry": {"type": "Point", "coordinates": [127.30414436000001, 36.60443236]}}, {"type": "Feature", "properties": {"name": "OSM feature", "amenity": "parking", "osm_id": 471693833, "origin": "OBSERVED"}, "geometry": {"type": "Point", "coordinates": [127.30533721666666, 36.60452595]}}, {"type": "Feature", "properties": {"name": "OSM feature", "amenity": "parking", "osm_id": 472314326, "origin": "OBSERVED"}, "geometry": {"type": "Point", "coordinates": [127.28468282000001, 36.616778239999995]}}, {"type": "Feature", "properties": {"name": "OSM feature", "amenity": "parking", "osm_id": 472314341, "origin": "OBSERVED"}, "geometry": {"type": "Point", "coordinates": [127.28593385714285, 36.61562935714286]}}, {"type": "Feature", "properties": {"name": "OSM feature", "amenity": "parking", "osm_id": 472314342, "origin": "OBSERVED"}, "geometry": {"type": "Point", "coordinates": [127.28649902, 36.615653599999995]}}, {"type": "Feature", "properties": {"name": "OSM feature", "amenity": "parking", "osm_id": 472554741, "origin": "OBSERVED"}, "geometry": {"type": "Point", "coordinates": [127.2996705875, 36.61257895]}}, {"type": "Feature", "properties": {"name": "OSM feature", "amenity": "parking", "osm_id": 472554747, "origin": "OBSERVED"}, "geometry": {"type": "Point", "coordinates": [127.29879455000001, 36.6106963]}}, {"type": "Feature", "properties": {"name": "상봉교회", "amenity": "place_of_worship", "osm_id": 472643084, "origin": "OBSERVED"}, "geometry": {"type": "Point", "coordinates": [127.28859136000001, 36.638140199999995]}}, {"type": "Feature", "properties": {"name": "OSM feature", "amenity": "parking", "osm_id": 472925297, "origin": "OBSERVED"}, "geometry": {"type": "Point", "coordinates": [127.28592809999999, 36.621807483333335]}}, {"type": "Feature", "properties": {"name": "OSM feature", "amenity": "parking", "osm_id": 472925299, "origin": "OBSERVED"}, "geometry": {"type": "Point", "coordinates": [127.28607485, 36.621650669999994]}}, {"type": "Feature", "properties": {"name": "OSM feature", "amenity": "parking", "osm_id": 472925310, "origin": "OBSERVED"}, "geometry": {"type": "Point", "coordinates": [127.28730286, 36.62361016]}}, {"type": "Feature", "properties": {"name": "OSM feature", "amenity": "parking", "osm_id": 472925314, "origin": "OBSERVED"}, "geometry": {"type": "Point", "coordinates": [127.28727068, 36.62376418]}}, {"type": "Feature", "properties": {"name": "OSM feature", "amenity": "parking", "osm_id": 472925315, "origin": "OBSERVED"}, "geometry": {"type": "Point", "coordinates": [127.28745752, 36.623655480000004]}}, {"type": "Feature", "properties": {"name": "OSM feature", "amenity": "parking", "osm_id": 472925318, "origin": "OBSERVED"}, "geometry": {"type": "Point", "coordinates": [127.28716755999999, 36.62355578]}}, {"type": "Feature", "properties": {"name": "OSM feature", "amenity": "parking", "osm_id": 472925342, "origin": "OBSERVED"}, "geometry": {"type": "Point", "coordinates": [127.29025953749999, 36.6209200125]}}, {"type": "Feature", "properties": {"name": "신안1리마을회관", "amenity": "townhall", "osm_id": 472925393, "origin": "OBSERVED"}, "geometry": {"type": "Point", "coordinates": [127.28679568, 36.61680304]}}, {"type": "Feature", "properties": {"name": "연서면사무소", "amenity": "townhall", "osm_id": 473694115, "origin": "OBSERVED"}, "geometry": {"type": "Point", "coordinates": [127.27158471764706, 36.59256824117647]}}, {"type": "Feature", "properties": {"name": "월하1리마을회관", "amenity": "townhall", "osm_id": 473699106, "origin": "OBSERVED"}, "geometry": {"type": "Point", "coordinates": [127.27439078, 36.593734080000004]}}, {"type": "Feature", "properties": {"name": "쭈꾸미 , 추어탕", "amenity": "restaurant", "osm_id": 473830076, "origin": "OBSERVED"}, "geometry": {"type": "Point", "coordinates": [127.29051911666666, 36.63481323333333]}}, {"type": "Feature", "properties": {"name": "OSM feature", "amenity": "parking", "osm_id": 473830077, "origin": "OBSERVED"}, "geometry": {"type": "Point", "coordinates": [127.29066454545455, 36.634520381818184]}}, {"type": "Feature", "properties": {"name": "OSM feature", "amenity": "place_of_worship", "osm_id": 473830096, "origin": "OBSERVED"}, "geometry": {"type": "Point", "coordinates": [127.29015340000001, 36.63217034]}}, {"type": "Feature", "properties": {"name": "한국교원대부설 미호중학교", "amenity": "school", "osm_id": 473913228, "origin": "OBSERVED"}, "geometry": {"type": "Point", "coordinates": [127.36682688421052, 36.623182773684206]}}, {"type": "Feature", "properties": {"name": "한국교원대부설 월곡초등학교", "amenity": "school", "osm_id": 473913229, "origin": "OBSERVED"}, "geometry": {"type": "Point", "coordinates": [127.3629890764706, 36.6228258117647]}}, {"type": "Feature", "properties": {"name": "충청대학교", "amenity": "university", "osm_id": 473913231, "origin": "OBSERVED"}, "geometry": {"type": "Point", "coordinates": [127.3681306, 36.61940966363637]}}, {"type": "Feature", "properties": {"name": "세종경찰서", "amenity": "police", "osm_id": 474100399, "origin": "OBSERVED"}, "geometry": {"type": "Point", "coordinates": [127.2948943826087, 36.588351878260866]}}, {"type": "Feature", "properties": {"name": "침산2리마을회관", "amenity": "townhall", "osm_id": 474190957, "origin": "OBSERVED"}, "geometry": {"type": "Point", "coordinates": [127.29205634, 36.6035901]}}, {"type": "Feature", "properties": {"name": "조치원읍 행정복지센터", "amenity": "townhall", "osm_id": 475087350, "origin": "OBSERVED"}, "geometry": {"type": "Point", "coordinates": [127.29853629285715, 36.604594764285714]}}, {"type": "Feature", "properties": {"name": "대전지방법원 세종시법원", "amenity": "courthouse", "osm_id": 475087352, "origin": "OBSERVED"}, "geometry": {"type": "Point", "coordinates": [127.29897196000002, 36.6044725]}}, {"type": "Feature", "properties": {"name": "OSM feature", "amenity": "parking_space", "osm_id": 475087353, "origin": "OBSERVED"}, "geometry": {"type": "Point", "coordinates": [127.29830528, 36.60424188]}}, {"type": "Feature", "properties": {"name": "OSM feature", "amenity": "parking_space", "osm_id": 475087354, "origin": "OBSERVED"}, "geometry": {"type": "Point", "coordinates": [127.29844804, 36.6042545]}}, {"type": "Feature", "properties": {"name": "OSM feature", "amenity": "parking_space", "osm_id": 475087355, "origin": "OBSERVED"}, "geometry": {"type": "Point", "coordinates": [127.29864744000001, 36.6043216]}}, {"type": "Feature", "properties": {"name": "OSM feature", "amenity": "parking_space", "osm_id": 475087356, "origin": "OBSERVED"}, "geometry": {"type": "Point", "coordinates": [127.29870659999999, 36.604209680000004]}}, {"type": "Feature", "properties": {"name": "정중1리 노인정", "amenity": "community_centre", "osm_id": 475264666, "origin": "OBSERVED"}, "geometry": {"type": "Point", "coordinates": [127.30031105, 36.62209573333333]}}, {"type": "Feature", "properties": {"name": "주차장", "amenity": "parking", "osm_id": 475406442, "origin": "OBSERVED"}, "geometry": {"type": "Point", "coordinates": [127.35250746666667, 36.660140122222224]}}, {"type": "Feature", "properties": {"name": "OSM feature", "amenity": "parking_space", "osm_id": 475406443, "origin": "OBSERVED"}, "geometry": {"type": "Point", "coordinates": [127.3510332, 36.66100401999999]}}, {"type": "Feature", "properties": {"name": "옥산중학교", "amenity": "school", "osm_id": 475408370, "origin": "OBSERVED"}, "geometry": {"type": "Point", "coordinates": [127.37057813125, 36.6707132875]}}, {"type": "Feature", "properties": {"name": "신안골분식", "amenity": "restaurant", "osm_id": 475652420, "origin": "OBSERVED"}, "geometry": {"type": "Point", "coordinates": [127.28824454000001, 36.61585386]}}, {"type": "Feature", "properties": {"name": "홍카페", "amenity": "cafe", "osm_id": 475652421, "origin": "OBSERVED"}, "geometry": {"type": "Point", "coordinates": [127.28977239999999, 36.61388058]}}, {"type": "Feature", "properties": {"name": "BBQ 조치원점", "amenity": "fast_food", "osm_id": 475652432, "origin": "OBSERVED"}, "geometry": {"type": "Point", "coordinates": [127.29111418, 36.61398856]}}, {"type": "Feature", "properties": {"name": "OSM feature", "amenity": "parking", "osm_id": 475819985, "origin": "OBSERVED"}, "geometry": {"type": "Point", "coordinates": [127.2984931, 36.59381456]}}, {"type": "Feature", "properties": {"name": "세종시보건소", "amenity": "clinic", "osm_id": 475823117, "origin": "OBSERVED"}, "geometry": {"type": "Point", "coordinates": [127.296487385, 36.605650475]}}, {"type": "Feature", "properties": {"name": "마포숯불갈비", "amenity": "restaurant", "osm_id": 475982841, "origin": "OBSERVED"}, "geometry": {"type": "Point", "coordinates": [127.38210372, 36.6671197]}}, {"type": "Feature", "properties": {"name": "세종경찰서 조치원지구대", "amenity": "police", "osm_id": 476263696, "origin": "OBSERVED"}, "geometry": {"type": "Point", "coordinates": [127.29800242000002, 36.60442028]}}, {"type": "Feature", "properties": {"name": "옥산초등학교", "amenity": "school", "osm_id": 478857720, "origin": "OBSERVED"}, "geometry": {"type": "Point", "coordinates": [127.37285373529411, 36.66414977647059]}}, {"type": "Feature", "properties": {"name": "옥산면행정복지센터", "amenity": "townhall", "osm_id": 478857734, "origin": "OBSERVED"}, "geometry": {"type": "Point", "coordinates": [127.37563839230769, 36.66466966923077]}}, {"type": "Feature", "properties": {"name": "옥산보건지소", "amenity": "clinic", "osm_id": 478857736, "origin": "OBSERVED"}, "geometry": {"type": "Point", "coordinates": [127.37615941818181, 36.66485420909091]}}, {"type": "Feature", "properties": {"name": "충청대학", "amenity": "bus_station", "osm_id": 491717980, "origin": "OBSERVED"}, "geometry": {"type": "Point", "coordinates": [127.3691964, 36.62097138]}}, {"type": "Feature", "properties": {"name": "OSM feature", "amenity": "place_of_worship", "osm_id": 545486562, "origin": "OBSERVED"}, "geometry": {"type": "Point", "coordinates": [127.30102474, 36.5945947]}}, {"type": "Feature", "properties": {"name": "OSM feature", "amenity": "parking", "osm_id": 545486578, "origin": "OBSERVED"}, "geometry": {"type": "Point", "coordinates": [127.30142498000001, 36.59451858]}}, {"type": "Feature", "properties": {"name": "OSM feature", "amenity": "parking", "osm_id": 545487739, "origin": "OBSERVED"}, "geometry": {"type": "Point", "coordinates": [127.2988102111111, 36.61107706666667]}}, {"type": "Feature", "properties": {"name": "OSM feature", "amenity": "place_of_worship", "osm_id": 545771790, "origin": "OBSERVED"}, "geometry": {"type": "Point", "coordinates": [127.2887984857143, 36.6437809]}}, {"type": "Feature", "properties": {"name": "OSM feature", "amenity": "place_of_worship", "osm_id": 545771791, "origin": "OBSERVED"}, "geometry": {"type": "Point", "coordinates": [127.28901212000001, 36.64383602]}}, {"type": "Feature", "properties": {"name": "OSM feature", "amenity": "place_of_worship", "osm_id": 545771792, "origin": "OBSERVED"}, "geometry": {"type": "Point", "coordinates": [127.28888722000002, 36.6440674]}}, {"type": "Feature", "properties": {"name": "OSM feature", "amenity": "school", "osm_id": 545771794, "origin": "OBSERVED"}, "geometry": {"type": "Point", "coordinates": [127.28673627142858, 36.63879852380952]}}, {"type": "Feature", "properties": {"name": "서촌초등학교", "amenity": "school", "osm_id": 656429119, "origin": "OBSERVED"}, "geometry": {"type": "Point", "coordinates": [127.39940659677418, 36.650342890322584]}}, {"type": "Feature", "properties": {"name": "OSM feature", "amenity": "parking", "osm_id": 656429122, "origin": "OBSERVED"}, "geometry": {"type": "Point", "coordinates": [127.39929098, 36.65080174]}}, {"type": "Feature", "properties": {"name": "OSM feature", "amenity": "parking", "osm_id": 656429123, "origin": "OBSERVED"}, "geometry": {"type": "Point", "coordinates": [127.3992254, 36.65092498]}}, {"type": "Feature", "properties": {"name": "OSM feature", "amenity": "parking", "osm_id": 656434825, "origin": "OBSERVED"}, "geometry": {"type": "Point", "coordinates": [127.39742559999999, 36.64757042]}}, {"type": "Feature", "properties": {"name": "OSM feature", "amenity": "parking", "osm_id": 656434854, "origin": "OBSERVED"}, "geometry": {"type": "Point", "coordinates": [127.39859744, 36.64621376]}}, {"type": "Feature", "properties": {"name": "OSM feature", "amenity": "parking", "osm_id": 656434855, "origin": "OBSERVED"}, "geometry": {"type": "Point", "coordinates": [127.39876497999998, 36.646378219999995]}}, {"type": "Feature", "properties": {"name": "OSM feature", "amenity": "parking", "osm_id": 656434857, "origin": "OBSERVED"}, "geometry": {"type": "Point", "coordinates": [127.39882992, 36.6462712]}}, {"type": "Feature", "properties": {"name": "OSM feature", "amenity": "parking", "osm_id": 656434859, "origin": "OBSERVED"}, "geometry": {"type": "Point", "coordinates": [127.39896447999999, 36.64619128]}}, {"type": "Feature", "properties": {"name": "OSM feature", "amenity": "parking", "osm_id": 656434863, "origin": "OBSERVED"}, "geometry": {"type": "Point", "coordinates": [127.39801392307693, 36.64610936923077]}}, {"type": "Feature", "properties": {"name": "남리 주차장", "amenity": "parking", "osm_id": 662069026, "origin": "OBSERVED"}, "geometry": {"type": "Point", "coordinates": [127.29954714545455, 36.5949660090909]}}, {"type": "Feature", "properties": {"name": "세종특별자치시 교육연구원", "amenity": "library", "osm_id": 662070367, "origin": "OBSERVED"}, "geometry": {"type": "Point", "coordinates": [127.28787433333332, 36.6004394]}}, {"type": "Feature", "properties": {"name": "세종문화예술회관", "amenity": "theatre", "osm_id": 662070368, "origin": "OBSERVED"}, "geometry": {"type": "Point", "coordinates": [127.28748573125, 36.59975051875]}}, {"type": "Feature", "properties": {"name": "OSM feature", "amenity": "parking", "osm_id": 662070554, "origin": "OBSERVED"}, "geometry": {"type": "Point", "coordinates": [127.28775995000001, 36.599396391666666]}}, {"type": "Feature", "properties": {"name": "조치원역 자전거보관소", "amenity": "bicycle_parking", "osm_id": 678851722, "origin": "OBSERVED"}, "geometry": {"type": "Point", "coordinates": [127.29627955714285, 36.60153228571429]}}, {"type": "Feature", "properties": {"name": "조치원주차타워", "amenity": "parking", "osm_id": 697163620, "origin": "OBSERVED"}, "geometry": {"type": "Point", "coordinates": [127.2978736142857, 36.60060482857143]}}, {"type": "Feature", "properties": {"name": "OSM feature", "amenity": "parking", "osm_id": 697163622, "origin": "OBSERVED"}, "geometry": {"type": "Point", "coordinates": [127.30000030000001, 36.59977842]}}, {"type": "Feature", "properties": {"name": "OSM feature", "amenity": "parking", "osm_id": 697163623, "origin": "OBSERVED"}, "geometry": {"type": "Point", "coordinates": [127.3026648, 36.60146554000001]}}, {"type": "Feature", "properties": {"name": "메가박스 세종", "amenity": "cinema", "osm_id": 697163979, "origin": "OBSERVED"}, "geometry": {"type": "Point", "coordinates": [127.29818515714285, 36.602875014285715]}}, {"type": "Feature", "properties": {"name": "OSM feature", "amenity": "parking", "osm_id": 763409991, "origin": "OBSERVED"}, "geometry": {"type": "Point", "coordinates": [127.32659960714285, 36.61923767857143]}}, {"type": "Feature", "properties": {"name": "국립리버파크자이어린이집", "amenity": "school", "osm_id": 775144886, "origin": "OBSERVED"}, "geometry": {"type": "Point", "coordinates": [127.39110608333333, 36.67484281666667]}}, {"type": "Feature", "properties": {"name": "OSM feature", "amenity": "parking", "osm_id": 775164259, "origin": "OBSERVED"}, "geometry": {"type": "Point", "coordinates": [127.38899388333334, 36.67771076666667]}}, {"type": "Feature", "properties": {"name": "OSM feature", "amenity": "parking", "osm_id": 775570982, "origin": "OBSERVED"}, "geometry": {"type": "Point", "coordinates": [127.38997434000001, 36.6735703]}}, {"type": "Feature", "properties": {"name": "청주소로초등학교", "amenity": "school", "osm_id": 775597199, "origin": "OBSERVED"}, "geometry": {"type": "Point", "coordinates": [127.39038707777779, 36.672407122222225]}}, {"type": "Feature", "properties": {"name": "OSM feature", "amenity": "parking", "osm_id": 775599207, "origin": "OBSERVED"}, "geometry": {"type": "Point", "coordinates": [127.39111261428572, 36.67269768571429]}}, {"type": "Feature", "properties": {"name": "문화자동차운전전문학원", "amenity": "driving_school", "osm_id": 777233915, "origin": "OBSERVED"}, "geometry": {"type": "Point", "coordinates": [127.29499124285714, 36.61051512857143]}}, {"type": "Feature", "properties": {"name": "세종서창행복주택 주차장", "amenity": "parking", "osm_id": 777239142, "origin": "OBSERVED"}, "geometry": {"type": "Point", "coordinates": [127.29723725, 36.6119401]}}, {"type": "Feature", "properties": {"name": "서창1리마을회관", "amenity": "townhall", "osm_id": 777239157, "origin": "OBSERVED"}, "geometry": {"type": "Point", "coordinates": [127.29720858, 36.61266862]}}, {"type": "Feature", "properties": {"name": "OSM feature", "amenity": "parking", "osm_id": 777281340, "origin": "OBSERVED"}, "geometry": {"type": "Point", "coordinates": [127.29489458, 36.59594216000001]}}, {"type": "Feature", "properties": {"name": "OSM feature", "amenity": "parking", "osm_id": 777281341, "origin": "OBSERVED"}, "geometry": {"type": "Point", "coordinates": [127.2944974, 36.5958214]}}, {"type": "Feature", "properties": {"name": "세상의빛교회", "amenity": "place_of_worship", "osm_id": 777281349, "origin": "OBSERVED"}, "geometry": {"type": "Point", "coordinates": [127.29532621999999, 36.59601585]}}, {"type": "Feature", "properties": {"name": "세종시노인복지관", "amenity": "social_facility", "osm_id": 777284520, "origin": "OBSERVED"}, "geometry": {"type": "Point", "coordinates": [127.30339527999999, 36.600704099999994]}}, {"type": "Feature", "properties": {"name": "조치원공영버스터미널", "amenity": "bus_station", "osm_id": 777284522, "origin": "OBSERVED"}, "geometry": {"type": "Point", "coordinates": [127.3026244875, 36.601907175]}}, {"type": "Feature", "properties": {"name": "NH농협은행", "amenity": "bank", "osm_id": 777284524, "origin": "OBSERVED"}, "geometry": {"type": "Point", "coordinates": [127.29838434545455, 36.60159549090909]}}, {"type": "Feature", "properties": {"name": "조치원우체국", "amenity": "post_office", "osm_id": 777284527, "origin": "OBSERVED"}, "geometry": {"type": "Point", "coordinates": [127.298313625, 36.602467025]}}, {"type": "Feature", "properties": {"name": "원리119지역대", "amenity": "fire_station", "osm_id": 777284530, "origin": "OBSERVED"}, "geometry": {"type": "Point", "coordinates": [127.29652264, 36.602056700000006]}}, {"type": "Feature", "properties": {"name": "OSM feature", "amenity": "parking", "osm_id": 777287819, "origin": "OBSERVED"}, "geometry": {"type": "Point", "coordinates": [127.29089073333334, 36.60487833333334]}}, {"type": "Feature", "properties": {"name": "OSM feature", "amenity": "parking", "osm_id": 777287820, "origin": "OBSERVED"}, "geometry": {"type": "Point", "coordinates": [127.29132908333334, 36.604933433333336]}}, {"type": "Feature", "properties": {"name": "OSM feature", "amenity": "parking", "osm_id": 777287823, "origin": "OBSERVED"}, "geometry": {"type": "Point", "coordinates": [127.29023898, 36.604817]}}, {"type": "Feature", "properties": {"name": "OSM feature", "amenity": "parking", "osm_id": 777297299, "origin": "OBSERVED"}, "geometry": {"type": "Point", "coordinates": [127.2884777875, 36.5979386625]}}, {"type": "Feature", "properties": {"name": "OSM feature", "amenity": "parking", "osm_id": 777297300, "origin": "OBSERVED"}, "geometry": {"type": "Point", "coordinates": [127.2880111, 36.59856643333333]}}, {"type": "Feature", "properties": {"name": "OSM feature", "amenity": "place_of_worship", "osm_id": 777297324, "origin": "OBSERVED"}, "geometry": {"type": "Point", "coordinates": [127.29323524000002, 36.598512799999995]}}, {"type": "Feature", "properties": {"name": "OSM feature", "amenity": "place_of_worship", "osm_id": 777297325, "origin": "OBSERVED"}, "geometry": {"type": "Point", "coordinates": [127.29292654000001, 36.598616199999995]}}, {"type": "Feature", "properties": {"name": "침산1리마을회관", "amenity": "townhall", "osm_id": 777297328, "origin": "OBSERVED"}, "geometry": {"type": "Point", "coordinates": [127.29385824, 36.60009312]}}, {"type": "Feature", "properties": {"name": "OSM feature", "amenity": "parking", "osm_id": 777459745, "origin": "OBSERVED"}, "geometry": {"type": "Point", "coordinates": [127.288321475, 36.601923975000005]}}, {"type": "Feature", "properties": {"name": "OSM feature", "amenity": "parking", "osm_id": 777466737, "origin": "OBSERVED"}, "geometry": {"type": "Point", "coordinates": [127.28944528333334, 36.5996183]}}, {"type": "Feature", "properties": {"name": "조치원어린이도서관", "amenity": "library", "osm_id": 777466756, "origin": "OBSERVED"}, "geometry": {"type": "Point", "coordinates": [127.29422877777779, 36.597405244444445]}}, {"type": "Feature", "properties": {"name": "세종천애안요양원", "amenity": "social_facility", "osm_id": 777466767, "origin": "OBSERVED"}, "geometry": {"type": "Point", "coordinates": [127.29528218, 36.59749624]}}, {"type": "Feature", "properties": {"name": "조치원제일감리교회", "amenity": "place_of_worship", "osm_id": 777466769, "origin": "OBSERVED"}, "geometry": {"type": "Point", "coordinates": [127.29493013333332, 36.59846821666667]}}, {"type": "Feature", "properties": {"name": "조치원중학교", "amenity": "school", "osm_id": 777470387, "origin": "OBSERVED"}, "geometry": {"type": "Point", "coordinates": [127.28627307142857, 36.59548707142857]}}, {"type": "Feature", "properties": {"name": "OSM feature", "amenity": "parking", "osm_id": 777470394, "origin": "OBSERVED"}, "geometry": {"type": "Point", "coordinates": [127.28361768571429, 36.593617685714285]}}, {"type": "Feature", "properties": {"name": "OSM feature", "amenity": "parking", "osm_id": 777470400, "origin": "OBSERVED"}, "geometry": {"type": "Point", "coordinates": [127.28413135, 36.59370508333333]}}, {"type": "Feature", "properties": {"name": "조치원성결교회", "amenity": "place_of_worship", "osm_id": 777470409, "origin": "OBSERVED"}, "geometry": {"type": "Point", "coordinates": [127.29315236666667, 36.607137800000004]}}, {"type": "Feature", "properties": {"name": "OSM feature", "amenity": "parking", "osm_id": 777470410, "origin": "OBSERVED"}, "geometry": {"type": "Point", "coordinates": [127.2936682, 36.606888260000005]}}, {"type": "Feature", "properties": {"name": "세종방송", "amenity": "studio", "osm_id": 777470417, "origin": "OBSERVED"}, "geometry": {"type": "Point", "coordinates": [127.2896524375, 36.606179575]}}, {"type": "Feature", "properties": {"name": "세종전통시장", "amenity": "marketplace", "osm_id": 777474570, "origin": "OBSERVED"}, "geometry": {"type": "Point", "coordinates": [127.30001018000002, 36.601102704]}}, {"type": "Feature", "properties": {"name": "OSM feature", "amenity": "parking", "osm_id": 777474571, "origin": "OBSERVED"}, "geometry": {"type": "Point", "coordinates": [127.29273275999999, 36.6051116]}}, {"type": "Feature", "properties": {"name": "OSM feature", "amenity": "parking", "osm_id": 777474572, "origin": "OBSERVED"}, "geometry": {"type": "Point", "coordinates": [127.29291866000001, 36.605297300000004]}}, {"type": "Feature", "properties": {"name": "서창2리마을회관", "amenity": "townhall", "osm_id": 777731449, "origin": "OBSERVED"}, "geometry": {"type": "Point", "coordinates": [127.29117662000002, 36.60559608]}}, {"type": "Feature", "properties": {"name": "OSM feature", "amenity": "parking", "osm_id": 777731466, "origin": "OBSERVED"}, "geometry": {"type": "Point", "coordinates": [127.29349763999998, 36.60711486]}}, {"type": "Feature", "properties": {"name": "OSM feature", "amenity": "parking", "osm_id": 777731468, "origin": "OBSERVED"}, "geometry": {"type": "Point", "coordinates": [127.29341264, 36.6075726]}}, {"type": "Feature", "properties": {"name": "OSM feature", "amenity": "parking", "osm_id": 777731473, "origin": "OBSERVED"}, "geometry": {"type": "Point", "coordinates": [127.29297154000001, 36.608000020000006]}}, {"type": "Feature", "properties": {"name": "OSM feature", "amenity": "parking", "osm_id": 777731483, "origin": "OBSERVED"}, "geometry": {"type": "Point", "coordinates": [127.29382652, 36.608469080000006]}}, {"type": "Feature", "properties": {"name": "OSM feature", "amenity": "parking", "osm_id": 777731495, "origin": "OBSERVED"}, "geometry": {"type": "Point", "coordinates": [127.29288118, 36.60674944]}}, {"type": "Feature", "properties": {"name": "조치원중앙교회", "amenity": "place_of_worship", "osm_id": 777739752, "origin": "OBSERVED"}, "geometry": {"type": "Point", "coordinates": [127.284087, 36.605314085714284]}}, {"type": "Feature", "properties": {"name": "OSM feature", "amenity": "parking", "osm_id": 777739759, "origin": "OBSERVED"}, "geometry": {"type": "Point", "coordinates": [127.28261428333333, 36.60241283333334]}}, {"type": "Feature", "properties": {"name": "엔제리너스 조치원점", "amenity": "cafe", "osm_id": 778314587, "origin": "OBSERVED"}, "geometry": {"type": "Point", "coordinates": [127.29241721666666, 36.60375343333333]}}, {"type": "Feature", "properties": {"name": "세종교회", "amenity": "place_of_worship", "osm_id": 778324406, "origin": "OBSERVED"}, "geometry": {"type": "Point", "coordinates": [127.29829068, 36.601980420000004]}}, {"type": "Feature", "properties": {"name": "세종우리신협 본점", "amenity": "bank", "osm_id": 778324438, "origin": "OBSERVED"}, "geometry": {"type": "Point", "coordinates": [127.29801062000001, 36.59986838]}}, {"type": "Feature", "properties": {"name": "만수초등학교", "amenity": "school", "osm_id": 778763446, "origin": "OBSERVED"}, "geometry": {"type": "Point", "coordinates": [127.32910423999999, 36.62712666]}}, {"type": "Feature", "properties": {"name": "행복동산교회", "amenity": "place_of_worship", "osm_id": 781577319, "origin": "OBSERVED"}, "geometry": {"type": "Point", "coordinates": [127.29367219999999, 36.603934679999995]}}, {"type": "Feature", "properties": {"name": "OSM feature", "amenity": "parking", "osm_id": 781577325, "origin": "OBSERVED"}, "geometry": {"type": "Point", "coordinates": [127.29363871428572, 36.604148914285716]}}, {"type": "Feature", "properties": {"name": "조치원대동초등학교", "amenity": "school", "osm_id": 787170974, "origin": "OBSERVED"}, "geometry": {"type": "Point", "coordinates": [127.29350233636364, 36.59624396363636]}}, {"type": "Feature", "properties": {"name": "조치원신봉초등학교", "amenity": "school", "osm_id": 787170975, "origin": "OBSERVED"}, "geometry": {"type": "Point", "coordinates": [127.28794884285715, 36.603458833333335]}}, {"type": "Feature", "properties": {"name": "세종여자고등학교", "amenity": "school", "osm_id": 787170978, "origin": "OBSERVED"}, "geometry": {"type": "Point", "coordinates": [127.287305296875, 36.6071262875]}}, {"type": "Feature", "properties": {"name": "세종고등학교", "amenity": "school", "osm_id": 787170981, "origin": "OBSERVED"}, "geometry": {"type": "Point", "coordinates": [127.29945952352942, 36.610708682352936]}}, {"type": "Feature", "properties": {"name": "조치원교동초등학교", "amenity": "school", "osm_id": 787170983, "origin": "OBSERVED"}, "geometry": {"type": "Point", "coordinates": [127.2982373586207, 36.60542816206897]}}, {"type": "Feature", "properties": {"name": "세종중학교", "amenity": "school", "osm_id": 787170984, "origin": "OBSERVED"}, "geometry": {"type": "Point", "coordinates": [127.29786068571428, 36.606546785714286]}}, {"type": "Feature", "properties": {"name": "GS칼텍스 명품주유소", "amenity": "fuel", "osm_id": 788884511, "origin": "OBSERVED"}, "geometry": {"type": "Point", "coordinates": [127.29290444, 36.58467872]}}, {"type": "Feature", "properties": {"name": "OSM feature", "amenity": "car_wash", "osm_id": 789316385, "origin": "OBSERVED"}, "geometry": {"type": "Point", "coordinates": [127.28718965714286, 36.594613471428566]}}, {"type": "Feature", "properties": {"name": "송곡1리 마을회관", "amenity": "townhall", "osm_id": 792602724, "origin": "OBSERVED"}, "geometry": {"type": "Point", "coordinates": [127.27192194, 36.627776340000004]}}, {"type": "Feature", "properties": {"name": "OSM feature", "amenity": "parking", "osm_id": 794431739, "origin": "OBSERVED"}, "geometry": {"type": "Point", "coordinates": [127.29720261428572, 36.59135878571429]}}, {"type": "Feature", "properties": {"name": "OSM feature", "amenity": "parking", "osm_id": 794431741, "origin": "OBSERVED"}, "geometry": {"type": "Point", "coordinates": [127.29542208000001, 36.59144976]}}, {"type": "Feature", "properties": {"name": "노장2리마을회관", "amenity": "townhall", "osm_id": 794448279, "origin": "OBSERVED"}, "geometry": {"type": "Point", "coordinates": [127.27357586000001, 36.65936498]}}, {"type": "Feature", "properties": {"name": "심중2리마을회관", "amenity": "townhall", "osm_id": 795278926, "origin": "OBSERVED"}, "geometry": {"type": "Point", "coordinates": [127.28112616000001, 36.659695299999996]}}, {"type": "Feature", "properties": {"name": "세종셀프세차타운", "amenity": "car_wash", "osm_id": 795307893, "origin": "OBSERVED"}, "geometry": {"type": "Point", "coordinates": [127.29497268571428, 36.58410257142857]}}, {"type": "Feature", "properties": {"name": "홍익대학교 세종캠퍼스", "amenity": "university", "osm_id": 795312568, "origin": "OBSERVED"}, "geometry": {"type": "Point", "coordinates": [127.2873825111111, 36.621041185185184]}}, {"type": "Feature", "properties": {"name": "OSM feature", "amenity": "parking", "osm_id": 795320215, "origin": "OBSERVED"}, "geometry": {"type": "Point", "coordinates": [127.29980812857143, 36.6705023]}}, {"type": "Feature", "properties": {"name": "OSM feature", "amenity": "parking", "osm_id": 795320216, "origin": "OBSERVED"}, "geometry": {"type": "Point", "coordinates": [127.30024824, 36.67060468]}}, {"type": "Feature", "properties": {"name": "OSM feature", "amenity": "parking", "osm_id": 795320217, "origin": "OBSERVED"}, "geometry": {"type": "Point", "coordinates": [127.30047164, 36.67021454]}}, {"type": "Feature", "properties": {"name": "OSM feature", "amenity": "parking", "osm_id": 798279027, "origin": "OBSERVED"}, "geometry": {"type": "Point", "coordinates": [127.28517353333332, 36.59321956666667]}}, {"type": "Feature", "properties": {"name": "OSM feature", "amenity": "parking", "osm_id": 798279028, "origin": "OBSERVED"}, "geometry": {"type": "Point", "coordinates": [127.28647496666667, 36.593568966666666]}}, {"type": "Feature", "properties": {"name": "OSM feature", "amenity": "parking", "osm_id": 798279029, "origin": "OBSERVED"}, "geometry": {"type": "Point", "coordinates": [127.28669834285714, 36.59350611428572]}}, {"type": "Feature", "properties": {"name": "OSM feature", "amenity": "parking", "osm_id": 798279038, "origin": "OBSERVED"}, "geometry": {"type": "Point", "coordinates": [127.2918343, 36.5924488125]}}, {"type": "Feature", "properties": {"name": "OSM feature", "amenity": "parking", "osm_id": 798279039, "origin": "OBSERVED"}, "geometry": {"type": "Point", "coordinates": [127.29268434285714, 36.59242835714286]}}, {"type": "Feature", "properties": {"name": "OSM feature", "amenity": "parking", "osm_id": 798279040, "origin": "OBSERVED"}, "geometry": {"type": "Point", "coordinates": [127.29293007999999, 36.59303082]}}, {"type": "Feature", "properties": {"name": "OSM feature", "amenity": "parking", "osm_id": 798279041, "origin": "OBSERVED"}, "geometry": {"type": "Point", "coordinates": [127.29273756666667, 36.59315895]}}, {"type": "Feature", "properties": {"name": "OSM feature", "amenity": "parking", "osm_id": 798279042, "origin": "OBSERVED"}, "geometry": {"type": "Point", "coordinates": [127.29287484999999, 36.59324561666667]}}, {"type": "Feature", "properties": {"name": "OSM feature", "amenity": "parking", "osm_id": 798279043, "origin": "OBSERVED"}, "geometry": {"type": "Point", "coordinates": [127.29296315, 36.593270849999996]}}, {"type": "Feature", "properties": {"name": "OSM feature", "amenity": "parking", "osm_id": 798279044, "origin": "OBSERVED"}, "geometry": {"type": "Point", "coordinates": [127.29291991666666, 36.593447983333334]}}, {"type": "Feature", "properties": {"name": "OSM feature", "amenity": "parking", "osm_id": 798279045, "origin": "OBSERVED"}, "geometry": {"type": "Point", "coordinates": [127.29294795999999, 36.592936279999996]}}, {"type": "Feature", "properties": {"name": "OSM feature", "amenity": "parking", "osm_id": 798279046, "origin": "OBSERVED"}, "geometry": {"type": "Point", "coordinates": [127.2927872, 36.59281303333333]}}, {"type": "Feature", "properties": {"name": "OSM feature", "amenity": "parking", "osm_id": 798279047, "origin": "OBSERVED"}, "geometry": {"type": "Point", "coordinates": [127.29298336, 36.59270504]}}, {"type": "Feature", "properties": {"name": "OSM feature", "amenity": "parking", "osm_id": 798279048, "origin": "OBSERVED"}, "geometry": {"type": "Point", "coordinates": [127.29257437999999, 36.5926586]}}, {"type": "Feature", "properties": {"name": "OSM feature", "amenity": "parking", "osm_id": 798279049, "origin": "OBSERVED"}, "geometry": {"type": "Point", "coordinates": [127.2929079, 36.59259863333333]}}, {"type": "Feature", "properties": {"name": "OSM feature", "amenity": "parking", "osm_id": 798279050, "origin": "OBSERVED"}, "geometry": {"type": "Point", "coordinates": [127.29334364000002, 36.5927716]}}, {"type": "Feature", "properties": {"name": "죽림어린이집", "amenity": "kindergarten", "osm_id": 798279054, "origin": "OBSERVED"}, "geometry": {"type": "Point", "coordinates": [127.29299545454546, 36.59022996363637]}}, {"type": "Feature", "properties": {"name": "신흥2리마을회관", "amenity": "townhall", "osm_id": 798449512, "origin": "OBSERVED"}, "geometry": {"type": "Point", "coordinates": [127.28726927142858, 36.593726871428565]}}, {"type": "Feature", "properties": {"name": "OSM feature", "amenity": "parking", "osm_id": 798463319, "origin": "OBSERVED"}, "geometry": {"type": "Point", "coordinates": [127.29503382857142, 36.58767757142857]}}, {"type": "Feature", "properties": {"name": "세종경찰서 민원봉사실", "amenity": "police", "osm_id": 798463320, "origin": "OBSERVED"}, "geometry": {"type": "Point", "coordinates": [127.29542903571428, 36.58782560714286]}}, {"type": "Feature", "properties": {"name": "OSM feature", "amenity": "parking", "osm_id": 798463321, "origin": "OBSERVED"}, "geometry": {"type": "Point", "coordinates": [127.29452705714286, 36.58807757142857]}}, {"type": "Feature", "properties": {"name": "OSM feature", "amenity": "parking", "osm_id": 800456637, "origin": "OBSERVED"}, "geometry": {"type": "Point", "coordinates": [127.28412261999999, 36.606650079999994]}}, {"type": "Feature", "properties": {"name": "OSM feature", "amenity": "parking", "osm_id": 800456638, "origin": "OBSERVED"}, "geometry": {"type": "Point", "coordinates": [127.2838802, 36.606697100000005]}}, {"type": "Feature", "properties": {"name": "OSM feature", "amenity": "parking", "osm_id": 800456647, "origin": "OBSERVED"}, "geometry": {"type": "Point", "coordinates": [127.28516243333333, 36.607777066666664]}}, {"type": "Feature", "properties": {"name": "OSM feature", "amenity": "parking", "osm_id": 800456648, "origin": "OBSERVED"}, "geometry": {"type": "Point", "coordinates": [127.28521148, 36.607690559999995]}}, {"type": "Feature", "properties": {"name": "OSM feature", "amenity": "parking", "osm_id": 800456649, "origin": "OBSERVED"}, "geometry": {"type": "Point", "coordinates": [127.28523089999999, 36.60751884]}}, {"type": "Feature", "properties": {"name": "OSM feature", "amenity": "parking", "osm_id": 800456650, "origin": "OBSERVED"}, "geometry": {"type": "Point", "coordinates": [127.2852031, 36.60744103333334]}}, {"type": "Feature", "properties": {"name": "OSM feature", "amenity": "parking", "osm_id": 800456664, "origin": "OBSERVED"}, "geometry": {"type": "Point", "coordinates": [127.28798157000001, 36.60739797]}}, {"type": "Feature", "properties": {"name": "OSM feature", "amenity": "parking", "osm_id": 800456665, "origin": "OBSERVED"}, "geometry": {"type": "Point", "coordinates": [127.2880475, 36.6076875375]}}, {"type": "Feature", "properties": {"name": "OSM feature", "amenity": "parking", "osm_id": 801956149, "origin": "OBSERVED"}, "geometry": {"type": "Point", "coordinates": [127.2976687625, 36.611398775]}}, {"type": "Feature", "properties": {"name": "남리마을회관", "amenity": "townhall", "osm_id": 801956168, "origin": "OBSERVED"}, "geometry": {"type": "Point", "coordinates": [127.30180822857143, 36.59840561428571]}}, {"type": "Feature", "properties": {"name": "미동어린이집", "amenity": "kindergarten", "osm_id": 801956170, "origin": "OBSERVED"}, "geometry": {"type": "Point", "coordinates": [127.29030395625, 36.58265373125]}}, {"type": "Feature", "properties": {"name": "OSM feature", "amenity": "parking", "osm_id": 806460935, "origin": "OBSERVED"}, "geometry": {"type": "Point", "coordinates": [127.29641906666666, 36.60066629999999]}}, {"type": "Feature", "properties": {"name": "OSM feature", "amenity": "parking", "osm_id": 806460937, "origin": "OBSERVED"}, "geometry": {"type": "Point", "coordinates": [127.28894062500001, 36.59189533333333]}}, {"type": "Feature", "properties": {"name": "OSM feature", "amenity": "parking", "osm_id": 806460939, "origin": "OBSERVED"}, "geometry": {"type": "Point", "coordinates": [127.28879305000001, 36.59243203]}}, {"type": "Feature", "properties": {"name": "OSM feature", "amenity": "parking", "osm_id": 816721466, "origin": "OBSERVED"}, "geometry": {"type": "Point", "coordinates": [127.29399487999999, 36.588398129999995]}}, {"type": "Feature", "properties": {"name": "세종도원성당", "amenity": "place_of_worship", "osm_id": 823487049, "origin": "OBSERVED"}, "geometry": {"type": "Point", "coordinates": [127.28842290000001, 36.58706702222222]}}, {"type": "Feature", "properties": {"name": "방탄사", "amenity": "place_of_worship", "osm_id": 827034324, "origin": "OBSERVED"}, "geometry": {"type": "Point", "coordinates": [127.28389358, 36.59294894]}}, {"type": "Feature", "properties": {"name": "물안개광장공원", "amenity": "fountain", "osm_id": 827034329, "origin": "OBSERVED"}, "geometry": {"type": "Point", "coordinates": [127.28576602000001, 36.593502]}}, {"type": "Feature", "properties": {"name": "OSM feature", "amenity": "parking", "osm_id": 827034343, "origin": "OBSERVED"}, "geometry": {"type": "Point", "coordinates": [127.28786405999999, 36.59268142]}}, {"type": "Feature", "properties": {"name": "OSM feature", "amenity": "parking", "osm_id": 837592269, "origin": "OBSERVED"}, "geometry": {"type": "Point", "coordinates": [127.2944706, 36.61058868]}}, {"type": "Feature", "properties": {"name": "주차장4", "amenity": "parking", "osm_id": 837592278, "origin": "OBSERVED"}, "geometry": {"type": "Point", "coordinates": [127.28824415384616, 36.60931351538461]}}, {"type": "Feature", "properties": {"name": "OSM feature", "amenity": "parking", "osm_id": 837592291, "origin": "OBSERVED"}, "geometry": {"type": "Point", "coordinates": [127.28676622352941, 36.59266151764706]}}, {"type": "Feature", "properties": {"name": "OSM feature", "amenity": "parking", "osm_id": 840241371, "origin": "OBSERVED"}, "geometry": {"type": "Point", "coordinates": [127.28675538, 36.62175282]}}, {"type": "Feature", "properties": {"name": "OSM feature", "amenity": "parking", "osm_id": 840241372, "origin": "OBSERVED"}, "geometry": {"type": "Point", "coordinates": [127.28744939999999, 36.62079932]}}, {"type": "Feature", "properties": {"name": "OSM feature", "amenity": "parking", "osm_id": 840241373, "origin": "OBSERVED"}, "geometry": {"type": "Point", "coordinates": [127.28769938, 36.6206766]}}, {"type": "Feature", "properties": {"name": "OSM feature", "amenity": "parking", "osm_id": 840241374, "origin": "OBSERVED"}, "geometry": {"type": "Point", "coordinates": [127.28781388, 36.620560139999995]}}, {"type": "Feature", "properties": {"name": "OSM feature", "amenity": "parking", "osm_id": 840241375, "origin": "OBSERVED"}, "geometry": {"type": "Point", "coordinates": [127.2879287, 36.620446900000005]}}, {"type": "Feature", "properties": {"name": "OSM feature", "amenity": "parking", "osm_id": 840241376, "origin": "OBSERVED"}, "geometry": {"type": "Point", "coordinates": [127.28798904, 36.62036014]}}, {"type": "Feature", "properties": {"name": "OSM feature", "amenity": "parking", "osm_id": 840241377, "origin": "OBSERVED"}, "geometry": {"type": "Point", "coordinates": [127.28799944999999, 36.62015626666666]}}, {"type": "Feature", "properties": {"name": "OSM feature", "amenity": "parking", "osm_id": 840241378, "origin": "OBSERVED"}, "geometry": {"type": "Point", "coordinates": [127.28827980000001, 36.61999072]}}, {"type": "Feature", "properties": {"name": "OSM feature", "amenity": "parking", "osm_id": 840241379, "origin": "OBSERVED"}, "geometry": {"type": "Point", "coordinates": [127.28839648, 36.61936168]}}, {"type": "Feature", "properties": {"name": "OSM feature", "amenity": "parking", "osm_id": 840241380, "origin": "OBSERVED"}, "geometry": {"type": "Point", "coordinates": [127.28840586000001, 36.6192562]}}, {"type": "Feature", "properties": {"name": "OSM feature", "amenity": "parking", "osm_id": 840241384, "origin": "OBSERVED"}, "geometry": {"type": "Point", "coordinates": [127.28614236000001, 36.62358792]}}, {"type": "Feature", "properties": {"name": "OSM feature", "amenity": "parking", "osm_id": 840241385, "origin": "OBSERVED"}, "geometry": {"type": "Point", "coordinates": [127.28618238333333, 36.623051466666666]}}, {"type": "Feature", "properties": {"name": "거송식당", "amenity": "restaurant", "osm_id": 840241389, "origin": "OBSERVED"}, "geometry": {"type": "Point", "coordinates": [127.29249382, 36.61273212]}}, {"type": "Feature", "properties": {"name": "OSM feature", "amenity": "toilets", "osm_id": 840241390, "origin": "OBSERVED"}, "geometry": {"type": "Point", "coordinates": [127.29272972000001, 36.61251742]}}, {"type": "Feature", "properties": {"name": "OSM feature", "amenity": "community_centre", "osm_id": 841920594, "origin": "OBSERVED"}, "geometry": {"type": "Point", "coordinates": [127.2856534, 36.59398994]}}, {"type": "Feature", "properties": {"name": "투썸플레이스 세종신흥점", "amenity": "cafe", "osm_id": 841920599, "origin": "OBSERVED"}, "geometry": {"type": "Point", "coordinates": [127.28782672, 36.592159859999995]}}, {"type": "Feature", "properties": {"name": "OSM feature", "amenity": "parking", "osm_id": 841920604, "origin": "OBSERVED"}, "geometry": {"type": "Point", "coordinates": [127.2874335, 36.592887033333334]}}, {"type": "Feature", "properties": {"name": "OSM feature", "amenity": "parking", "osm_id": 841920605, "origin": "OBSERVED"}, "geometry": {"type": "Point", "coordinates": [127.28767468571428, 36.5930669]}}, {"type": "Feature", "properties": {"name": "OSM feature", "amenity": "parking", "osm_id": 842153064, "origin": "OBSERVED"}, "geometry": {"type": "Point", "coordinates": [127.28629436000001, 36.60452057]}}, {"type": "Feature", "properties": {"name": "노인회관", "amenity": "social_facility", "osm_id": 842163970, "origin": "OBSERVED"}, "geometry": {"type": "Point", "coordinates": [127.2935463888889, 36.601950055555555]}}, {"type": "Feature", "properties": {"name": "상1리마을회관", "amenity": "townhall", "osm_id": 843061397, "origin": "OBSERVED"}, "geometry": {"type": "Point", "coordinates": [127.30368252000001, 36.603151479999994]}}, {"type": "Feature", "properties": {"name": "상1리경로당", "amenity": "social_facility", "osm_id": 843061398, "origin": "OBSERVED"}, "geometry": {"type": "Point", "coordinates": [127.30387505714285, 36.603161928571424]}}, {"type": "Feature", "properties": {"name": "OSM feature", "amenity": "parking", "osm_id": 843061423, "origin": "OBSERVED"}, "geometry": {"type": "Point", "coordinates": [127.29893192222224, 36.60651943333333]}}, {"type": "Feature", "properties": {"name": "OSM feature", "amenity": "hospital", "osm_id": 843061424, "origin": "OBSERVED"}, "geometry": {"type": "Point", "coordinates": [127.2999338, 36.607247300000004]}}, {"type": "Feature", "properties": {"name": "OSM feature", "amenity": "parking", "osm_id": 843163415, "origin": "OBSERVED"}, "geometry": {"type": "Point", "coordinates": [127.28941032857142, 36.588779957142854]}}, {"type": "Feature", "properties": {"name": "OSM feature", "amenity": "parking", "osm_id": 843163418, "origin": "OBSERVED"}, "geometry": {"type": "Point", "coordinates": [127.29078355714286, 36.58891271428571]}}, {"type": "Feature", "properties": {"name": "OSM feature", "amenity": "parking", "osm_id": 843530896, "origin": "OBSERVED"}, "geometry": {"type": "Point", "coordinates": [127.29793265555557, 36.60512171111111]}}, {"type": "Feature", "properties": {"name": "중앙요양병원", "amenity": "hospital", "osm_id": 843530897, "origin": "OBSERVED"}, "geometry": {"type": "Point", "coordinates": [127.28826315, 36.613474625]}}, {"type": "Feature", "properties": {"name": "홍익대학교 국제연수원", "amenity": "school", "osm_id": 843530899, "origin": "OBSERVED"}, "geometry": {"type": "Point", "coordinates": [127.28439526285713, 36.628045425714284]}}, {"type": "Feature", "properties": {"name": "OSM feature", "amenity": "parking", "osm_id": 844275612, "origin": "OBSERVED"}, "geometry": {"type": "Point", "coordinates": [127.29273205714286, 36.596223542857146]}}, {"type": "Feature", "properties": {"name": "조치원농협 본점", "amenity": "bank", "osm_id": 844275634, "origin": "OBSERVED"}, "geometry": {"type": "Point", "coordinates": [127.29562173636364, 36.59549397272727]}}, {"type": "Feature", "properties": {"name": "명리마을회관", "amenity": "townhall", "osm_id": 844275638, "origin": "OBSERVED"}, "geometry": {"type": "Point", "coordinates": [127.30391586, 36.5997111]}}, {"type": "Feature", "properties": {"name": "119특수구조단 화학구조대", "amenity": "fire_station", "osm_id": 844279748, "origin": "OBSERVED"}, "geometry": {"type": "Point", "coordinates": [127.29687364545454, 36.586064954545456]}}, {"type": "Feature", "properties": {"name": "OSM feature", "amenity": "parking", "osm_id": 844612116, "origin": "OBSERVED"}, "geometry": {"type": "Point", "coordinates": [127.299332575, 36.599096016666664]}}, {"type": "Feature", "properties": {"name": "OSM feature", "amenity": "parking", "osm_id": 844612118, "origin": "OBSERVED"}, "geometry": {"type": "Point", "coordinates": [127.2998641, 36.598949766666664]}}, {"type": "Feature", "properties": {"name": "세종두리울작은도서관", "amenity": "library", "osm_id": 844612120, "origin": "OBSERVED"}, "geometry": {"type": "Point", "coordinates": [127.29985672000001, 36.598569659999995]}}, {"type": "Feature", "properties": {"name": "OSM feature", "amenity": "parking", "osm_id": 844612124, "origin": "OBSERVED"}, "geometry": {"type": "Point", "coordinates": [127.30162666666666, 36.595192]}}, {"type": "Feature", "properties": {"name": "OSM feature", "amenity": "place_of_worship", "osm_id": 844612127, "origin": "OBSERVED"}, "geometry": {"type": "Point", "coordinates": [127.29998468, 36.59830316]}}, {"type": "Feature", "properties": {"name": "OSM feature", "amenity": "place_of_worship", "osm_id": 844612128, "origin": "OBSERVED"}, "geometry": {"type": "Point", "coordinates": [127.30008027142857, 36.597974528571434]}}, {"type": "Feature", "properties": {"name": "OSM feature", "amenity": "place_of_worship", "osm_id": 844612129, "origin": "OBSERVED"}, "geometry": {"type": "Point", "coordinates": [127.30027851, 36.59793929]}}, {"type": "Feature", "properties": {"name": "OSM feature", "amenity": "parking", "osm_id": 846496537, "origin": "OBSERVED"}, "geometry": {"type": "Point", "coordinates": [127.29283441666666, 36.590075166666665]}}, {"type": "Feature", "properties": {"name": "OSM feature", "amenity": "parking", "osm_id": 846720373, "origin": "OBSERVED"}, "geometry": {"type": "Point", "coordinates": [127.3039962, 36.60123278]}}, {"type": "Feature", "properties": {"name": "근로복지공단세종어린이집", "amenity": "kindergarten", "osm_id": 846720379, "origin": "OBSERVED"}, "geometry": {"type": "Point", "coordinates": [127.30104802000001, 36.59716048]}}, {"type": "Feature", "properties": {"name": "신흥3리마을회관", "amenity": "townhall", "osm_id": 847193865, "origin": "OBSERVED"}, "geometry": {"type": "Point", "coordinates": [127.28992607999999, 36.59675838]}}, {"type": "Feature", "properties": {"name": "세종시장애인복지관", "amenity": "social_facility", "osm_id": 847193881, "origin": "OBSERVED"}, "geometry": {"type": "Point", "coordinates": [127.29536360909091, 36.586643631818184]}}, {"type": "Feature", "properties": {"name": "OSM feature", "amenity": "parking", "osm_id": 847603886, "origin": "OBSERVED"}, "geometry": {"type": "Point", "coordinates": [127.29468825555556, 36.59722662222222]}}, {"type": "Feature", "properties": {"name": "보연사", "amenity": "place_of_worship", "osm_id": 849177204, "origin": "OBSERVED"}, "geometry": {"type": "Point", "coordinates": [127.2897097, 36.5826542]}}, {"type": "Feature", "properties": {"name": "번암1리(안동네)노인정", "amenity": "social_facility", "osm_id": 849177213, "origin": "OBSERVED"}, "geometry": {"type": "Point", "coordinates": [127.29055441999999, 36.58311436]}}, {"type": "Feature", "properties": {"name": "OSM feature", "amenity": "parking", "osm_id": 849177214, "origin": "OBSERVED"}, "geometry": {"type": "Point", "coordinates": [127.29039741428572, 36.58295071428571]}}, {"type": "Feature", "properties": {"name": "OSM feature", "amenity": "parking", "osm_id": 849177218, "origin": "OBSERVED"}, "geometry": {"type": "Point", "coordinates": [127.29424458333334, 36.58593093333334]}}, {"type": "Feature", "properties": {"name": "번암1리마을회관", "amenity": "townhall", "osm_id": 849177220, "origin": "OBSERVED"}, "geometry": {"type": "Point", "coordinates": [127.29453466, 36.585753999999994]}}, {"type": "Feature", "properties": {"name": "OSM feature", "amenity": "parking", "osm_id": 849177232, "origin": "OBSERVED"}, "geometry": {"type": "Point", "coordinates": [127.27136257777778, 36.5922441]}}, {"type": "Feature", "properties": {"name": "OSM feature", "amenity": "parking", "osm_id": 849177233, "origin": "OBSERVED"}, "geometry": {"type": "Point", "coordinates": [127.27169058571428, 36.592262885714284]}}, {"type": "Feature", "properties": {"name": "한유에너지 중부주유소", "amenity": "fuel", "osm_id": 849433120, "origin": "OBSERVED"}, "geometry": {"type": "Point", "coordinates": [127.29271548888889, 36.58052662222222]}}, {"type": "Feature", "properties": {"name": "한유에너지 중부CNG충전소", "amenity": "fuel", "osm_id": 849433121, "origin": "OBSERVED"}, "geometry": {"type": "Point", "coordinates": [127.29277400000001, 36.5807783]}}, {"type": "Feature", "properties": {"name": "푸른초원교회", "amenity": "place_of_worship", "osm_id": 849433125, "origin": "OBSERVED"}, "geometry": {"type": "Point", "coordinates": [127.29327554999999, 36.590250149999996]}}, {"type": "Feature", "properties": {"name": "죽림복지마을회관", "amenity": "social_facility", "osm_id": 849433129, "origin": "OBSERVED"}, "geometry": {"type": "Point", "coordinates": [127.2949126, 36.591551300000006]}}, {"type": "Feature", "properties": {"name": "죽림4리복지마을회관", "amenity": "social_facility", "osm_id": 849433131, "origin": "OBSERVED"}, "geometry": {"type": "Point", "coordinates": [127.29666002857142, 36.59366944285715]}}, {"type": "Feature", "properties": {"name": "침산커뮤니티센터", "amenity": "community_centre", "osm_id": 849489959, "origin": "OBSERVED"}, "geometry": {"type": "Point", "coordinates": [127.29403858333335, 36.60027853333333]}}, {"type": "Feature", "properties": {"name": "OSM feature", "amenity": "parking", "osm_id": 849506484, "origin": "OBSERVED"}, "geometry": {"type": "Point", "coordinates": [127.29710963333332, 36.589868333333335]}}, {"type": "Feature", "properties": {"name": "조치원농협 시장지점", "amenity": "bank", "osm_id": 849971442, "origin": "OBSERVED"}, "geometry": {"type": "Point", "coordinates": [127.2990087375, 36.6002687625]}}, {"type": "Feature", "properties": {"name": "OSM feature", "amenity": "parking", "osm_id": 857307685, "origin": "OBSERVED"}, "geometry": {"type": "Point", "coordinates": [127.29213196666666, 36.58981286666667]}}, {"type": "Feature", "properties": {"name": "OSM feature", "amenity": "shelter", "osm_id": 857307691, "origin": "OBSERVED"}, "geometry": {"type": "Point", "coordinates": [127.29206198, 36.58997572]}}, {"type": "Feature", "properties": {"name": "독립주유소", "amenity": "fuel", "osm_id": 857307706, "origin": "OBSERVED"}, "geometry": {"type": "Point", "coordinates": [127.29857537777778, 36.59120212222222]}}, {"type": "Feature", "properties": {"name": "OSM feature", "amenity": "shelter", "osm_id": 857307718, "origin": "OBSERVED"}, "geometry": {"type": "Point", "coordinates": [127.29190143999999, 36.6240795]}}, {"type": "Feature", "properties": {"name": "라포레스타", "amenity": "cafe", "osm_id": 857806435, "origin": "OBSERVED"}, "geometry": {"type": "Point", "coordinates": [127.2814249, 36.59550324]}}, {"type": "Feature", "properties": {"name": "OSM feature", "amenity": "shelter", "osm_id": 858351602, "origin": "OBSERVED"}, "geometry": {"type": "Point", "coordinates": [127.28047242, 36.612900735]}}, {"type": "Feature", "properties": {"name": "OSM feature", "amenity": "shelter", "osm_id": 859095625, "origin": "OBSERVED"}, "geometry": {"type": "Point", "coordinates": [127.29382244000001, 36.59035712]}}, {"type": "Feature", "properties": {"name": "OSM feature", "amenity": "shelter", "osm_id": 859095633, "origin": "OBSERVED"}, "geometry": {"type": "Point", "coordinates": [127.294867695, 36.585525515]}}, {"type": "Feature", "properties": {"name": "OSM feature", "amenity": "parking", "osm_id": 859095637, "origin": "OBSERVED"}, "geometry": {"type": "Point", "coordinates": [127.29506283333335, 36.586682849999995]}}, {"type": "Feature", "properties": {"name": "노장3리마을회관", "amenity": "townhall", "osm_id": 866135312, "origin": "OBSERVED"}, "geometry": {"type": "Point", "coordinates": [127.27306472857143, 36.66960184285715]}}, {"type": "Feature", "properties": {"name": "자이안센터", "amenity": "community_centre", "osm_id": 867326401, "origin": "OBSERVED"}, "geometry": {"type": "Point", "coordinates": [127.28909154, 36.58963484]}}, {"type": "Feature", "properties": {"name": "OSM feature", "amenity": "parking", "osm_id": 867326403, "origin": "OBSERVED"}, "geometry": {"type": "Point", "coordinates": [127.28983372, 36.58968132]}}, {"type": "Feature", "properties": {"name": "조치원역서부주차장", "amenity": "parking", "osm_id": 870458413, "origin": "OBSERVED"}, "geometry": {"type": "Point", "coordinates": [127.29544911428572, 36.60081608571429]}}, {"type": "Feature", "properties": {"name": "SK동유주유소", "amenity": "fuel", "osm_id": 870458434, "origin": "OBSERVED"}, "geometry": {"type": "Point", "coordinates": [127.29771174, 36.60461274]}}, {"type": "Feature", "properties": {"name": "KB국민은행 조치원점", "amenity": "bank", "osm_id": 871707060, "origin": "OBSERVED"}, "geometry": {"type": "Point", "coordinates": [127.29990968571428, 36.60175742857143]}}, {"type": "Feature", "properties": {"name": "SK셀프금빛주유소", "amenity": "fuel", "osm_id": 871802555, "origin": "OBSERVED"}, "geometry": {"type": "Point", "coordinates": [127.29714335999999, 36.6085339]}}, {"type": "Feature", "properties": {"name": "GS중앙주유소", "amenity": "fuel", "osm_id": 871802560, "origin": "OBSERVED"}, "geometry": {"type": "Point", "coordinates": [127.29653702, 36.60976952]}}, {"type": "Feature", "properties": {"name": "OSM feature", "amenity": "parking", "osm_id": 887779434, "origin": "OBSERVED"}, "geometry": {"type": "Point", "coordinates": [127.33893847142858, 36.60116647142858]}}, {"type": "Feature", "properties": {"name": "OSM feature", "amenity": "parking", "osm_id": 887779466, "origin": "OBSERVED"}, "geometry": {"type": "Point", "coordinates": [127.347617, 36.620496816666666]}}, {"type": "Feature", "properties": {"name": "초코렛어린이집", "amenity": "kindergarten", "osm_id": 903664685, "origin": "OBSERVED"}, "geometry": {"type": "Point", "coordinates": [127.2722398, 36.59125728]}}, {"type": "Feature", "properties": {"name": "월하2리복지화관", "amenity": "social_facility", "osm_id": 904971308, "origin": "OBSERVED"}, "geometry": {"type": "Point", "coordinates": [127.28329288, 36.58481296]}}, {"type": "Feature", "properties": {"name": "아이마루유치원", "amenity": "kindergarten", "osm_id": 904971310, "origin": "OBSERVED"}, "geometry": {"type": "Point", "coordinates": [127.2824595875, 36.5833116125]}}, {"type": "Feature", "properties": {"name": "카페이길", "amenity": "cafe", "osm_id": 904971313, "origin": "OBSERVED"}, "geometry": {"type": "Point", "coordinates": [127.28348724, 36.5826867]}}, {"type": "Feature", "properties": {"name": "스카이셀프세차장", "amenity": "car_wash", "osm_id": 904971314, "origin": "OBSERVED"}, "geometry": {"type": "Point", "coordinates": [127.28351342, 36.58292324]}}, {"type": "Feature", "properties": {"name": "이화어린이집", "amenity": "kindergarten", "osm_id": 907023568, "origin": "OBSERVED"}, "geometry": {"type": "Point", "coordinates": [127.29607864545454, 36.61035067272727]}}, {"type": "Feature", "properties": {"name": "OSM feature", "amenity": "parking", "osm_id": 907023586, "origin": "OBSERVED"}, "geometry": {"type": "Point", "coordinates": [127.2923372875, 36.604388012499996]}}, {"type": "Feature", "properties": {"name": "봉산2리마을회관", "amenity": "townhall", "osm_id": 910873179, "origin": "OBSERVED"}, "geometry": {"type": "Point", "coordinates": [127.27529252857143, 36.5989776]}}, {"type": "Feature", "properties": {"name": "OSM feature", "amenity": "toilets", "osm_id": 911468400, "origin": "OBSERVED"}, "geometry": {"type": "Point", "coordinates": [127.30049216, 36.5897253]}}, {"type": "Feature", "properties": {"name": "OSM feature", "amenity": "toilets", "osm_id": 911468401, "origin": "OBSERVED"}, "geometry": {"type": "Point", "coordinates": [127.30072568, 36.59075774]}}, {"type": "Feature", "properties": {"name": "OSM feature", "amenity": "parking", "osm_id": 937099898, "origin": "OBSERVED"}, "geometry": {"type": "Point", "coordinates": [127.33962918, 36.64923396]}}, {"type": "Feature", "properties": {"name": "OSM feature", "amenity": "parking", "osm_id": 937099901, "origin": "OBSERVED"}, "geometry": {"type": "Point", "coordinates": [127.32868922, 36.64342522]}}, {"type": "Feature", "properties": {"name": "OSM feature", "amenity": "parking", "osm_id": 937099911, "origin": "OBSERVED"}, "geometry": {"type": "Point", "coordinates": [127.33745137999999, 36.641077360000004]}}, {"type": "Feature", "properties": {"name": "OSM feature", "amenity": "parking", "osm_id": 937099917, "origin": "OBSERVED"}, "geometry": {"type": "Point", "coordinates": [127.33901785555557, 36.6411188]}}, {"type": "Feature", "properties": {"name": "OSM feature", "amenity": "parking", "osm_id": 937099931, "origin": "OBSERVED"}, "geometry": {"type": "Point", "coordinates": [127.33569886666666, 36.63534471111112]}}, {"type": "Feature", "properties": {"name": "OSM feature", "amenity": "parking", "osm_id": 937099940, "origin": "OBSERVED"}, "geometry": {"type": "Point", "coordinates": [127.3214654, 36.6359215875]}}, {"type": "Feature", "properties": {"name": "OSM feature", "amenity": "parking", "osm_id": 937100994, "origin": "OBSERVED"}, "geometry": {"type": "Point", "coordinates": [127.32811718333333, 36.61811665]}}, {"type": "Feature", "properties": {"name": "OSM feature", "amenity": "cafe", "osm_id": 942124145, "origin": "OBSERVED"}, "geometry": {"type": "Point", "coordinates": [127.39100426, 36.6759232]}}, {"type": "Feature", "properties": {"name": "오송중학교", "amenity": "school", "osm_id": 950244112, "origin": "OBSERVED"}, "geometry": {"type": "Point", "coordinates": [127.33014897999999, 36.62670482]}}, {"type": "Feature", "properties": {"name": "오송고등학교", "amenity": "school", "osm_id": 950244113, "origin": "OBSERVED"}, "geometry": {"type": "Point", "coordinates": [127.32599345714286, 36.62942628571428]}}, {"type": "Feature", "properties": {"name": "오송햇살주유소", "amenity": "fuel", "osm_id": 951438784, "origin": "OBSERVED"}, "geometry": {"type": "Point", "coordinates": [127.3313353, 36.63115634]}}, {"type": "Feature", "properties": {"name": "OSM feature", "amenity": "parking", "osm_id": 956052181, "origin": "OBSERVED"}, "geometry": {"type": "Point", "coordinates": [127.32441414, 36.62409082]}}, {"type": "Feature", "properties": {"name": "강내농협", "amenity": "bank", "osm_id": 961666823, "origin": "OBSERVED"}, "geometry": {"type": "Point", "coordinates": [127.36404064000001, 36.62444502]}}, {"type": "Feature", "properties": {"name": "강내도서관", "amenity": "library", "osm_id": 961666825, "origin": "OBSERVED"}, "geometry": {"type": "Point", "coordinates": [127.36310454, 36.62388082]}}, {"type": "Feature", "properties": {"name": "OSM feature", "amenity": "parking", "osm_id": 968672077, "origin": "OBSERVED"}, "geometry": {"type": "Point", "coordinates": [127.29268691875001, 36.61000293125]}}, {"type": "Feature", "properties": {"name": "OSM feature", "amenity": "parking", "osm_id": 968672078, "origin": "OBSERVED"}, "geometry": {"type": "Point", "coordinates": [127.28447771111112, 36.61038804444445]}}, {"type": "Feature", "properties": {"name": "OSM feature", "amenity": "parking", "osm_id": 968672079, "origin": "OBSERVED"}, "geometry": {"type": "Point", "coordinates": [127.29164202, 36.6109731]}}, {"type": "Feature", "properties": {"name": "OSM feature", "amenity": "university", "osm_id": 989036825, "origin": "OBSERVED"}, "geometry": {"type": "Point", "coordinates": [127.3253205, 36.636362775]}}, {"type": "Feature", "properties": {"name": "OSM feature", "amenity": "kindergarten", "osm_id": 989046120, "origin": "OBSERVED"}, "geometry": {"type": "Point", "coordinates": [127.32669983999999, 36.638549510000004]}}, {"type": "Feature", "properties": {"name": "OSM feature", "amenity": "parking", "osm_id": 989068409, "origin": "OBSERVED"}, "geometry": {"type": "Point", "coordinates": [127.32820007999999, 36.63710744]}}, {"type": "Feature", "properties": {"name": "베스티안병원", "amenity": "hospital", "osm_id": 989068435, "origin": "OBSERVED"}, "geometry": {"type": "Point", "coordinates": [127.32183685, 36.6361309]}}, {"type": "Feature", "properties": {"name": "OSM feature", "amenity": "place_of_worship", "osm_id": 989068481, "origin": "OBSERVED"}, "geometry": {"type": "Point", "coordinates": [127.3314826375, 36.6328195375]}}, {"type": "Feature", "properties": {"name": "OSM feature", "amenity": "place_of_worship", "osm_id": 989445199, "origin": "OBSERVED"}, "geometry": {"type": "Point", "coordinates": [127.32392569999999, 36.62461894]}}, {"type": "Feature", "properties": {"name": "OSM feature", "amenity": "parking", "osm_id": 989445200, "origin": "OBSERVED"}, "geometry": {"type": "Point", "coordinates": [127.3243252, 36.62485962857143]}}, {"type": "Feature", "properties": {"name": "OSM feature", "amenity": "library", "osm_id": 990226352, "origin": "OBSERVED"}, "geometry": {"type": "Point", "coordinates": [127.3694103, 36.66614701304348]}}, {"type": "Feature", "properties": {"name": "OSM feature", "amenity": "parking", "osm_id": 990226357, "origin": "OBSERVED"}, "geometry": {"type": "Point", "coordinates": [127.369582075, 36.66655645]}}, {"type": "Feature", "properties": {"name": "옥산성당", "amenity": "place_of_worship", "osm_id": 990228672, "origin": "OBSERVED"}, "geometry": {"type": "Point", "coordinates": [127.37605142727274, 36.66546802727273]}}, {"type": "Feature", "properties": {"name": "양업고등학교", "amenity": "school", "osm_id": 990255997, "origin": "OBSERVED"}, "geometry": {"type": "Point", "coordinates": [127.34708651999999, 36.67185882666667]}}, {"type": "Feature", "properties": {"name": "옥산119안전센터부지", "amenity": "fire_station", "osm_id": 1013359122, "origin": "OBSERVED"}, "geometry": {"type": "Point", "coordinates": [127.389222525, 36.6722667125]}}, {"type": "Feature", "properties": {"name": "OSM feature", "amenity": "parking_space", "osm_id": 1034145082, "origin": "OBSERVED"}, "geometry": {"type": "Point", "coordinates": [127.28865888, 36.60948948]}}, {"type": "Feature", "properties": {"name": "OSM feature", "amenity": "parking_space", "osm_id": 1034145083, "origin": "OBSERVED"}, "geometry": {"type": "Point", "coordinates": [127.28782868, 36.60942936]}}, {"type": "Feature", "properties": {"name": "OSM feature", "amenity": "parking_space", "osm_id": 1034145084, "origin": "OBSERVED"}, "geometry": {"type": "Point", "coordinates": [127.28804210000001, 36.60944528]}}, {"type": "Feature", "properties": {"name": "OSM feature", "amenity": "parking_space", "osm_id": 1034145085, "origin": "OBSERVED"}, "geometry": {"type": "Point", "coordinates": [127.28835558, 36.60946802]}}, {"type": "Feature", "properties": {"name": "OSM feature", "amenity": "parking_space", "osm_id": 1034145096, "origin": "OBSERVED"}, "geometry": {"type": "Point", "coordinates": [127.28817016, 36.60934254]}}, {"type": "Feature", "properties": {"name": "OSM feature", "amenity": "parking_space", "osm_id": 1034145097, "origin": "OBSERVED"}, "geometry": {"type": "Point", "coordinates": [127.28817899999999, 36.609272759999996]}}, {"type": "Feature", "properties": {"name": "OSM feature", "amenity": "parking_space", "osm_id": 1034145098, "origin": "OBSERVED"}, "geometry": {"type": "Point", "coordinates": [127.28819106, 36.60917264]}}, {"type": "Feature", "properties": {"name": "OSM feature", "amenity": "parking_space", "osm_id": 1034145099, "origin": "OBSERVED"}, "geometry": {"type": "Point", "coordinates": [127.28819776, 36.609107]}}, {"type": "Feature", "properties": {"name": "OSM feature", "amenity": "parking_space", "osm_id": 1034145100, "origin": "OBSERVED"}, "geometry": {"type": "Point", "coordinates": [127.28836575999999, 36.6090108]}}, {"type": "Feature", "properties": {"name": "OSM feature", "amenity": "toilets", "osm_id": 1034168539, "origin": "OBSERVED"}, "geometry": {"type": "Point", "coordinates": [127.28763604000001, 36.609216780000004]}}, {"type": "Feature", "properties": {"name": "OSM feature", "amenity": "parking", "osm_id": 1034833289, "origin": "OBSERVED"}, "geometry": {"type": "Point", "coordinates": [127.28976606, 36.61082216]}}, {"type": "Feature", "properties": {"name": "OSM feature", "amenity": "parking", "osm_id": 1035042560, "origin": "OBSERVED"}, "geometry": {"type": "Point", "coordinates": [127.29847848, 36.60424326]}}, {"type": "Feature", "properties": {"name": "OSM feature", "amenity": "parking", "osm_id": 1035068823, "origin": "OBSERVED"}, "geometry": {"type": "Point", "coordinates": [127.28964592, 36.61175432]}}, {"type": "Feature", "properties": {"name": "Burger King", "amenity": "fast_food", "osm_id": 1035614280, "origin": "OBSERVED"}, "geometry": {"type": "Point", "coordinates": [127.28941196000001, 36.603524900000004]}}, {"type": "Feature", "properties": {"name": "조치원소방서", "amenity": "fire_station", "osm_id": 1035614281, "origin": "OBSERVED"}, "geometry": {"type": "Point", "coordinates": [127.28883996153846, 36.604493707692306]}}, {"type": "Feature", "properties": {"name": "OSM feature", "amenity": "fire_station", "osm_id": 1035614282, "origin": "OBSERVED"}, "geometry": {"type": "Point", "coordinates": [127.2890292875, 36.6045068875]}}, {"type": "Feature", "properties": {"name": "조치원소방서", "amenity": "fire_station", "osm_id": 1035614283, "origin": "OBSERVED"}, "geometry": {"type": "Point", "coordinates": [127.2889218, 36.60479591428571]}}, {"type": "Feature", "properties": {"name": "OSM feature", "amenity": "parking", "osm_id": 1035740925, "origin": "OBSERVED"}, "geometry": {"type": "Point", "coordinates": [127.28334031428572, 36.60289461428572]}}, {"type": "Feature", "properties": {"name": "조치원복합커뮤니티센터", "amenity": "community_centre", "osm_id": 1052559772, "origin": "OBSERVED"}, "geometry": {"type": "Point", "coordinates": [127.2876993875, 36.59552794375]}}, {"type": "Feature", "properties": {"name": "OSM feature", "amenity": "parking", "osm_id": 1052559786, "origin": "OBSERVED"}, "geometry": {"type": "Point", "coordinates": [127.28588858571428, 36.595298657142855]}}, {"type": "Feature", "properties": {"name": "OSM feature", "amenity": "bicycle_parking", "osm_id": 1070747410, "origin": "OBSERVED"}, "geometry": {"type": "Point", "coordinates": [127.29329145555556, 36.6026905]}}, {"type": "Feature", "properties": {"name": "OSM feature", "amenity": "parking", "osm_id": 1070747419, "origin": "OBSERVED"}, "geometry": {"type": "Point", "coordinates": [127.29393922, 36.60344252]}}, {"type": "Feature", "properties": {"name": "OSM feature", "amenity": "parking", "osm_id": 1070747420, "origin": "OBSERVED"}, "geometry": {"type": "Point", "coordinates": [127.2929599375, 36.6033366625]}}, {"type": "Feature", "properties": {"name": "OSM feature", "amenity": "parking", "osm_id": 1070747441, "origin": "OBSERVED"}, "geometry": {"type": "Point", "coordinates": [127.29176277777778, 36.60254286666667]}}, {"type": "Feature", "properties": {"name": "OSM feature", "amenity": "parking", "osm_id": 1070747442, "origin": "OBSERVED"}, "geometry": {"type": "Point", "coordinates": [127.29233007142857, 36.60327294285714]}}, {"type": "Feature", "properties": {"name": "OSM feature", "amenity": "parking", "osm_id": 1101942117, "origin": "OBSERVED"}, "geometry": {"type": "Point", "coordinates": [127.35033853333334, 36.629820099999996]}}, {"type": "Feature", "properties": {"name": "OSM feature", "amenity": "parking", "osm_id": 1134920372, "origin": "OBSERVED"}, "geometry": {"type": "Point", "coordinates": [127.2946956, 36.59062908571428]}}, {"type": "Feature", "properties": {"name": "OSM feature", "amenity": "parking", "osm_id": 1134920373, "origin": "OBSERVED"}, "geometry": {"type": "Point", "coordinates": [127.29491016666667, 36.59000373333333]}}, {"type": "Feature", "properties": {"name": "OSM feature", "amenity": "parking", "osm_id": 1134920394, "origin": "OBSERVED"}, "geometry": {"type": "Point", "coordinates": [127.28690523999998, 36.59949038]}}, {"type": "Feature", "properties": {"name": "알뜰 주유소", "amenity": "fuel", "osm_id": 1143173761, "origin": "OBSERVED"}, "geometry": {"type": "Point", "coordinates": [127.29045492, 36.62518976]}}, {"type": "Feature", "properties": {"name": "오송초등학교", "amenity": "school", "osm_id": 1147301701, "origin": "OBSERVED"}, "geometry": {"type": "Point", "coordinates": [127.32549220833333, 36.612958354166665]}}, {"type": "Feature", "properties": {"name": "청주성신학교", "amenity": "school", "osm_id": 1167356312, "origin": "OBSERVED"}, "geometry": {"type": "Point", "coordinates": [127.39909514285715, 36.59781701428572]}}]}