{"type": "FeatureCollection", "features": [{"type": "Feature", "properties": {"shapeName": "South Chungcheong", "shapeISO": "KR-44", "shapeID": "68945753B70752081047384", "shapeGroup": "KOR", "shapeType": "ADM1"}, "geometry": {"type": "MultiPolygon", "coordinates": [[[[126.40541386495795, 36.45883552803724], [126.40268670322882, 36.46839167823339], [126.40369050940956, 36.47334356755164], [126.40479576900964, 36.47964101801864], [126.39063561334297, 36.48602936386408], [126.38379967491517, 36.487127997259336], [126.38379967491517, 36.4933128930756], [126.40479576900964, 36.4933128930756], [126.3959095741676, 36.505792186160534], [126.38456564998478, 36.51119819803847], [126.37940514403226, 36.518377996747176], [126.38379967491517, 36.52651601770009], [126.38111412931369, 36.53628164338318], [126.3642663092428, 36.56697022939261], [126.36336739908631, 36.57383977728392], [126.37099369770101, 36.578754296173884], [126.37533613355583, 36.586086330319915], [126.37354576862242, 36.59223053631024], [126.36024360036197, 36.60936012297134], [126.34118120155131, 36.60413360228398], [126.32346290339035, 36.59089050958937], [126.3148181117665, 36.58178686317325], [126.32515322414201, 36.55386421496161], [126.3297632172987, 36.53172435139777], [126.33360616878974, 36.495093328594294], [126.32814310122319, 36.471089495084186], [126.3386402912165, 36.47561102912573], [126.34327233215242, 36.46662018377452], [126.3569442072095, 36.47964101801864], [126.36378014383865, 36.47345612220232], [126.34571373789879, 36.45331451984924], [126.34262129044032, 36.438381252093166], [126.35377037919966, 36.43406810086219], [126.37761477999811, 36.44619375174028], [126.37355578796928, 36.43733670212714], [126.36587392833917, 36.4316445844301], [126.36105280764104, 36.42632098102848], [126.36378014383865, 36.411363023284935], [126.37818444115908, 36.40949127780027], [126.42261803509427, 36.41152578258885], [126.43213951912355, 36.407945053621404], [126.42644290481621, 36.423570053814956], [126.4129337899625, 36.44033437722976], [126.40541386495795, 36.45883552803724]]], [[[126.96168866400069, 36.90511165128174], [126.94247480586762, 36.89337799689707], [126.89901777405112, 36.87933991070838], [126.8806258468054, 36.87689850496207], [126.86019941477127, 36.869574285924614], [126.87045332106402, 36.852769272683815], [126.90479576890971, 36.82225169456012], [126.88355553496001, 36.824367579899956], [126.863291863129, 36.8290876320886], [126.87159264428522, 36.80402252841702], [126.86654707079072, 36.7897809921991], [126.85670006635507, 36.77643463664924], [126.85084069094523, 36.75397369982642], [126.84253990978902, 36.75702545835827], [126.83676191493055, 36.7609317077322], [126.83285566465725, 36.766669011865474], [126.82984459685076, 36.77509186429813], [126.84628339895971, 36.779120184049304], [126.84913170656307, 36.78803131709168], [126.84066816520374, 36.81915924710165], [126.8317977219873, 36.831122136877184], [126.82984459685076, 36.83934153928067], [126.83082115986872, 36.84723541857977], [126.83545983240538, 36.8608259139848], [126.83651777417595, 36.86692942924981], [126.83432050918418, 36.895493882236906], [126.8301701181565, 36.91022369996381], [126.8230086602216, 36.91844310056871], [126.81275475392886, 36.9169375671151], [126.79395592482615, 36.89752838702549], [126.78199303505062, 36.89118073100599], [126.7976994148961, 36.93439362206806], [126.79623457126854, 36.95575592729426], [126.77515709662282, 36.97308991097066], [126.75776694578803, 36.982219858959354], [126.73351239388194, 36.98743087173739], [126.71434831592205, 36.99304206304083], [126.69703209655404, 36.994818427328596], [126.68154445431321, 36.99470406863793], [126.66504315291922, 36.988524572351196], [126.65579253659632, 36.97459363318967], [126.64944896080101, 36.96605646073715], [126.64537545731162, 36.95795322016505], [126.6491805347539, 36.9334170590501], [126.64649498825315, 36.92511627789395], [126.64210045737025, 36.91771067920456], [126.63111412881403, 36.91160716393949], [126.63477623833285, 36.92804596604856], [126.63355553456029, 36.9374046898746], [126.62362714867402, 36.95262278911048], [126.62167402443674, 36.959784247045434], [126.6313826789675, 36.96893085227708], [126.63609540977541, 36.982453124212384], [126.62609486678468, 36.996104465049086], [126.61146668683818, 37.0025600972707], [126.59629238728394, 37.01082778697287], [126.58845236928153, 37.017221133048906], [126.56934144665047, 37.02777751641929], [126.54932701922667, 37.039211329639215], [126.53500410155812, 37.04926178590273], [126.5190535818574, 37.05540599189305], [126.50074303516305, 37.054999090935326], [126.50292077317522, 37.03952092125354], [126.5122544571775, 37.016430340288025], [126.53296959676959, 37.00092194169429], [126.55201256572741, 36.99359772265683], [126.56617272229335, 36.990790105778785], [126.57300865982188, 36.984361070107354], [126.57211347735517, 36.97748444185356], [126.5627547544284, 36.97308991097066], [126.55030358224462, 36.97313060079665], [126.5400496750525, 36.97687409086666], [126.53158613369317, 36.98289622558042], [126.51563561309308, 36.99884674707977], [126.50538170680034, 37.00657786707495], [126.49683678488975, 37.00779856994808], [126.49341881612554, 36.99701569232042], [126.49781334700845, 36.99420807544237], [126.55909264401032, 36.94236888191841], [126.56674238435357, 36.93219635617697], [126.57545006556813, 36.911810613968726], [126.58261152440241, 36.904201565250105], [126.58261152440241, 36.89801666943379], [126.56836998818449, 36.898504950043446], [126.56080162929186, 36.90509674681749], [126.55567467524611, 36.91510651235569], [126.5485945969632, 36.925930079809405], [126.53126061328669, 36.941310940147844], [126.51913496240866, 36.94790273602251], [126.51376386760842, 36.94236888191841], [126.50953209692875, 36.9188500024257], [126.4912215502344, 36.871079820277544], [126.48715253975797, 36.846177475909826], [126.48389733209626, 36.841498114446495], [126.47657311305875, 36.844916083210705], [126.46924889402135, 36.853989975557], [126.46591230580827, 36.86692942924981], [126.46591230580827, 36.91160716393949], [126.46876061341163, 36.91779205885649], [126.47779381593193, 36.92641836131838], [126.47958418086534, 36.929022528167195], [126.4785262381954, 36.935858465695674], [126.47388756565874, 36.942206121715174], [126.47274824333681, 36.94920482034621], [126.46859785230913, 36.95758698115429], [126.45883222662599, 36.95774974225685], [126.44752037856267, 36.952826239139654], [126.4387313158976, 36.94578685068268], [126.43238365987804, 36.9619815120372], [126.43824303528788, 36.973334051725146], [126.44784589896915, 36.98200104401303], [126.45289147156427, 36.99017975479188], [126.4454044932229, 37.00340403906523], [126.42774498824065, 37.008368231109046], [126.39087975409745, 37.00787994960007], [126.39087975409745, 37.00043366108463], [126.39527428498036, 36.992905992017995], [126.39144941525842, 36.98981354366015], [126.38306725355096, 36.991156316910576], [126.37354576862242, 36.99701569232042], [126.36378014383865, 37.00145091392858], [126.35303795693619, 36.99998607030096], [126.34310957104992, 36.99445221619686], [126.33570397236053, 36.98676178602767], [126.35401451905489, 36.98786041942287], [126.36939537939327, 36.984116929352865], [126.37647545677692, 36.974920965730064], [126.36988366000298, 36.9594180359137], [126.35547936268256, 36.96775950689579], [126.35067793084193, 36.96450429923408], [126.35385175885165, 36.95522695505997], [126.36353600398343, 36.94578685068268], [126.37647545677692, 36.94159576982895], [126.40267988366975, 36.941229558697216], [126.41138756578357, 36.93891022332821], [126.41920006633006, 36.92230866101596], [126.41553795681136, 36.899847723293874], [126.40137780024531, 36.88141510622222], [126.37728925869237, 36.87689850496207], [126.37728925869237, 36.870672919319816], [126.3965763684048, 36.86420319202375], [126.40455162915441, 36.863226629905114], [126.40455162915441, 36.85700104426286], [126.38453209717864, 36.852932032887054], [126.37411543068265, 36.8495547548481], [126.36988366000298, 36.846177475909826], [126.36532636801758, 36.83535390755685], [126.35547936268256, 36.840480860703224], [126.33936608187923, 36.85700104426286], [126.3287052737295, 36.84699127782528], [126.3360294927669, 36.82465241137976], [126.35670006555563, 36.78876373935515], [126.32789147181404, 36.804632880303245], [126.31527754032629, 36.80434804882344], [126.2984318372595, 36.79189687663961], [126.2912703793246, 36.789252019964806], [126.28598066507573, 36.794582424039675], [126.28272545741402, 36.803697007111225], [126.28174889439606, 36.8123233086738], [126.28549238356675, 36.81492747642193], [126.30347740985462, 36.824367579899956], [126.30892988430674, 36.8290876320886], [126.3081160823914, 36.83307526201378], [126.30184980602382, 36.84780507974068], [126.30152428471808, 36.85700104426286], [126.30762779998304, 36.86566803565137], [126.3173934247668, 36.87396881680752], [126.32349694093114, 36.88324616098157], [126.31104576874725, 36.90957265825165], [126.30665123786434, 36.93146393391345], [126.30591881560088, 36.95307037989414], [126.30892988430674, 36.9668643253284], [126.28565514376999, 36.961127020295805], [126.28101647213259, 36.93646881668258], [126.28353925932947, 36.90623607003863], [126.28174889439606, 36.88373444159129], [126.275238477274, 36.87474192889698], [126.2685652999487, 36.87103912955223], [126.24374433703156, 36.870672919319816], [126.22999108232261, 36.87303294541414], [126.22754967477772, 36.879787502391366], [126.23389733169654, 36.904201565250105], [126.20948326883786, 36.897162176793074], [126.19223066481334, 36.88593170838169], [126.19076582118578, 36.87201569167087], [126.21338951911105, 36.85700104426286], [126.19686933735011, 36.83567942886259], [126.1987410819354, 36.82322825667876], [126.21444746178099, 36.8175316432708], [126.2400008469616, 36.816066798743805], [126.23243248806898, 36.804185288620204], [126.22071373814856, 36.80174388197463], [126.19223066481334, 36.80857982040243], [126.20289147206381, 36.79319896006399], [126.21338951911105, 36.78131744994039], [126.20484459720046, 36.78278229356806], [126.19727623830784, 36.784898178907895], [126.19068444063453, 36.78530507986562], [126.18539472728492, 36.78131744994039], [126.1784774101045, 36.7894554708933], [126.17310631620364, 36.79767487239752], [126.16879316497261, 36.806382553612025], [126.16561933696289, 36.816066798743805], [126.16163170703771, 36.803290106153554], [126.15658613444259, 36.794175523082004], [126.13095136781146, 36.76805247584116], [126.12818444075936, 36.76129791886393], [126.130137565896, 36.736965235657124], [126.12891686302282, 36.711900131985544], [126.13282311329613, 36.70384349158394], [126.14454186321643, 36.71238841439384], [126.15015709697252, 36.7239444032117], [126.15308678512713, 36.748846746680044], [126.1582137382735, 36.76080963735495], [126.17115319106699, 36.75226471634363], [126.1872664718702, 36.74848053644763], [126.2026473322087, 36.742417710109294], [126.21338951911105, 36.726711330263754], [126.21363365986554, 36.71161530230444], [126.2031356128183, 36.705877997271784], [126.16187584689283, 36.70620351767826], [126.15699303540032, 36.702053126650526], [126.15853925867987, 36.692857163927044], [126.16268964880828, 36.68353912992694], [126.16561933696289, 36.67890045828955], [126.17774498784092, 36.67324453290894], [126.18799889413367, 36.67381419496917], [126.19825280042642, 36.67706940263088], [126.20972740959235, 36.67890045828955], [126.22925866005914, 36.68471914297413], [126.25570722680709, 36.711574610679804], [126.27418053460406, 36.71987539273522], [126.28174889439606, 36.69257233334656], [126.27295983173087, 36.67316315325695], [126.30233808663343, 36.63442617362904], [126.28858483192448, 36.610012110770356], [126.29200279978943, 36.604234116811085], [126.29428144623182, 36.59747955893454], [126.29542076855364, 36.590033270419156], [126.29525800924978, 36.58270905228102], [126.3039656913636, 36.59308502805163], [126.31478925881731, 36.60162994996227], [126.3277287116108, 36.607570705024045], [126.34302819139793, 36.610012110770356], [126.32618248833126, 36.62836334819002], [126.32471764380432, 36.6366234404195], [126.33570397236053, 36.644110418760874], [126.32911217468722, 36.660589910695876], [126.31088300944339, 36.683986720710664], [126.30152428471808, 36.69936758014978], [126.32431074284659, 36.69965241073021], [126.33155358223212, 36.71137116065057], [126.33399498797837, 36.727362371975914], [126.34302819139793, 36.74038320532071], [126.35914147220126, 36.74266185086378], [126.36988366000298, 36.732326564919106], [126.36642243115034, 36.7069715387056], [126.37790876927431, 36.70258175624309], [126.37196876694509, 36.68307773185188], [126.36714982890157, 36.629065494776796], [126.38639103721664, 36.61888770620271], [126.40572781019034, 36.618195757927936], [126.42423834362467, 36.60658136983443], [126.43328998584423, 36.61572651186907], [126.44390738371885, 36.63808107867891], [126.43951348775727, 36.664265280718155], [126.44688039671303, 36.683761865018084], [126.44563611271644, 36.700721628200654], [126.43856855569436, 36.7094180364133], [126.43799889363413, 36.71645742397101], [126.44117272164385, 36.723537502253976], [126.45704186259195, 36.72898997580677], [126.47120201915789, 36.74140045816466], [126.47958418086534, 36.74713776229794], [126.48267662922308, 36.73834869963281], [126.48731529996121, 36.73216380381655], [126.50074303516305, 36.71987539273522], [126.47734917222658, 36.7168881227887], [126.46968683238151, 36.704587036662474], [126.47453515577286, 36.68788509022477], [126.49851049786128, 36.68427343267285], [126.50803023540709, 36.670413283646155], [126.49395599557283, 36.661316129435875], [126.48379868995767, 36.64960341396642], [126.49985528829097, 36.636835815320694], [126.51171037633287, 36.63484833338396], [126.51986738377286, 36.62616608319826], [126.51386797312853, 36.61539162142623], [126.51231193734611, 36.603209348332825], [126.49145308069524, 36.60376195475044], [126.47145646884098, 36.59629146008285], [126.45765695390537, 36.5955956654077], [126.4580951962364, 36.59140682026862], [126.46418202817813, 36.584120883571984], [126.46921750678257, 36.56693374479653], [126.470058641793, 36.557766204247], [126.46568460556011, 36.54938739611151], [126.47032852114444, 36.54019879343963], [126.47507125333573, 36.53941443802597], [126.4829207690783, 36.53522369981397], [126.49157989409684, 36.528669687156366], [126.51075279980193, 36.534247136795955], [126.51392662871103, 36.52879466414248], [126.50424238357925, 36.51666901236507], [126.4834090496879, 36.49701569242035], [126.48275800887507, 36.4858259138349], [126.48853600373366, 36.46686432542833], [126.49765058680521, 36.44839101763142], [126.50757897179221, 36.43866608267365], [126.52344811274031, 36.44110748931922], [126.54501386799564, 36.46698639490626], [126.55909264401032, 36.47345612220232], [126.61744225375708, 36.47345612220232], [126.59795991921499, 36.46507264568612], [126.55677759031357, 36.45582983367996], [126.53753659243989, 36.43322090082398], [126.5168952997783, 36.42818714711922], [126.4987793762673, 36.42010585899823], [126.51376386760842, 36.39769114822798], [126.50074303516305, 36.39769114822798], [126.50074303516305, 36.39093659125075], [126.50879967466528, 36.38519928621815], [126.52059980603633, 36.373602605775716], [126.52743574266549, 36.36977773605372], [126.56039472743475, 36.36961497585048], [126.5761824878316, 36.3662783867382], [126.58261152440241, 36.353013414437555], [126.57333418112762, 36.34259674704231], [126.52881920664117, 36.33388906492843], [126.51376386760842, 36.322658595617725], [126.52906334739566, 36.31610748866973], [126.57154381619421, 36.305609441622494], [126.58261152440241, 36.294663803791536], [126.56796308722676, 36.286810614318426], [126.5559188160006, 36.26626211100768], [126.53492272190613, 36.21963125208066], [126.54110761772245, 36.21255117379769], [126.5485945969632, 36.2059593770237], [126.5542912121698, 36.20343659072614], [126.56226647202016, 36.207220769722824], [126.56893964934545, 36.2059593770237], [126.58008873810479, 36.19936758024966], [126.58847089891287, 36.191595770428535], [126.60328209719114, 36.17182038010651], [126.56134123780794, 36.18158844025436], [126.53135681286665, 36.17393972783623], [126.49740117242618, 36.160018682116515], [126.49341881612554, 36.130804754935525], [126.50025475365408, 36.125718491615146], [126.50357948610451, 36.13219012457466], [126.50964757977204, 36.151024779070326], [126.52917225619478, 36.153514132171495], [126.55176768842819, 36.14182264699764], [126.55228153856217, 36.13080877760308], [126.55857335567589, 36.13076369818617], [126.57186865221661, 36.13697874197544], [126.58944746193083, 36.130804754935525], [126.61232836686065, 36.09899244174784], [126.62484785244646, 36.095607815348444], [126.63851972660416, 36.09096914281173], [126.64503014372622, 36.08470286734348], [126.63111412881403, 36.07558828337261], [126.64014733223371, 36.06342194176926], [126.65699303530039, 36.04547760620659], [126.66529381555722, 36.03461334802762], [126.67050214925484, 36.022040106365864], [126.67212975398502, 36.012884832569], [126.67725670713139, 36.00592682466328], [126.69247480636727, 35.99990468994952], [126.71338951901112, 36.00739166919021], [126.73568769563076, 36.01044342682275], [126.7544051441821, 36.01772695513495], [126.77133222690077, 36.030910548682925], [126.7915145190799, 36.04218170781962], [126.81208373737468, 36.047303686815724], [126.85709435432102, 36.09221588825267], [126.904946730907, 36.096453355238225], [126.96117068867636, 36.10622020130131], [127.06473025909429, 36.13262685784326], [127.10162723211113, 36.12665823009331], [127.09273888609073, 36.08252655745474], [127.11402957560449, 36.05570648886345], [127.14358849531288, 36.060176499845625], [127.17159712141006, 36.06896149307852], [127.22668419761771, 36.07764313442317], [127.24115359865971, 36.08172557177778], [127.25531294223856, 36.08684153880603], [127.27629357338981, 36.09035553627905], [127.28972944565749, 36.10727956849735], [127.30647260982312, 36.121154690336766], [127.33840864544266, 36.098210354424396], [127.38336714128059, 36.032658800163574], [127.41654341035019, 36.019145413530055], [127.42935916589283, 36.01650991520046], [127.43535363206456, 36.00653636356236], [127.42832563711852, 35.99511587199993], [127.43245975131651, 35.98708018670129], [127.49033735638398, 35.98093069089873], [127.51193810426014, 35.985219834727616], [127.54139367118103, 35.98633087786777], [127.57105594277755, 35.99299713850718], [127.59534386582686, 36.01028290503211], [127.61901167215103, 36.02950653699713], [127.59627404181367, 36.058109443196315], [127.57591352828672, 36.08743581800866], [127.56733523972957, 36.121723131117676], [127.5686788268664, 36.15629466416749], [127.55834354092178, 36.186034451029116], [127.52764773965157, 36.20122732248302], [127.49798546805494, 36.20900462536321], [127.46573937407288, 36.203604438394166], [127.46305219889996, 36.23205231406308], [127.46480919808607, 36.259699204954416], [127.47679813042942, 36.298353176258104], [127.49943240797927, 36.33121938696519], [127.50852745957468, 36.34796255113088], [127.51865604084367, 36.36284536422221], [127.53508914574752, 36.37284475428203], [127.538913201583, 36.39018219675103], [127.52609744693973, 36.393618678958944], [127.51224816262265, 36.39865713072203], [127.49540164566952, 36.38876109524841], [127.48227583176424, 36.374498398882054], [127.47741824805382, 36.35101146150981], [127.46429243414855, 36.33400991492567], [127.44982303310655, 36.29078257895293], [127.42367475808373, 36.273755194846444], [127.40930870982913, 36.2698277862234], [127.36578990358123, 36.243568393666465], [127.31658717156074, 36.23320992409879], [127.29587023242539, 36.28759189045343], [127.29069099719186, 36.36010118012541], [127.27256367477378, 36.38858697211111], [127.21898978704905, 36.45624225107906], [127.15082319583394, 36.441238512447455], [127.05976932169688, 36.45563039822434], [127.06886437419155, 36.47658519095387], [127.08405724474608, 36.48828990335642], [127.08093198192546, 36.639779866547656], [127.10423853957695, 36.69157221618491], [127.2465279481064, 36.64603221331606], [127.27422651584106, 36.678278307298115], [127.29531049977982, 36.70768219737556], [127.30368208186269, 36.714891059474894], [127.31319054640664, 36.71370250106963], [127.32249230357706, 36.71579539614066], [127.32755659376187, 36.72344350781168], [127.3289001808987, 36.73204763389123], [127.33200076722164, 36.742977199937854], [127.33685835183155, 36.75351919235692], [127.33933882142958, 36.764810491810806], [127.33716841019407, 36.776153469007454], [127.33055382729731, 36.786204535011336], [127.32228559800205, 36.79227651644811], [127.32331912587699, 36.81284373644934], [127.3101933128712, 36.82023346570196], [127.29303673665618, 36.84793203433594], [127.27960086528776, 36.85418488202674], [127.26781863762005, 36.8641067568214], [127.25996382127335, 36.87893789306935], [127.21273156141251, 36.884053860097595], [127.17407759010871, 36.91004710548958], [127.13087609255774, 36.92580841682502], [127.04778039025291, 36.897360541156104], [127.00860965411232, 36.897386380477144], [126.96199751187578, 36.905060330569825], [126.96168866400069, 36.90511165128174]]]]}}, {"type": "Feature", "properties": {"shapeName": "North Chungcheong", "shapeISO": "KR-43", "shapeID": "68945753B59172752195743", "shapeGroup": "KOR", "shapeType": "ADM1"}, "geometry": {"type": "Polygon", "coordinates": [[[127.60702273980769, 37.131351427426466], [127.59999474486165, 37.120706082219954], [127.59193322204067, 37.11104258894437], [127.58387169832031, 37.10654673954048], [127.57612023296247, 37.1015599637214], [127.57033247326513, 37.09375682241949], [127.56547488775595, 37.085256049127395], [127.51772586485686, 37.01427846947581], [127.49261111860835, 37.000274156427224], [127.48692671079914, 37.006294461020616], [127.46739301957223, 37.00957591449691], [127.45189008975592, 36.9963984237483], [127.44362186135993, 36.97978445079184], [127.43152957622897, 36.96725291608925], [127.40589806514367, 36.95839040849063], [127.38956831302733, 36.944231064911776], [127.38057661332016, 36.91480133731193], [127.34729699056368, 36.905861314448146], [127.30481896432377, 36.889479885488356], [127.25996382127335, 36.87893789306935], [127.26781863762005, 36.8641067568214], [127.27960086528776, 36.85418488202674], [127.29303673665618, 36.84793203433594], [127.3101933128712, 36.82023346570196], [127.32331912587699, 36.81284373644934], [127.32228559800205, 36.79227651644811], [127.33055382729731, 36.786204535011336], [127.33716841019407, 36.776153469007454], [127.33933882142958, 36.764810491810806], [127.33685835183155, 36.75351919235692], [127.33200076722164, 36.742977199937854], [127.3289001808987, 36.73204763389123], [127.32755659376187, 36.72344350781168], [127.32249230357706, 36.71579539614066], [127.31319054640664, 36.71370250106963], [127.30368208186269, 36.714891059474894], [127.29531049977982, 36.70768219737556], [127.27422651584106, 36.678278307298115], [127.2465279481064, 36.64603221331606], [127.2269942568795, 36.61189992893861], [127.22885460795385, 36.59507925130646], [127.21634891167298, 36.56637299231977], [127.2116980326382, 36.535651353527214], [127.2852852721976, 36.54753693308305], [127.36135298135503, 36.54366120130345], [127.36062951094323, 36.53278331210021], [127.35556521985905, 36.52342987718714], [127.35360151599718, 36.515807603038525], [127.35690880699588, 36.50939972571683], [127.35763227830705, 36.50433543643129], [127.35876915896961, 36.49927114534711], [127.35680545510775, 36.48888418255905], [127.35256798722287, 36.47906566055184], [127.35029422409923, 36.4714175479815], [127.3538082215722, 36.464157009038786], [127.36093956930574, 36.45785248540392], [127.36962120975113, 36.4544676782408], [127.37540897034773, 36.4432538931527], [127.37158491361299, 36.42573558173177], [127.40176395094568, 36.418810940472554], [127.43401004402835, 36.42457286174823], [127.44568891800918, 36.43824127891196], [127.45964155511376, 36.435450750951475], [127.45788455592754, 36.424056097810706], [127.4701835466334, 36.41896596920418], [127.47194054581962, 36.401111761898335], [127.48227583176424, 36.374498398882054], [127.49540164566952, 36.38876109524841], [127.51224816262265, 36.39865713072203], [127.52609744693973, 36.393618678958944], [127.538913201583, 36.39018219675103], [127.53508914574752, 36.37284475428203], [127.51865604084367, 36.36284536422221], [127.50852745957468, 36.34796255113088], [127.49943240797927, 36.33121938696519], [127.47679813042942, 36.298353176258104], [127.46480919808607, 36.259699204954416], [127.46305219889996, 36.23205231406308], [127.46573937407288, 36.203604438394166], [127.49798546805494, 36.20900462536321], [127.52764773965157, 36.20122732248302], [127.55834354092178, 36.186034451029116], [127.5686788268664, 36.15629466416749], [127.56733523972957, 36.121723131117676], [127.57591352828672, 36.08743581800866], [127.59627404181367, 36.058109443196315], [127.61901167215103, 36.02950653699713], [127.62758995980892, 36.0211607942353], [127.63709842255423, 36.01410696086759], [127.64515994717385, 36.015708930422875], [127.6516711772831, 36.02276276289126], [127.66862104702375, 36.014675400749184], [127.68360721200327, 36.000283514972296], [127.72835900316556, 35.98837209699474], [127.73766076123525, 35.97894114771583], [127.75368045498908, 35.975220445567174], [127.78582319618363, 35.99116262495522], [127.8227201683012, 36.00465017316702], [127.8372929221307, 35.99338471123548], [127.8519690287477, 35.98695099549212], [127.86478478429046, 35.99645945913676], [127.87760053893373, 36.0073631858624], [127.90188846198305, 36.017000840716264], [127.92700320913082, 36.0238221300873], [127.94250613804786, 36.04831675871151], [127.95087772013073, 36.07397410731926], [127.95862918458931, 36.08513621736262], [127.9682410010214, 36.09456716574215], [127.97041141225691, 36.11102610906772], [127.97020470578263, 36.12472036375385], [127.96462365076093, 36.15159210918853], [127.988808221922, 36.16833527335422], [128.0127860857093, 36.16474376151541], [128.03407677612233, 36.163710231841776], [128.0227079614034, 36.21585175225664], [128.00007368385354, 36.2293393013677], [127.94901736905638, 36.21944326409539], [127.92958702971771, 36.22688467109077], [127.90126834525802, 36.245979111846566], [127.87708377499632, 36.252361152545234], [127.83687951098068, 36.24471303997484], [127.83088504390969, 36.292229518877264], [127.85300255662276, 36.307654934327786], [127.86736860577662, 36.33070262302766], [127.85630984942009, 36.34648977278482], [127.85000532398658, 36.363723863365635], [127.85599979105757, 36.38775340399644], [127.8600305515688, 36.44224620190073], [127.86995242726277, 36.465113023447316], [127.88814253135286, 36.479401557336075], [127.83915327410443, 36.536633206357465], [127.79998253796384, 36.541981716483065], [127.7887170760323, 36.56484853802965], [127.8034965354368, 36.57037791620792], [127.81817264205381, 36.57252248812239], [127.83264204309592, 36.584976508459135], [127.85517296785827, 36.60929026993006], [127.8607540219806, 36.619496365564885], [127.86013390525557, 36.62882396115691], [127.86271772674172, 36.640709539813486], [127.89382693916195, 36.65768524797585], [127.92876020741767, 36.67099192993368], [127.95046430898071, 36.69698517532561], [127.98860151634699, 36.683704331789556], [128.05950158073347, 36.67466095613827], [128.04492882690386, 36.697140204057234], [128.02580854682708, 36.71693227770248], [128.0325264834105, 36.737447821759645], [128.04503217969136, 36.75930695205426], [128.0571244648222, 36.77574005785743], [128.07314415857616, 36.76723928546471], [128.09309126185235, 36.76860871012394], [128.1095243667562, 36.786359565541545], [128.12657759018373, 36.79517039629678], [128.14270063672507, 36.78682465353501], [128.1736031426709, 36.778117173768635], [128.20243859286688, 36.77630849953766], [128.20946658691355, 36.79279328128496], [128.21442752521023, 36.808373725467106], [128.22486616394235, 36.82157705283879], [128.23788862506, 36.83188650216039], [128.25091108617778, 36.82018178975784], [128.26755089665664, 36.81067332611315], [128.2911153501933, 36.79431773557508], [128.3059981632847, 36.77015900283578], [128.34165490105295, 36.760753892877915], [128.42537072188134, 36.78896922544942], [128.44015018128584, 36.828217475056476], [128.42692101459318, 36.83798432111956], [128.41989301964725, 36.84777700470505], [128.4326054224024, 36.86643219678848], [128.44304406113463, 36.885242418502855], [128.46505822195945, 36.9104346791172], [128.4959607279053, 36.92797882716121], [128.50474572203746, 36.940717068338074], [128.51714806463156, 36.94898529673412], [128.53781863831955, 36.95417877902747], [128.5544584487984, 36.96709788735768], [128.5798832543088, 36.984099433042445], [128.6029309430087, 37.0036331242693], [128.6126461122284, 37.008594062565976], [128.62453169178423, 37.004925035462065], [128.6380709168394, 37.01117788315281], [128.65026655475776, 37.022262477931065], [128.63021609869406, 37.03262360319678], [128.60995893795473, 37.03965159814277], [128.5845341333436, 37.04200287473293], [128.55848921110828, 37.0461111523079], [128.5321342314097, 37.05975373015059], [128.50836307229804, 37.07414561592748], [128.48448856039886, 37.07401642471825], [128.46040734292455, 37.06786692981501], [128.43890994693652, 37.064818020335395], [128.42071984284655, 37.063732814717696], [128.4134851423255, 37.07688446704458], [128.3936413918368, 37.09334341126947], [128.39539839102304, 37.10760610583719], [128.38547651622832, 37.11633942312591], [128.33783084521735, 37.1119986033529], [128.30744510320903, 37.10388540278916], [128.29835005071436, 37.100474758103644], [128.28946170469396, 37.10062978773459], [128.2753023620145, 37.106882636324656], [128.26434695934472, 37.11675283517525], [128.2815035337611, 37.13799184784557], [128.3103389830577, 37.15437327680536], [128.32191450425103, 37.17543142322165], [128.30393110573596, 37.179746406371635], [128.2468803238679, 37.18692943004919], [128.19106977814783, 37.202794094172134], [128.16791873576108, 37.18853139870515], [128.14817833895927, 37.180263170309104], [128.1243038270601, 37.18426809329793], [128.1042533709964, 37.17191742574863], [128.0711804547143, 37.15721548070991], [128.03800418474543, 37.150807603388216], [128.02560184125207, 37.164682726126955], [128.02560184125207, 37.18615428279395], [127.9875679866733, 37.218271186466154], [127.93661502466375, 37.20452525493664], [127.91770145106113, 37.1860250924841], [127.92317915329534, 37.13742340796398], [127.90292199075736, 37.126338813185725], [127.8962040550731, 37.119801743755545], [127.88845258971526, 37.11440155678645], [127.87987430205749, 37.11760549589695], [127.87139936718711, 37.12181712536011], [127.8408069187044, 37.12352244680352], [127.81042117669597, 37.11778636305024], [127.81899946525323, 37.166052150786186], [127.71264936687487, 37.15445079207046], [127.60702273980769, 37.131351427426466]]]}}]}