{"type": "FeatureCollection", "features": [{"type": "Feature", "properties": {"shapeName": "Cheongju-si", "shapeISO": "", "shapeID": "91817680B7472001038353", "shapeGroup": "KOR", "shapeType": "ADM2"}, "geometry": {"type": "Polygon", "coordinates": [[[127.66989632600188, 36.71529900624264], [127.65902011700007, 36.70339045600008], [127.66020184900003, 36.700548076000075], [127.65311145400005, 36.69581054200006], [127.63538546600012, 36.69675807200008], [127.62593160600011, 36.69865309700003], [127.61884121100002, 36.709074901000065], [127.609387351, 36.72517854600005], [127.60229695500004, 36.73938484000007], [127.59993349000001, 36.74317274200007], [127.59166136300007, 36.75264167700004], [127.58102577000011, 36.75926923600008], [127.57039017700004, 36.76778954300005], [127.56389063294239, 36.77299592676206], [127.54202859600002, 36.76684288900003], [127.53257473600002, 36.764949546000025], [127.52430260800008, 36.76021598400007], [127.51366701600011, 36.761162719000026], [127.50657662000003, 36.76400285700004], [127.49830449300009, 36.77062943400006], [127.47230637700011, 36.76684288900003], [127.4628525170001, 36.76021598400007], [127.45576212200001, 36.75074798300005], [127.44630826100001, 36.745066622000024], [127.42740054100011, 36.74411968800007], [127.41321975000005, 36.74033183300003], [127.40258415800008, 36.741278814000054], [127.391948565, 36.74411968800007], [127.38013124000008, 36.75358850600003], [127.35531485600006, 36.75264167700004], [127.347042729, 36.74980111900004], [127.33877060100008, 36.74411968800007], [127.33758886800001, 36.72896714800004], [127.32813500800012, 36.721389757000054], [127.31395421800005, 36.72044253000007], [127.30450035800004, 36.701495548000025], [127.30331862500009, 36.68633459800003], [127.30331862500009, 36.68443926900005], [127.30331862500009, 36.67590971100003], [127.30331862500009, 36.658847758000036], [127.29859169500003, 36.65031536300006], [127.28913783500002, 36.643678402000035], [127.28322917200012, 36.633247736000044], [127.28559263700004, 36.621867218000034], [127.30095516000006, 36.615227806000064], [127.31159075300002, 36.59910114000007], [127.3092272880001, 36.587715581000054], [127.3222263460001, 36.57917531000004], [127.33758886800001, 36.56588856500008], [127.35531485600006, 36.557345879000025], [127.37422257700007, 36.557345879000025], [127.38013124000008, 36.545954162000044], [127.39549376200011, 36.53551028000004], [127.40967455300006, 36.52791384300008], [127.41203801800009, 36.51841724800005], [127.4084928200001, 36.50322027100003], [127.40258415800008, 36.488970395000024], [127.40494762300011, 36.47471789800005], [127.40612935500008, 36.46331401300006], [127.40022069300005, 36.45000736000003], [127.4179466810001, 36.44620503900006], [127.43567266900004, 36.449056797000026], [127.45576212200001, 36.44715563700004], [127.46521598200002, 36.45000736000003], [127.47230637700011, 36.45761144100004], [127.47703330700006, 36.469966483000064], [127.49121409700001, 36.46616514100003], [127.49003236500005, 36.45380949300005], [127.49239583000008, 36.44620503900006], [127.50657662000003, 36.445254430000034], [127.50657662000003, 36.439550531000066], [127.49830449300009, 36.42814147300004], [127.49003236500005, 36.42148541600005], [127.49149210804494, 36.41952760734646], [127.49712276000002, 36.41197577200006], [127.51603048100003, 36.40341609700005], [127.52075741100009, 36.41387779400003], [127.523120876, 36.42243631600007], [127.545573794, 36.43669842300005], [127.5621180490001, 36.45761144100004], [127.56920844500007, 36.469966483000064], [127.57629884000005, 36.48516998600007], [127.57629884000005, 36.50891948700007], [127.57629884000005, 36.52126634900003], [127.58929789800004, 36.53456076600003], [127.60702388600009, 36.54025767400003], [127.6164777460001, 36.54880224900006], [127.61884121100002, 36.562091932000044], [127.62356814100008, 36.570634093000024], [127.63774893100003, 36.581073229000026], [127.64720279200003, 36.593408571000055], [127.66256531400006, 36.59625490800005], [127.67320090700002, 36.592459768000026], [127.68029130200011, 36.58392002200003], [127.69801729000005, 36.58202217200005], [127.71101634800004, 36.58486892900004], [127.7157432780001, 36.592459768000026], [127.73110580100001, 36.59151095400006], [127.73701446400003, 36.58392002200003], [127.7476500570001, 36.58012427500006], [127.76064911500009, 36.58012427500006], [127.76537604500004, 36.58202217200005], [127.77128470700006, 36.59625490800005], [127.76655777700012, 36.59625490800005], [127.75828564900007, 36.607639207000034], [127.75355871900001, 36.61712483900004], [127.74528659200007, 36.626609305000045], [127.73701446400003, 36.635144326000045], [127.72992406900005, 36.63798912300007], [127.7157432780001, 36.65031536300006], [127.71692501100006, 36.65505569900006], [127.72047020800005, 36.66358756900007], [127.73110580100001, 36.66927495700003], [127.72992406900005, 36.67496192400006], [127.72047020800005, 36.68538693900007], [127.71101634800004, 36.69865309700003], [127.7027442210001, 36.70339045600008], [127.6932903600001, 36.707180133000065], [127.68501823300005, 36.71096962300004], [127.66989632600188, 36.71529900624264]]]}}, {"type": "Feature", "properties": {"shapeName": "Sejong-si", "shapeISO": "", "shapeID": "91817680B40148089014896", "shapeGroup": "KOR", "shapeType": "ADM2"}, "geometry": {"type": "Polygon", "coordinates": [[[127.30331862500009, 36.68443926900005], [127.27850224200006, 36.68254389400005], [127.26668491700002, 36.68349158700005], [127.25250412600008, 36.68633459800003], [127.24068680100004, 36.694863], [127.23477813800002, 36.702443008000046], [127.21114348800006, 36.716653508000036], [127.18750883700011, 36.72233697200005], [127.16978284900006, 36.724231366000026], [127.14969339600009, 36.710022268000046], [127.13905780300001, 36.700548076000075], [127.13551260600002, 36.69012511600005], [127.1461481980001, 36.68349158700005], [127.16623765100007, 36.67970074300007], [127.16741938400003, 36.66737920700007], [127.16032898900005, 36.66074371700006], [127.1591472560001, 36.64841914700003], [127.1591472560001, 36.633247736000044], [127.15949512456604, 36.62933889871193], [127.16151072100001, 36.60669057900003], [127.16269245400008, 36.59815240800003], [127.16978284900006, 36.590562128000045], [127.18514537200008, 36.58866444200004], [127.19578096500004, 36.58202217200005], [127.20641655800011, 36.57443030600007], [127.20759829000008, 36.56304110800005], [127.2005078950001, 36.55070091500005], [127.19105403500009, 36.54215655000007], [127.1780549770001, 36.53266170300003], [127.1780549770001, 36.51746752400004], [127.1780549770001, 36.49752063500006], [127.1780549770001, 36.486120106000044], [127.18750883700011, 36.48041921200007], [127.18987230200003, 36.47186708400005], [127.19459923200009, 36.462363613000036], [127.20641655800011, 36.449056797000026], [127.20759829000008, 36.43574769800006], [127.20641655800011, 36.42814147300004], [127.2229608130001, 36.42148541600005], [127.23714160300005, 36.41482878700003], [127.25250412600008, 36.40436721900005], [127.2678666490001, 36.40436721900005], [127.28559263700004, 36.40626942700004], [127.29386476500008, 36.41673073900006], [127.30450035800004, 36.42148541600005], [127.31159075300002, 36.42148541600005], [127.31631768300008, 36.41673073900006], [127.32458981100001, 36.41673073900006], [127.33877060100008, 36.41958358000005], [127.34467926400009, 36.42814147300004], [127.35176965900007, 36.440501210000036], [127.36476871700006, 36.45380949300005], [127.36476871700006, 36.46046277900007], [127.36240525200003, 36.47281736700006], [127.36713218200009, 36.486120106000044], [127.37894950700002, 36.48707021400003], [127.40258415800008, 36.488970395000024], [127.4084928200001, 36.50322027100003], [127.41203801800009, 36.51841724800005], [127.40967455300006, 36.52791384300008], [127.39549376200011, 36.53551028000004], [127.38013124000008, 36.545954162000044], [127.37422257700007, 36.557345879000025], [127.35531485600006, 36.557345879000025], [127.33758886800001, 36.56588856500008], [127.3222263460001, 36.57917531000004], [127.3092272880001, 36.587715581000054], [127.31159075300002, 36.59910114000007], [127.30095516000006, 36.615227806000064], [127.28559263700004, 36.621867218000034], [127.28322917200012, 36.633247736000044], [127.28913783500002, 36.643678402000035], [127.29859169500003, 36.65031536300006], [127.30331862500009, 36.658847758000036], [127.30331862500009, 36.67590971100003], [127.30331862500009, 36.68443926900005]]]}}]}